<?xml version="1.0" encoding="UTF-8"?>
<gpx creator="StravaGPX" version="1.1" xmlns="http://www.topografix.com/GPX/1/1" xmlns:xsi="http://www.w3.org/2001/XMLSchema-instance" xsi:schemaLocation="http://www.topografix.com/GPX/1/1 http://www.topografix.com/GPX/1/1/gpx.xsd">
 <metadata>
  <name>A WCC gravel ride to H&amp;W Taplow </name>
  <author>
   <name>Andy Gundry</name>
   <link href="https://www.strava.com/athletes/25556211"/>
  </author>
  <copyright author="OpenStreetMap contributors">
   <year>2020</year>
   <license>https://www.openstreetmap.org/copyright</license>
  </copyright>
  <link href="https://www.strava.com/routes/3499032843550327328"/>
 </metadata>
 <wpt lat="51.4996" lon="-0.68202">
  <name>Monkey Island 🐒</name>
  <desc></desc>
  <sym>Generic</sym>
  <type>Generic</type>
 </wpt>
 <wpt lat="51.52642" lon="-0.70004">
  <name>Coffee Stop</name>
  <desc></desc>
  <sym>Coffee</sym>
  <type>Coffee</type>
 </wpt>
 <wpt lat="51.49454" lon="-0.7867">
  <name>🐑 Mansion</name>
  <desc></desc>
  <sym>Alert</sym>
  <type>Alert</type>
 </wpt>
 <trk>
  <name>A WCC gravel ride to H&amp;W Taplow </name>
  <link href="https://www.strava.com/routes/3499032843550327328"/>
  <type>gravel_biking</type>
  <trkseg>
   <trkpt lat="51.420500000000004" lon="-0.8356100000000001">
    <ele>55.45</ele>
   </trkpt>
   <trkpt lat="51.420260000000006" lon="-0.83462">
    <ele>56.64</ele>
   </trkpt>
   <trkpt lat="51.42022000000001" lon="-0.83435">
    <ele>56.71</ele>
   </trkpt>
   <trkpt lat="51.42022000000001" lon="-0.83413">
    <ele>56.7</ele>
   </trkpt>
   <trkpt lat="51.420280000000005" lon="-0.83325">
    <ele>56.28</ele>
   </trkpt>
   <trkpt lat="51.42116000000001" lon="-0.8334100000000001">
    <ele>54.49</ele>
   </trkpt>
   <trkpt lat="51.421220000000005" lon="-0.83335">
    <ele>54.49</ele>
   </trkpt>
   <trkpt lat="51.42145000000001" lon="-0.8333">
    <ele>53.43000000000001</ele>
   </trkpt>
   <trkpt lat="51.421440000000004" lon="-0.8332200000000001">
    <ele>53.43000000000001</ele>
   </trkpt>
   <trkpt lat="51.42161" lon="-0.83311">
    <ele>52.71000000000001</ele>
   </trkpt>
   <trkpt lat="51.421580000000006" lon="-0.8328300000000001">
    <ele>52.7</ele>
   </trkpt>
   <trkpt lat="51.421690000000005" lon="-0.8322">
    <ele>52.71000000000001</ele>
   </trkpt>
   <trkpt lat="51.42186" lon="-0.83167">
    <ele>52.690000000000005</ele>
   </trkpt>
   <trkpt lat="51.42211" lon="-0.83135">
    <ele>51.760000000000005</ele>
   </trkpt>
   <trkpt lat="51.42230000000001" lon="-0.8310000000000001">
    <ele>51.0</ele>
   </trkpt>
   <trkpt lat="51.42250000000001" lon="-0.83057">
    <ele>50.620000000000005</ele>
   </trkpt>
   <trkpt lat="51.422670000000004" lon="-0.8299300000000001">
    <ele>50.38</ele>
   </trkpt>
   <trkpt lat="51.42289500570243" lon="-0.8287700058240218">
    <ele>49.57</ele>
   </trkpt>
   <trkpt lat="51.423120000000004" lon="-0.8276100000000001">
    <ele>50.050000000000004</ele>
   </trkpt>
   <trkpt lat="51.423320000000004" lon="-0.82647">
    <ele>51.29</ele>
   </trkpt>
   <trkpt lat="51.42338" lon="-0.82632">
    <ele>51.980000000000004</ele>
   </trkpt>
   <trkpt lat="51.42352" lon="-0.82608">
    <ele>51.980000000000004</ele>
   </trkpt>
   <trkpt lat="51.42358" lon="-0.82593">
    <ele>51.980000000000004</ele>
   </trkpt>
   <trkpt lat="51.423610000000004" lon="-0.82574">
    <ele>51.980000000000004</ele>
   </trkpt>
   <trkpt lat="51.42362000000001" lon="-0.82537">
    <ele>52.53000000000001</ele>
   </trkpt>
   <trkpt lat="51.42362000000001" lon="-0.8244600000000001">
    <ele>53.28</ele>
   </trkpt>
   <trkpt lat="51.42371000000001" lon="-0.8241400000000001">
    <ele>53.51</ele>
   </trkpt>
   <trkpt lat="51.42378" lon="-0.8240500000000001">
    <ele>53.51</ele>
   </trkpt>
   <trkpt lat="51.42398000000001" lon="-0.82384">
    <ele>53.660000000000004</ele>
   </trkpt>
   <trkpt lat="51.42421" lon="-0.8238300000000001">
    <ele>53.77</ele>
   </trkpt>
   <trkpt lat="51.42466499999903" lon="-0.8238999992996819">
    <ele>54.82000000000001</ele>
   </trkpt>
   <trkpt lat="51.42512000000001" lon="-0.8239700000000001">
    <ele>56.940000000000005</ele>
   </trkpt>
   <trkpt lat="51.425700000000006" lon="-0.82403">
    <ele>57.53</ele>
   </trkpt>
   <trkpt lat="51.426280000194424" lon="-0.824124998819751">
    <ele>54.67</ele>
   </trkpt>
   <trkpt lat="51.426860000000005" lon="-0.8242200000000001">
    <ele>52.63</ele>
   </trkpt>
   <trkpt lat="51.427490000056935" lon="-0.8240850018657253">
    <ele>50.93</ele>
   </trkpt>
   <trkpt lat="51.42812000000001" lon="-0.8239500000000001">
    <ele>51.410000000000004</ele>
   </trkpt>
   <trkpt lat="51.428670000000004" lon="-0.8237800000000001">
    <ele>52.620000000000005</ele>
   </trkpt>
   <trkpt lat="51.42913" lon="-0.82362">
    <ele>53.03000000000001</ele>
   </trkpt>
   <trkpt lat="51.42955500023732" lon="-0.8233600024491922">
    <ele>53.45</ele>
   </trkpt>
   <trkpt lat="51.42998000000001" lon="-0.8231">
    <ele>53.45</ele>
   </trkpt>
   <trkpt lat="51.430455000106576" lon="-0.8228850022760006">
    <ele>54.17</ele>
   </trkpt>
   <trkpt lat="51.430930000000004" lon="-0.82267">
    <ele>54.39000000000001</ele>
   </trkpt>
   <trkpt lat="51.431485000252536" lon="-0.8224950020873207">
    <ele>55.550000000000004</ele>
   </trkpt>
   <trkpt lat="51.43204000000001" lon="-0.82232">
    <ele>57.040000000000006</ele>
   </trkpt>
   <trkpt lat="51.43224000000001" lon="-0.8223600000000001">
    <ele>57.28</ele>
   </trkpt>
   <trkpt lat="51.43227" lon="-0.8223900000000001">
    <ele>57.660000000000004</ele>
   </trkpt>
   <trkpt lat="51.43231" lon="-0.8223900000000001">
    <ele>57.660000000000004</ele>
   </trkpt>
   <trkpt lat="51.43236" lon="-0.82235">
    <ele>57.870000000000005</ele>
   </trkpt>
   <trkpt lat="51.43238" lon="-0.8222600000000001">
    <ele>57.980000000000004</ele>
   </trkpt>
   <trkpt lat="51.43235000000001" lon="-0.82218">
    <ele>57.93</ele>
   </trkpt>
   <trkpt lat="51.43233000000001" lon="-0.82215">
    <ele>57.93</ele>
   </trkpt>
   <trkpt lat="51.432300000000005" lon="-0.82188">
    <ele>57.32</ele>
   </trkpt>
   <trkpt lat="51.432320000000004" lon="-0.8207000000000001">
    <ele>55.910000000000004</ele>
   </trkpt>
   <trkpt lat="51.43232000248943" lon="-0.819934999948735">
    <ele>54.81</ele>
   </trkpt>
   <trkpt lat="51.432320000000004" lon="-0.8191700000000001">
    <ele>54.01</ele>
   </trkpt>
   <trkpt lat="51.43229501962137" lon="-0.8179299979363661">
    <ele>51.88</ele>
   </trkpt>
   <trkpt lat="51.432270026161426" lon="-0.8166899972291203">
    <ele>50.79</ele>
   </trkpt>
   <trkpt lat="51.432245019620204" lon="-0.8154499978789698">
    <ele>52.08</ele>
   </trkpt>
   <trkpt lat="51.43222" lon="-0.8142100000000001">
    <ele>54.31</ele>
   </trkpt>
   <trkpt lat="51.432190000000006" lon="-0.8137500000000001">
    <ele>54.99</ele>
   </trkpt>
   <trkpt lat="51.43208001286337" lon="-0.8125199939895943">
    <ele>57.28</ele>
   </trkpt>
   <trkpt lat="51.4319700128555" lon="-0.8112899939018814">
    <ele>58.870000000000005</ele>
   </trkpt>
   <trkpt lat="51.43186000000001" lon="-0.8100600000000001">
    <ele>60.2</ele>
   </trkpt>
   <trkpt lat="51.43176334217755" lon="-0.80903999560834">
    <ele>60.52</ele>
   </trkpt>
   <trkpt lat="51.43166667550371" lon="-0.8080199955328528">
    <ele>61.18000000000001</ele>
   </trkpt>
   <trkpt lat="51.43157" lon="-0.807">
    <ele>61.900000000000006</ele>
   </trkpt>
   <trkpt lat="51.43139000000001" lon="-0.8058700000000001">
    <ele>62.67</ele>
   </trkpt>
   <trkpt lat="51.43179000075908" lon="-0.8054950031324133">
    <ele>63.11</ele>
   </trkpt>
   <trkpt lat="51.432190000000006" lon="-0.8051200000000001">
    <ele>63.32</ele>
   </trkpt>
   <trkpt lat="51.43302857748239" lon="-0.8046329107964822">
    <ele>61.89000000000001</ele>
   </trkpt>
   <trkpt lat="51.43386715294626" lon="-0.8041458037108192">
    <ele>56.900000000000006</ele>
   </trkpt>
   <trkpt lat="51.43470572639143" lon="-0.8036586787418605">
    <ele>54.52</ele>
   </trkpt>
   <trkpt lat="51.43554429781779" lon="-0.8031715358884554">
    <ele>54.49</ele>
   </trkpt>
   <trkpt lat="51.43638286722521" lon="-0.8026843751494533">
    <ele>58.34</ele>
   </trkpt>
   <trkpt lat="51.43722143461356" lon="-0.8021971965237039">
    <ele>63.17</ele>
   </trkpt>
   <trkpt lat="51.43806000000001" lon="-0.80171">
    <ele>66.21000000000001</ele>
   </trkpt>
   <trkpt lat="51.438649999989785" lon="-0.801615001234963">
    <ele>67.57000000000001</ele>
   </trkpt>
   <trkpt lat="51.439240000000005" lon="-0.80152">
    <ele>69.25</ele>
   </trkpt>
   <trkpt lat="51.43955000529414" lon="-0.8004050075461409">
    <ele>70.38000000000001</ele>
   </trkpt>
   <trkpt lat="51.43986" lon="-0.7992900000000001">
    <ele>70.41</ele>
   </trkpt>
   <trkpt lat="51.4400200026551" lon="-0.7985000027651256">
    <ele>70.85000000000001</ele>
   </trkpt>
   <trkpt lat="51.440180000000005" lon="-0.79771">
    <ele>70.58</ele>
   </trkpt>
   <trkpt lat="51.440470000000005" lon="-0.79676">
    <ele>69.96000000000001</ele>
   </trkpt>
   <trkpt lat="51.440870000000004" lon="-0.79578">
    <ele>71.71000000000001</ele>
   </trkpt>
   <trkpt lat="51.44135000000001" lon="-0.79517">
    <ele>73.87</ele>
   </trkpt>
   <trkpt lat="51.441680000000005" lon="-0.795">
    <ele>75.88</ele>
   </trkpt>
   <trkpt lat="51.44171000000001" lon="-0.7949100000000001">
    <ele>75.88</ele>
   </trkpt>
   <trkpt lat="51.441950000000006" lon="-0.79517">
    <ele>75.50000000000001</ele>
   </trkpt>
   <trkpt lat="51.44234" lon="-0.7954100000000001">
    <ele>75.33000000000001</ele>
   </trkpt>
   <trkpt lat="51.442730000000005" lon="-0.79547">
    <ele>74.49</ele>
   </trkpt>
   <trkpt lat="51.44304" lon="-0.7954100000000001">
    <ele>74.13</ele>
   </trkpt>
   <trkpt lat="51.44346" lon="-0.79507">
    <ele>74.37</ele>
   </trkpt>
   <trkpt lat="51.4438350008607" lon="-0.7946050038915703">
    <ele>75.27</ele>
   </trkpt>
   <trkpt lat="51.444210000000005" lon="-0.7941400000000001">
    <ele>75.67</ele>
   </trkpt>
   <trkpt lat="51.44453000000001" lon="-0.79383">
    <ele>75.83000000000001</ele>
   </trkpt>
   <trkpt lat="51.445150000000005" lon="-0.79334">
    <ele>75.23</ele>
   </trkpt>
   <trkpt lat="51.44541" lon="-0.7929">
    <ele>74.89000000000001</ele>
   </trkpt>
   <trkpt lat="51.44548" lon="-0.7925300000000001">
    <ele>74.63</ele>
   </trkpt>
   <trkpt lat="51.445510000000006" lon="-0.79151">
    <ele>70.44</ele>
   </trkpt>
   <trkpt lat="51.44567000000001" lon="-0.7905300000000001">
    <ele>64.88000000000001</ele>
   </trkpt>
   <trkpt lat="51.44580000341786" lon="-0.7896400021997989">
    <ele>59.14</ele>
   </trkpt>
   <trkpt lat="51.445930000000004" lon="-0.7887500000000001">
    <ele>56.690000000000005</ele>
   </trkpt>
   <trkpt lat="51.44595" lon="-0.78815">
    <ele>54.3</ele>
   </trkpt>
   <trkpt lat="51.44588" lon="-0.78739">
    <ele>54.01</ele>
   </trkpt>
   <trkpt lat="51.445870000000006" lon="-0.78678">
    <ele>51.99</ele>
   </trkpt>
   <trkpt lat="51.44595" lon="-0.78617">
    <ele>51.39</ele>
   </trkpt>
   <trkpt lat="51.445890000000006" lon="-0.7857000000000001">
    <ele>51.13</ele>
   </trkpt>
   <trkpt lat="51.44596000000001" lon="-0.78563">
    <ele>51.13</ele>
   </trkpt>
   <trkpt lat="51.446706669270284" lon="-0.7850766847635843">
    <ele>50.17</ele>
   </trkpt>
   <trkpt lat="51.44745333593608" lon="-0.7845233514312584">
    <ele>49.74</ele>
   </trkpt>
   <trkpt lat="51.44820000000001" lon="-0.7839700000000001">
    <ele>50.14</ele>
   </trkpt>
   <trkpt lat="51.44903333373638" lon="-0.7837500080329689">
    <ele>52.31</ele>
   </trkpt>
   <trkpt lat="51.44986666706107" lon="-0.7835300080354306">
    <ele>55.49</ele>
   </trkpt>
   <trkpt lat="51.450700000000005" lon="-0.7833100000000001">
    <ele>56.120000000000005</ele>
   </trkpt>
   <trkpt lat="51.4508" lon="-0.7833100000000001">
    <ele>56.120000000000005</ele>
   </trkpt>
   <trkpt lat="51.450900000000004" lon="-0.7833800000000001">
    <ele>56.06</ele>
   </trkpt>
   <trkpt lat="51.45100000000001" lon="-0.78324">
    <ele>56.06</ele>
   </trkpt>
   <trkpt lat="51.45125" lon="-0.78307">
    <ele>55.77</ele>
   </trkpt>
   <trkpt lat="51.45138000000001" lon="-0.7829200000000001">
    <ele>55.77</ele>
   </trkpt>
   <trkpt lat="51.45183501242249" lon="-0.7819325295683418">
    <ele>54.78</ele>
   </trkpt>
   <trkpt lat="51.45229001655035" lon="-0.780945039453259">
    <ele>53.27</ele>
   </trkpt>
   <trkpt lat="51.45274501238331" lon="-0.7799575296543974">
    <ele>52.39000000000001</ele>
   </trkpt>
   <trkpt lat="51.4532" lon="-0.77897">
    <ele>50.31000000000001</ele>
   </trkpt>
   <trkpt lat="51.45342" lon="-0.77863">
    <ele>48.690000000000005</ele>
   </trkpt>
   <trkpt lat="51.453930003307036" lon="-0.778010013807815">
    <ele>47.34</ele>
   </trkpt>
   <trkpt lat="51.454440003344374" lon="-0.777390013762625">
    <ele>45.84</ele>
   </trkpt>
   <trkpt lat="51.454950000000004" lon="-0.7767700000000001">
    <ele>44.980000000000004</ele>
   </trkpt>
   <trkpt lat="51.45562" lon="-0.77605">
    <ele>44.39000000000001</ele>
   </trkpt>
   <trkpt lat="51.455890000000004" lon="-0.7758600000000001">
    <ele>44.44</ele>
   </trkpt>
   <trkpt lat="51.45617500178988" lon="-0.7752200038884621">
    <ele>42.63</ele>
   </trkpt>
   <trkpt lat="51.45646000000001" lon="-0.77458">
    <ele>42.1</ele>
   </trkpt>
   <trkpt lat="51.45682000000001" lon="-0.77402">
    <ele>41.72</ele>
   </trkpt>
   <trkpt lat="51.45720500114758" lon="-0.7735100042468511">
    <ele>41.56</ele>
   </trkpt>
   <trkpt lat="51.45759" lon="-0.773">
    <ele>41.580000000000005</ele>
   </trkpt>
   <trkpt lat="51.45818500285352" lon="-0.7721800106978405">
    <ele>41.32</ele>
   </trkpt>
   <trkpt lat="51.458780000000004" lon="-0.77136">
    <ele>41.03</ele>
   </trkpt>
   <trkpt lat="51.45904" lon="-0.77105">
    <ele>40.89</ele>
   </trkpt>
   <trkpt lat="51.459140000000005" lon="-0.77085">
    <ele>40.89</ele>
   </trkpt>
   <trkpt lat="51.45918" lon="-0.7704700000000001">
    <ele>41.03</ele>
   </trkpt>
   <trkpt lat="51.459250000000004" lon="-0.7707900000000001">
    <ele>41.050000000000004</ele>
   </trkpt>
   <trkpt lat="51.459140000000005" lon="-0.77085">
    <ele>40.88</ele>
   </trkpt>
   <trkpt lat="51.45918" lon="-0.7704700000000001">
    <ele>40.88</ele>
   </trkpt>
   <trkpt lat="51.4592" lon="-0.77009">
    <ele>40.79</ele>
   </trkpt>
   <trkpt lat="51.459160003847224" lon="-0.7691399993812917">
    <ele>40.690000000000005</ele>
   </trkpt>
   <trkpt lat="51.459120000000006" lon="-0.76819">
    <ele>40.650000000000006</ele>
   </trkpt>
   <trkpt lat="51.459226682158885" lon="-0.7668400064307321">
    <ele>40.31</ele>
   </trkpt>
   <trkpt lat="51.459333348816074" lon="-0.7654900065510066">
    <ele>40.38</ele>
   </trkpt>
   <trkpt lat="51.45944" lon="-0.76414">
    <ele>40.28</ele>
   </trkpt>
   <trkpt lat="51.459480000000006" lon="-0.7638">
    <ele>40.61</ele>
   </trkpt>
   <trkpt lat="51.459610000000005" lon="-0.7637100000000001">
    <ele>40.720000000000006</ele>
   </trkpt>
   <trkpt lat="51.45951" lon="-0.7629400000000001">
    <ele>40.59</ele>
   </trkpt>
   <trkpt lat="51.45946000000001" lon="-0.7627700000000001">
    <ele>40.59</ele>
   </trkpt>
   <trkpt lat="51.459410000000005" lon="-0.76224">
    <ele>40.86</ele>
   </trkpt>
   <trkpt lat="51.45926000231053" lon="-0.7615049976481503">
    <ele>40.84</ele>
   </trkpt>
   <trkpt lat="51.45911" lon="-0.7607700000000001">
    <ele>41.11</ele>
   </trkpt>
   <trkpt lat="51.459053345442165" lon="-0.759576663623731">
    <ele>42.21</ele>
   </trkpt>
   <trkpt lat="51.45899667877168" lon="-0.7583833302103061">
    <ele>42.730000000000004</ele>
   </trkpt>
   <trkpt lat="51.458940000000005" lon="-0.75719">
    <ele>43.59</ele>
   </trkpt>
   <trkpt lat="51.4590925162977" lon="-0.7560600112808197">
    <ele>44.730000000000004</ele>
   </trkpt>
   <trkpt lat="51.45924502173451" lon="-0.7549300150099839">
    <ele>45.59</ele>
   </trkpt>
   <trkpt lat="51.459397516310304" lon="-0.7538000111879389">
    <ele>47.03</ele>
   </trkpt>
   <trkpt lat="51.45955000000001" lon="-0.7526700000000001">
    <ele>47.790000000000006</ele>
   </trkpt>
   <trkpt lat="51.459420014541564" lon="-0.7516024908975227">
    <ele>48.28</ele>
   </trkpt>
   <trkpt lat="51.45929001939021" lon="-0.7505349878757263">
    <ele>48.67</ele>
   </trkpt>
   <trkpt lat="51.459160014546065" lon="-0.7494674909350013">
    <ele>49.160000000000004</ele>
   </trkpt>
   <trkpt lat="51.459030000000006" lon="-0.7484000000000001">
    <ele>51.53000000000001</ele>
   </trkpt>
   <trkpt lat="51.45888667656983" lon="-0.7473199930811906">
    <ele>55.6</ele>
   </trkpt>
   <trkpt lat="51.458743343218444" lon="-0.7462399929453528">
    <ele>60.68000000000001</ele>
   </trkpt>
   <trkpt lat="51.458600000000004" lon="-0.74516">
    <ele>64.27000000000001</ele>
   </trkpt>
   <trkpt lat="51.458490000000005" lon="-0.7449800000000001">
    <ele>65.05000000000001</ele>
   </trkpt>
   <trkpt lat="51.458450000000006" lon="-0.74485">
    <ele>65.10000000000001</ele>
   </trkpt>
   <trkpt lat="51.45835" lon="-0.7447100000000001">
    <ele>65.04</ele>
   </trkpt>
   <trkpt lat="51.458515003134295" lon="-0.7438450033778083">
    <ele>65.49000000000001</ele>
   </trkpt>
   <trkpt lat="51.45868" lon="-0.7429800000000001">
    <ele>66.04</ele>
   </trkpt>
   <trkpt lat="51.45868" lon="-0.74297">
    <ele>66.64</ele>
   </trkpt>
   <trkpt lat="51.458510000000004" lon="-0.74289">
    <ele>66.65</ele>
   </trkpt>
   <trkpt lat="51.458310000000004" lon="-0.74221">
    <ele>67.53</ele>
   </trkpt>
   <trkpt lat="51.45825000000001" lon="-0.74207">
    <ele>67.53</ele>
   </trkpt>
   <trkpt lat="51.458180000000006" lon="-0.7419800000000001">
    <ele>67.68</ele>
   </trkpt>
   <trkpt lat="51.458040000000004" lon="-0.74146">
    <ele>69.02000000000001</ele>
   </trkpt>
   <trkpt lat="51.45803" lon="-0.74131">
    <ele>69.5</ele>
   </trkpt>
   <trkpt lat="51.458330000000004" lon="-0.7410300000000001">
    <ele>69.72</ele>
   </trkpt>
   <trkpt lat="51.45870000000001" lon="-0.74075">
    <ele>69.03</ele>
   </trkpt>
   <trkpt lat="51.45859" lon="-0.74033">
    <ele>68.91</ele>
   </trkpt>
   <trkpt lat="51.458200000000005" lon="-0.73921">
    <ele>70.61</ele>
   </trkpt>
   <trkpt lat="51.457730000000005" lon="-0.73816">
    <ele>73.12</ele>
   </trkpt>
   <trkpt lat="51.45738000000001" lon="-0.73721">
    <ele>74.04</ele>
   </trkpt>
   <trkpt lat="51.45801" lon="-0.73626">
    <ele>73.53000000000002</ele>
   </trkpt>
   <trkpt lat="51.458040000000004" lon="-0.7361300000000001">
    <ele>73.52</ele>
   </trkpt>
   <trkpt lat="51.458040000000004" lon="-0.73592">
    <ele>73.52</ele>
   </trkpt>
   <trkpt lat="51.45791500233206" lon="-0.7351749977903577">
    <ele>73.73</ele>
   </trkpt>
   <trkpt lat="51.45779" lon="-0.73443">
    <ele>73.93</ele>
   </trkpt>
   <trkpt lat="51.45779" lon="-0.7344200000000001">
    <ele>73.93</ele>
   </trkpt>
   <trkpt lat="51.458090000000006" lon="-0.73431">
    <ele>73.18</ele>
   </trkpt>
   <trkpt lat="51.45866500002977" lon="-0.7343050000627315">
    <ele>71.51</ele>
   </trkpt>
   <trkpt lat="51.45924" lon="-0.7343000000000001">
    <ele>69.10000000000001</ele>
   </trkpt>
   <trkpt lat="51.460010000000004" lon="-0.7342500000000001">
    <ele>65.25999999999999</ele>
   </trkpt>
   <trkpt lat="51.46061" lon="-0.73409">
    <ele>63.08000000000001</ele>
   </trkpt>
   <trkpt lat="51.46110499999663" lon="-0.7341249996197804">
    <ele>61.730000000000004</ele>
   </trkpt>
   <trkpt lat="51.461600000000004" lon="-0.73416">
    <ele>58.27</ele>
   </trkpt>
   <trkpt lat="51.462055000128245" lon="-0.7339900016929023">
    <ele>55.370000000000005</ele>
   </trkpt>
   <trkpt lat="51.46251" lon="-0.73382">
    <ele>53.84</ele>
   </trkpt>
   <trkpt lat="51.46303500043829" lon="-0.733540003165245">
    <ele>52.67</ele>
   </trkpt>
   <trkpt lat="51.46356" lon="-0.73326">
    <ele>51.75</ele>
   </trkpt>
   <trkpt lat="51.46420666679696" lon="-0.7333699968870601">
    <ele>51.52</ele>
   </trkpt>
   <trkpt lat="51.464853333491" lon="-0.7334799968916631">
    <ele>51.22</ele>
   </trkpt>
   <trkpt lat="51.465500000000006" lon="-0.7335900000000001">
    <ele>50.71</ele>
   </trkpt>
   <trkpt lat="51.46623999999776" lon="-0.7336666641745936">
    <ele>47.25000000000001</ele>
   </trkpt>
   <trkpt lat="51.46697999994554" lon="-0.7337433308358002">
    <ele>42.18</ele>
   </trkpt>
   <trkpt lat="51.46772000000001" lon="-0.73382">
    <ele>44.92</ele>
   </trkpt>
   <trkpt lat="51.467776722987864" lon="-0.7325333461240595">
    <ele>42.7</ele>
   </trkpt>
   <trkpt lat="51.46783343189552" lon="-0.731246689049457">
    <ele>38.82</ele>
   </trkpt>
   <trkpt lat="51.46789012672294" lon="-0.7299600287769721">
    <ele>37.55</ele>
   </trkpt>
   <trkpt lat="51.467946807470035" lon="-0.7286733653073845">
    <ele>37.36000000000001</ele>
   </trkpt>
   <trkpt lat="51.46800347413677" lon="-0.727386698641474">
    <ele>36.94</ele>
   </trkpt>
   <trkpt lat="51.468060126723074" lon="-0.72610002878002">
    <ele>36.9</ele>
   </trkpt>
   <trkpt lat="51.468116765228864" lon="-0.7248133557238025">
    <ele>35.71000000000001</ele>
   </trkpt>
   <trkpt lat="51.46817338965408" lon="-0.723526679473601">
    <ele>36.26</ele>
   </trkpt>
   <trkpt lat="51.468230000000005" lon="-0.7222400000000001">
    <ele>35.550000000000004</ele>
   </trkpt>
   <trkpt lat="51.46833" lon="-0.7222000000000001">
    <ele>35.07</ele>
   </trkpt>
   <trkpt lat="51.468410000000006" lon="-0.72213">
    <ele>34.81</ele>
   </trkpt>
   <trkpt lat="51.4686" lon="-0.7220300000000001">
    <ele>34.35</ele>
   </trkpt>
   <trkpt lat="51.46895000000001" lon="-0.7219800000000001">
    <ele>33.72</ele>
   </trkpt>
   <trkpt lat="51.469260000000006" lon="-0.72189">
    <ele>33.300000000000004</ele>
   </trkpt>
   <trkpt lat="51.46945" lon="-0.72187">
    <ele>33.14</ele>
   </trkpt>
   <trkpt lat="51.469680000000004" lon="-0.72191">
    <ele>33.07</ele>
   </trkpt>
   <trkpt lat="51.469860000000004" lon="-0.7219800000000001">
    <ele>33.050000000000004</ele>
   </trkpt>
   <trkpt lat="51.47001" lon="-0.72209">
    <ele>33.050000000000004</ele>
   </trkpt>
   <trkpt lat="51.47039000072886" lon="-0.7225249962900748">
    <ele>33.160000000000004</ele>
   </trkpt>
   <trkpt lat="51.47077" lon="-0.72296">
    <ele>33.1</ele>
   </trkpt>
   <trkpt lat="51.47091" lon="-0.72301">
    <ele>33.11</ele>
   </trkpt>
   <trkpt lat="51.471160000000005" lon="-0.7230300000000001">
    <ele>33.46</ele>
   </trkpt>
   <trkpt lat="51.471790000000006" lon="-0.72282">
    <ele>34.52</ele>
   </trkpt>
   <trkpt lat="51.472259999959554" lon="-0.7228749994271298">
    <ele>34.32</ele>
   </trkpt>
   <trkpt lat="51.472730000000006" lon="-0.7229300000000001">
    <ele>33.410000000000004</ele>
   </trkpt>
   <trkpt lat="51.47294" lon="-0.72287">
    <ele>32.67</ele>
   </trkpt>
   <trkpt lat="51.4736000015966" lon="-0.7222700086209871">
    <ele>31.62</ele>
   </trkpt>
   <trkpt lat="51.47426" lon="-0.72167">
    <ele>32.510000000000005</ele>
   </trkpt>
   <trkpt lat="51.47468500056121" lon="-0.721400002355944">
    <ele>33.190000000000005</ele>
   </trkpt>
   <trkpt lat="51.47511" lon="-0.72113">
    <ele>33.11</ele>
   </trkpt>
   <trkpt lat="51.47595250432405" lon="-0.7207487992941288">
    <ele>32.24</ele>
   </trkpt>
   <trkpt lat="51.47679500741221" lon="-0.7203675845063465">
    <ele>31.490000000000002</ele>
   </trkpt>
   <trkpt lat="51.47763750926439" lon="-0.7199863556357288">
    <ele>32.38</ele>
   </trkpt>
   <trkpt lat="51.47848000988052" lon="-0.7196051126813509">
    <ele>31.150000000000002</ele>
   </trkpt>
   <trkpt lat="51.479322509260534" lon="-0.7192238556422881">
    <ele>30.6</ele>
   </trkpt>
   <trkpt lat="51.48016500740431" lon="-0.7188425845176156">
    <ele>29.85</ele>
   </trkpt>
   <trkpt lat="51.48100750431179" lon="-0.7184612993064089">
    <ele>29.67</ele>
   </trkpt>
   <trkpt lat="51.48185" lon="-0.71808">
    <ele>29.34</ele>
   </trkpt>
   <trkpt lat="51.48196" lon="-0.71794">
    <ele>29.34</ele>
   </trkpt>
   <trkpt lat="51.482670000000006" lon="-0.7178000000000001">
    <ele>30.01</ele>
   </trkpt>
   <trkpt lat="51.48234500747747" lon="-0.7164749906077316">
    <ele>29.93</ele>
   </trkpt>
   <trkpt lat="51.482020000000006" lon="-0.7151500000000001">
    <ele>29.6</ele>
   </trkpt>
   <trkpt lat="51.48185000766583" lon="-0.7141999928656798">
    <ele>29.650000000000002</ele>
   </trkpt>
   <trkpt lat="51.481680007656514" lon="-0.7132499928138207">
    <ele>29.640000000000004</ele>
   </trkpt>
   <trkpt lat="51.48151000000001" lon="-0.7123">
    <ele>30.11</ele>
   </trkpt>
   <trkpt lat="51.48127" lon="-0.7110200000000001">
    <ele>30.950000000000003</ele>
   </trkpt>
   <trkpt lat="51.481100000000005" lon="-0.7098700000000001">
    <ele>31.64</ele>
   </trkpt>
   <trkpt lat="51.48097000879171" lon="-0.7088533275495824">
    <ele>31.020000000000003</ele>
   </trkpt>
   <trkpt lat="51.48084000879324" lon="-0.7078366608949808">
    <ele>30.750000000000004</ele>
   </trkpt>
   <trkpt lat="51.48071" lon="-0.70682">
    <ele>30.38</ele>
   </trkpt>
   <trkpt lat="51.48133000000001" lon="-0.7065">
    <ele>28.82</ele>
   </trkpt>
   <trkpt lat="51.48154" lon="-0.7064400000000001">
    <ele>28.82</ele>
   </trkpt>
   <trkpt lat="51.48171000000001" lon="-0.7062700000000001">
    <ele>28.34</ele>
   </trkpt>
   <trkpt lat="51.48201" lon="-0.70606">
    <ele>28.34</ele>
   </trkpt>
   <trkpt lat="51.482620000000004" lon="-0.70576">
    <ele>28.3</ele>
   </trkpt>
   <trkpt lat="51.48274000000001" lon="-0.70564">
    <ele>28.44</ele>
   </trkpt>
   <trkpt lat="51.48308" lon="-0.70506">
    <ele>27.96</ele>
   </trkpt>
   <trkpt lat="51.483360000000005" lon="-0.7044400000000001">
    <ele>27.96</ele>
   </trkpt>
   <trkpt lat="51.48349" lon="-0.70396">
    <ele>27.98</ele>
   </trkpt>
   <trkpt lat="51.48351" lon="-0.70313">
    <ele>27.96</ele>
   </trkpt>
   <trkpt lat="51.48344" lon="-0.7022200000000001">
    <ele>28.3</ele>
   </trkpt>
   <trkpt lat="51.483340000000005" lon="-0.70169">
    <ele>28.700000000000003</ele>
   </trkpt>
   <trkpt lat="51.48317" lon="-0.70093">
    <ele>29.210000000000004</ele>
   </trkpt>
   <trkpt lat="51.48303000000001" lon="-0.7002200000000001">
    <ele>29.87</ele>
   </trkpt>
   <trkpt lat="51.483090000000004" lon="-0.7001700000000001">
    <ele>29.69</ele>
   </trkpt>
   <trkpt lat="51.48362500310654" lon="-0.6993300096879622">
    <ele>29.02</ele>
   </trkpt>
   <trkpt lat="51.48416" lon="-0.69849">
    <ele>28.67</ele>
   </trkpt>
   <trkpt lat="51.48433000000001" lon="-0.6980000000000001">
    <ele>28.490000000000002</ele>
   </trkpt>
   <trkpt lat="51.484440000000006" lon="-0.69759">
    <ele>28.42</ele>
   </trkpt>
   <trkpt lat="51.48462000000001" lon="-0.6963600000000001">
    <ele>28.400000000000002</ele>
   </trkpt>
   <trkpt lat="51.484640000000006" lon="-0.69586">
    <ele>28.34</ele>
   </trkpt>
   <trkpt lat="51.48465000322001" lon="-0.6949900000473895">
    <ele>28.130000000000003</ele>
   </trkpt>
   <trkpt lat="51.484660000000005" lon="-0.6941200000000001">
    <ele>27.950000000000003</ele>
   </trkpt>
   <trkpt lat="51.48489000000001" lon="-0.69379">
    <ele>27.83</ele>
   </trkpt>
   <trkpt lat="51.48527000000001" lon="-0.69313">
    <ele>27.520000000000003</ele>
   </trkpt>
   <trkpt lat="51.48564500220051" lon="-0.6924300055382796">
    <ele>27.200000000000003</ele>
   </trkpt>
   <trkpt lat="51.48602" lon="-0.6917300000000001">
    <ele>27.070000000000004</ele>
   </trkpt>
   <trkpt lat="51.48635" lon="-0.6914100000000001">
    <ele>26.930000000000003</ele>
   </trkpt>
   <trkpt lat="51.486610000000006" lon="-0.6912400000000001">
    <ele>26.930000000000003</ele>
   </trkpt>
   <trkpt lat="51.48723000161071" lon="-0.6906100086446552">
    <ele>26.8</ele>
   </trkpt>
   <trkpt lat="51.48785" lon="-0.68998">
    <ele>26.35</ele>
   </trkpt>
   <trkpt lat="51.4882550003328" lon="-0.689640003153372">
    <ele>26.140000000000004</ele>
   </trkpt>
   <trkpt lat="51.48866" lon="-0.6893">
    <ele>26.070000000000004</ele>
   </trkpt>
   <trkpt lat="51.489090000619406" lon="-0.6889550031628732">
    <ele>25.78</ele>
   </trkpt>
   <trkpt lat="51.489520000000006" lon="-0.68861">
    <ele>25.57</ele>
   </trkpt>
   <trkpt lat="51.49018" lon="-0.6881600000000001">
    <ele>25.560000000000002</ele>
   </trkpt>
   <trkpt lat="51.4906350005301" lon="-0.6878250033043891">
    <ele>25.370000000000005</ele>
   </trkpt>
   <trkpt lat="51.49109000000001" lon="-0.68749">
    <ele>25.28</ele>
   </trkpt>
   <trkpt lat="51.49156500070467" lon="-0.6871000040159059">
    <ele>25.16</ele>
   </trkpt>
   <trkpt lat="51.49204" lon="-0.68671">
    <ele>25.05</ele>
   </trkpt>
   <trkpt lat="51.49284" lon="-0.6861">
    <ele>24.84</ele>
   </trkpt>
   <trkpt lat="51.49266" lon="-0.68564">
    <ele>24.790000000000003</ele>
   </trkpt>
   <trkpt lat="51.492850000000004" lon="-0.68545">
    <ele>24.37</ele>
   </trkpt>
   <trkpt lat="51.49293" lon="-0.68544">
    <ele>24.270000000000003</ele>
   </trkpt>
   <trkpt lat="51.49367" lon="-0.68567">
    <ele>24.05</ele>
   </trkpt>
   <trkpt lat="51.49380000000001" lon="-0.68562">
    <ele>23.94</ele>
   </trkpt>
   <trkpt lat="51.494507501607956" lon="-0.6852650165294581">
    <ele>22.910000000000004</ele>
   </trkpt>
   <trkpt lat="51.49521500214434" lon="-0.6849100220394975">
    <ele>22.930000000000003</ele>
   </trkpt>
   <trkpt lat="51.495922501609115" lon="-0.6845550165295133">
    <ele>22.930000000000003</ele>
   </trkpt>
   <trkpt lat="51.49663" lon="-0.6842">
    <ele>22.520000000000003</ele>
   </trkpt>
   <trkpt lat="51.497370000000004" lon="-0.68444">
    <ele>22.520000000000003</ele>
   </trkpt>
   <trkpt lat="51.498070000000006" lon="-0.68462">
    <ele>22.3</ele>
   </trkpt>
   <trkpt lat="51.498450000000005" lon="-0.68481">
    <ele>22.330000000000002</ele>
   </trkpt>
   <trkpt lat="51.498630000000006" lon="-0.68481">
    <ele>22.19</ele>
   </trkpt>
   <trkpt lat="51.499030000000005" lon="-0.68496">
    <ele>22.250000000000004</ele>
   </trkpt>
   <trkpt lat="51.49929" lon="-0.68505">
    <ele>22.340000000000003</ele>
   </trkpt>
   <trkpt lat="51.499610000000004" lon="-0.68513">
    <ele>22.590000000000003</ele>
   </trkpt>
   <trkpt lat="51.499790000000004" lon="-0.6851900000000001">
    <ele>22.580000000000002</ele>
   </trkpt>
   <trkpt lat="51.49982000000001" lon="-0.6852100000000001">
    <ele>22.54</ele>
   </trkpt>
   <trkpt lat="51.499705003811144" lon="-0.6842649977342413">
    <ele>20.790000000000003</ele>
   </trkpt>
   <trkpt lat="51.499590000000005" lon="-0.68332">
    <ele>20.42</ele>
   </trkpt>
   <trkpt lat="51.4994" lon="-0.682">
    <ele>23.720000000000002</ele>
   </trkpt>
   <trkpt lat="51.499500000000005" lon="-0.68196">
    <ele>24.39</ele>
   </trkpt>
   <trkpt lat="51.4996" lon="-0.6820200000000001">
    <ele>25.09</ele>
   </trkpt>
   <trkpt lat="51.499930000000006" lon="-0.68108">
    <ele>25.060000000000002</ele>
   </trkpt>
   <trkpt lat="51.49969" lon="-0.68093">
    <ele>22.53</ele>
   </trkpt>
   <trkpt lat="51.49969" lon="-0.68095">
    <ele>22.53</ele>
   </trkpt>
   <trkpt lat="51.499860000000005" lon="-0.68108">
    <ele>21.27</ele>
   </trkpt>
   <trkpt lat="51.499860000000005" lon="-0.6811200000000001">
    <ele>21.27</ele>
   </trkpt>
   <trkpt lat="51.49944000030682" lon="-0.680824997237101">
    <ele>21.040000000000003</ele>
   </trkpt>
   <trkpt lat="51.49902" lon="-0.6805300000000001">
    <ele>21.26</ele>
   </trkpt>
   <trkpt lat="51.499080000000006" lon="-0.68005">
    <ele>21.820000000000004</ele>
   </trkpt>
   <trkpt lat="51.49927" lon="-0.6792900000000001">
    <ele>21.66</ele>
   </trkpt>
   <trkpt lat="51.49933000000001" lon="-0.6792400000000001">
    <ele>21.66</ele>
   </trkpt>
   <trkpt lat="51.499410000000005" lon="-0.67922">
    <ele>21.28</ele>
   </trkpt>
   <trkpt lat="51.49978" lon="-0.67934">
    <ele>21.01</ele>
   </trkpt>
   <trkpt lat="51.50003" lon="-0.6795100000000001">
    <ele>21.080000000000002</ele>
   </trkpt>
   <trkpt lat="51.50014" lon="-0.67949">
    <ele>21.09</ele>
   </trkpt>
   <trkpt lat="51.50019" lon="-0.6794100000000001">
    <ele>21.05</ele>
   </trkpt>
   <trkpt lat="51.50023" lon="-0.67927">
    <ele>20.93</ele>
   </trkpt>
   <trkpt lat="51.50039" lon="-0.6790700000000001">
    <ele>20.93</ele>
   </trkpt>
   <trkpt lat="51.50054" lon="-0.67873">
    <ele>20.71</ele>
   </trkpt>
   <trkpt lat="51.500710000000005" lon="-0.67817">
    <ele>20.68</ele>
   </trkpt>
   <trkpt lat="51.50077" lon="-0.6779000000000001">
    <ele>20.6</ele>
   </trkpt>
   <trkpt lat="51.50083000000001" lon="-0.67773">
    <ele>20.62</ele>
   </trkpt>
   <trkpt lat="51.500960000000006" lon="-0.67752">
    <ele>20.8</ele>
   </trkpt>
   <trkpt lat="51.50119" lon="-0.6773">
    <ele>20.830000000000002</ele>
   </trkpt>
   <trkpt lat="51.50139" lon="-0.67693">
    <ele>20.66</ele>
   </trkpt>
   <trkpt lat="51.50148" lon="-0.67671">
    <ele>20.630000000000003</ele>
   </trkpt>
   <trkpt lat="51.50157" lon="-0.6762900000000001">
    <ele>20.68</ele>
   </trkpt>
   <trkpt lat="51.501580000000004" lon="-0.67603">
    <ele>20.68</ele>
   </trkpt>
   <trkpt lat="51.50157" lon="-0.67491">
    <ele>20.67</ele>
   </trkpt>
   <trkpt lat="51.501630000000006" lon="-0.6744100000000001">
    <ele>20.82</ele>
   </trkpt>
   <trkpt lat="51.50139" lon="-0.67354">
    <ele>20.96</ele>
   </trkpt>
   <trkpt lat="51.50128" lon="-0.67295">
    <ele>21.03</ele>
   </trkpt>
   <trkpt lat="51.501270000000005" lon="-0.6727000000000001">
    <ele>21.210000000000004</ele>
   </trkpt>
   <trkpt lat="51.501160000000006" lon="-0.6725300000000001">
    <ele>21.220000000000002</ele>
   </trkpt>
   <trkpt lat="51.50177000424161" lon="-0.6715250135386776">
    <ele>20.93</ele>
   </trkpt>
   <trkpt lat="51.50238" lon="-0.67052">
    <ele>21.35</ele>
   </trkpt>
   <trkpt lat="51.502460000000006" lon="-0.6701900000000001">
    <ele>21.380000000000003</ele>
   </trkpt>
   <trkpt lat="51.50285" lon="-0.6692400000000001">
    <ele>21.970000000000002</ele>
   </trkpt>
   <trkpt lat="51.502990000000004" lon="-0.669">
    <ele>22.060000000000002</ele>
   </trkpt>
   <trkpt lat="51.50347000000001" lon="-0.66851">
    <ele>22.340000000000003</ele>
   </trkpt>
   <trkpt lat="51.50379" lon="-0.66812">
    <ele>22.240000000000002</ele>
   </trkpt>
   <trkpt lat="51.504020000000004" lon="-0.66749">
    <ele>22.330000000000002</ele>
   </trkpt>
   <trkpt lat="51.504180000000005" lon="-0.6664500000000001">
    <ele>22.400000000000002</ele>
   </trkpt>
   <trkpt lat="51.50444" lon="-0.66524">
    <ele>22.3</ele>
   </trkpt>
   <trkpt lat="51.50452000000001" lon="-0.6650100000000001">
    <ele>22.38</ele>
   </trkpt>
   <trkpt lat="51.50453" lon="-0.6649">
    <ele>22.38</ele>
   </trkpt>
   <trkpt lat="51.504720000000006" lon="-0.66486">
    <ele>22.42</ele>
   </trkpt>
   <trkpt lat="51.50497000000001" lon="-0.66471">
    <ele>22.55</ele>
   </trkpt>
   <trkpt lat="51.50513" lon="-0.66456">
    <ele>22.55</ele>
   </trkpt>
   <trkpt lat="51.50547" lon="-0.6641400000000001">
    <ele>22.46</ele>
   </trkpt>
   <trkpt lat="51.50601" lon="-0.66369">
    <ele>22.51</ele>
   </trkpt>
   <trkpt lat="51.506170000000004" lon="-0.6635800000000001">
    <ele>22.55</ele>
   </trkpt>
   <trkpt lat="51.50649000000001" lon="-0.66339">
    <ele>22.51</ele>
   </trkpt>
   <trkpt lat="51.50676000000001" lon="-0.6632800000000001">
    <ele>22.55</ele>
   </trkpt>
   <trkpt lat="51.50694000000001" lon="-0.66324">
    <ele>22.51</ele>
   </trkpt>
   <trkpt lat="51.50695" lon="-0.6633">
    <ele>22.51</ele>
   </trkpt>
   <trkpt lat="51.50683" lon="-0.66334">
    <ele>22.400000000000002</ele>
   </trkpt>
   <trkpt lat="51.506840000000004" lon="-0.66347">
    <ele>22.37</ele>
   </trkpt>
   <trkpt lat="51.5069" lon="-0.66437">
    <ele>21.290000000000003</ele>
   </trkpt>
   <trkpt lat="51.50686" lon="-0.66468">
    <ele>21.2</ele>
   </trkpt>
   <trkpt lat="51.5065" lon="-0.66568">
    <ele>22.19</ele>
   </trkpt>
   <trkpt lat="51.506130000000006" lon="-0.66654">
    <ele>22.21</ele>
   </trkpt>
   <trkpt lat="51.50602000000001" lon="-0.66669">
    <ele>22.09</ele>
   </trkpt>
   <trkpt lat="51.50592" lon="-0.6670200000000001">
    <ele>22.03</ele>
   </trkpt>
   <trkpt lat="51.50578500211734" lon="-0.6677300022389213">
    <ele>21.88</ele>
   </trkpt>
   <trkpt lat="51.50565" lon="-0.66844">
    <ele>22.060000000000002</ele>
   </trkpt>
   <trkpt lat="51.505610000000004" lon="-0.66873">
    <ele>22.060000000000002</ele>
   </trkpt>
   <trkpt lat="51.5056" lon="-0.6696300000000001">
    <ele>22.21</ele>
   </trkpt>
   <trkpt lat="51.505610000000004" lon="-0.6698000000000001">
    <ele>22.21</ele>
   </trkpt>
   <trkpt lat="51.505720000000004" lon="-0.6702400000000001">
    <ele>22.18</ele>
   </trkpt>
   <trkpt lat="51.505880000000005" lon="-0.67076">
    <ele>22.240000000000002</ele>
   </trkpt>
   <trkpt lat="51.50598" lon="-0.67139">
    <ele>22.13</ele>
   </trkpt>
   <trkpt lat="51.506170000000004" lon="-0.6718000000000001">
    <ele>21.93</ele>
   </trkpt>
   <trkpt lat="51.50623" lon="-0.67188">
    <ele>21.93</ele>
   </trkpt>
   <trkpt lat="51.5063" lon="-0.67188">
    <ele>21.93</ele>
   </trkpt>
   <trkpt lat="51.506350000000005" lon="-0.67193">
    <ele>21.93</ele>
   </trkpt>
   <trkpt lat="51.50647000000001" lon="-0.6721900000000001">
    <ele>20.970000000000002</ele>
   </trkpt>
   <trkpt lat="51.506620000000005" lon="-0.67259">
    <ele>20.880000000000003</ele>
   </trkpt>
   <trkpt lat="51.5067" lon="-0.67269">
    <ele>20.85</ele>
   </trkpt>
   <trkpt lat="51.506980000000006" lon="-0.67278">
    <ele>21.07</ele>
   </trkpt>
   <trkpt lat="51.50742" lon="-0.6730200000000001">
    <ele>21.69</ele>
   </trkpt>
   <trkpt lat="51.508120000000005" lon="-0.67329">
    <ele>22.070000000000004</ele>
   </trkpt>
   <trkpt lat="51.50849" lon="-0.67351">
    <ele>22.02</ele>
   </trkpt>
   <trkpt lat="51.50896" lon="-0.67371">
    <ele>21.71</ele>
   </trkpt>
   <trkpt lat="51.50921" lon="-0.67371">
    <ele>21.7</ele>
   </trkpt>
   <trkpt lat="51.5097" lon="-0.67383">
    <ele>21.580000000000002</ele>
   </trkpt>
   <trkpt lat="51.50979" lon="-0.67381">
    <ele>21.32</ele>
   </trkpt>
   <trkpt lat="51.51015" lon="-0.6739400000000001">
    <ele>21.300000000000004</ele>
   </trkpt>
   <trkpt lat="51.51021" lon="-0.674">
    <ele>21.66</ele>
   </trkpt>
   <trkpt lat="51.51023000000001" lon="-0.6741">
    <ele>21.79</ele>
   </trkpt>
   <trkpt lat="51.510380000000005" lon="-0.67434">
    <ele>21.95</ele>
   </trkpt>
   <trkpt lat="51.51059000000001" lon="-0.67508">
    <ele>21.980000000000004</ele>
   </trkpt>
   <trkpt lat="51.51070000000001" lon="-0.67579">
    <ele>21.59</ele>
   </trkpt>
   <trkpt lat="51.51084" lon="-0.6771">
    <ele>21.62</ele>
   </trkpt>
   <trkpt lat="51.51075" lon="-0.67786">
    <ele>21.970000000000002</ele>
   </trkpt>
   <trkpt lat="51.510760000000005" lon="-0.6780700000000001">
    <ele>21.94</ele>
   </trkpt>
   <trkpt lat="51.51082" lon="-0.6783">
    <ele>21.79</ele>
   </trkpt>
   <trkpt lat="51.511" lon="-0.6786300000000001">
    <ele>21.7</ele>
   </trkpt>
   <trkpt lat="51.51138" lon="-0.6790700000000001">
    <ele>21.85</ele>
   </trkpt>
   <trkpt lat="51.51192" lon="-0.67959">
    <ele>21.830000000000002</ele>
   </trkpt>
   <trkpt lat="51.51212" lon="-0.67988">
    <ele>22.02</ele>
   </trkpt>
   <trkpt lat="51.51223" lon="-0.68">
    <ele>22.02</ele>
   </trkpt>
   <trkpt lat="51.51238000000001" lon="-0.6801">
    <ele>22.17</ele>
   </trkpt>
   <trkpt lat="51.51261" lon="-0.68015">
    <ele>22.17</ele>
   </trkpt>
   <trkpt lat="51.51323000000001" lon="-0.68017">
    <ele>22.2</ele>
   </trkpt>
   <trkpt lat="51.51359000000001" lon="-0.68025">
    <ele>22.29</ele>
   </trkpt>
   <trkpt lat="51.51381000000001" lon="-0.68042">
    <ele>22.13</ele>
   </trkpt>
   <trkpt lat="51.51399000000001" lon="-0.6806800000000001">
    <ele>22.13</ele>
   </trkpt>
   <trkpt lat="51.514100000000006" lon="-0.68105">
    <ele>22.21</ele>
   </trkpt>
   <trkpt lat="51.514190000000006" lon="-0.68147">
    <ele>22.21</ele>
   </trkpt>
   <trkpt lat="51.51424" lon="-0.68193">
    <ele>22.19</ele>
   </trkpt>
   <trkpt lat="51.51427" lon="-0.68278">
    <ele>22.19</ele>
   </trkpt>
   <trkpt lat="51.51426000000001" lon="-0.6834800000000001">
    <ele>22.770000000000003</ele>
   </trkpt>
   <trkpt lat="51.51424" lon="-0.68369">
    <ele>22.820000000000004</ele>
   </trkpt>
   <trkpt lat="51.514210000000006" lon="-0.68369">
    <ele>22.820000000000004</ele>
   </trkpt>
   <trkpt lat="51.514190000000006" lon="-0.6837300000000001">
    <ele>22.6</ele>
   </trkpt>
   <trkpt lat="51.51426000000001" lon="-0.6838200000000001">
    <ele>22.6</ele>
   </trkpt>
   <trkpt lat="51.514250000000004" lon="-0.68405">
    <ele>22.520000000000003</ele>
   </trkpt>
   <trkpt lat="51.51427" lon="-0.6841200000000001">
    <ele>22.520000000000003</ele>
   </trkpt>
   <trkpt lat="51.51436" lon="-0.6842600000000001">
    <ele>22.680000000000003</ele>
   </trkpt>
   <trkpt lat="51.51426000000001" lon="-0.68449">
    <ele>22.8</ele>
   </trkpt>
   <trkpt lat="51.51429" lon="-0.68496">
    <ele>22.950000000000003</ele>
   </trkpt>
   <trkpt lat="51.51436" lon="-0.68523">
    <ele>22.96</ele>
   </trkpt>
   <trkpt lat="51.514520000000005" lon="-0.68554">
    <ele>22.910000000000004</ele>
   </trkpt>
   <trkpt lat="51.51494" lon="-0.6859000000000001">
    <ele>22.9</ele>
   </trkpt>
   <trkpt lat="51.51522000000001" lon="-0.6859500000000001">
    <ele>22.92</ele>
   </trkpt>
   <trkpt lat="51.515640000000005" lon="-0.6859400000000001">
    <ele>22.9</ele>
   </trkpt>
   <trkpt lat="51.516160000000006" lon="-0.6859500000000001">
    <ele>22.85</ele>
   </trkpt>
   <trkpt lat="51.51641000000001" lon="-0.68605">
    <ele>22.88</ele>
   </trkpt>
   <trkpt lat="51.51677" lon="-0.68644">
    <ele>22.8</ele>
   </trkpt>
   <trkpt lat="51.51727" lon="-0.6869000000000001">
    <ele>23.05</ele>
   </trkpt>
   <trkpt lat="51.51747" lon="-0.68715">
    <ele>22.87</ele>
   </trkpt>
   <trkpt lat="51.51766000000001" lon="-0.68744">
    <ele>22.840000000000003</ele>
   </trkpt>
   <trkpt lat="51.517920000000004" lon="-0.68818">
    <ele>22.96</ele>
   </trkpt>
   <trkpt lat="51.518100000000004" lon="-0.68922">
    <ele>23.000000000000004</ele>
   </trkpt>
   <trkpt lat="51.51814" lon="-0.68964">
    <ele>23.020000000000003</ele>
   </trkpt>
   <trkpt lat="51.518150000000006" lon="-0.68998">
    <ele>23.090000000000003</ele>
   </trkpt>
   <trkpt lat="51.518130000000006" lon="-0.69083">
    <ele>22.910000000000004</ele>
   </trkpt>
   <trkpt lat="51.51803000351631" lon="-0.6917400020329882">
    <ele>22.96</ele>
   </trkpt>
   <trkpt lat="51.51793000000001" lon="-0.6926500000000001">
    <ele>22.840000000000003</ele>
   </trkpt>
   <trkpt lat="51.517990000000005" lon="-0.69269">
    <ele>22.87</ele>
   </trkpt>
   <trkpt lat="51.518390000000004" lon="-0.6935100000000001">
    <ele>23.1</ele>
   </trkpt>
   <trkpt lat="51.518640000000005" lon="-0.69391">
    <ele>23.1</ele>
   </trkpt>
   <trkpt lat="51.51881" lon="-0.69408">
    <ele>23.19</ele>
   </trkpt>
   <trkpt lat="51.51917" lon="-0.6942">
    <ele>23.35</ele>
   </trkpt>
   <trkpt lat="51.519420000000004" lon="-0.69423">
    <ele>23.35</ele>
   </trkpt>
   <trkpt lat="51.519670000000005" lon="-0.6943">
    <ele>23.57</ele>
   </trkpt>
   <trkpt lat="51.51972000000001" lon="-0.69428">
    <ele>23.57</ele>
   </trkpt>
   <trkpt lat="51.519760000000005" lon="-0.6942200000000001">
    <ele>23.590000000000003</ele>
   </trkpt>
   <trkpt lat="51.51984" lon="-0.69398">
    <ele>23.69</ele>
   </trkpt>
   <trkpt lat="51.519870000000004" lon="-0.6931900000000001">
    <ele>23.78</ele>
   </trkpt>
   <trkpt lat="51.52033" lon="-0.6931700000000001">
    <ele>23.62</ele>
   </trkpt>
   <trkpt lat="51.52085500031493" lon="-0.6929900020142924">
    <ele>23.83</ele>
   </trkpt>
   <trkpt lat="51.52138000000001" lon="-0.69281">
    <ele>24.16</ele>
   </trkpt>
   <trkpt lat="51.52178000000001" lon="-0.69271">
    <ele>24.19</ele>
   </trkpt>
   <trkpt lat="51.52192" lon="-0.6926300000000001">
    <ele>24.19</ele>
   </trkpt>
   <trkpt lat="51.522270000000006" lon="-0.69271">
    <ele>24.1</ele>
   </trkpt>
   <trkpt lat="51.52237" lon="-0.69267">
    <ele>24.1</ele>
   </trkpt>
   <trkpt lat="51.52302" lon="-0.69266">
    <ele>24.110000000000003</ele>
   </trkpt>
   <trkpt lat="51.52309" lon="-0.69264">
    <ele>24.110000000000003</ele>
   </trkpt>
   <trkpt lat="51.523160003554906" lon="-0.6935549985425657">
    <ele>24.0</ele>
   </trkpt>
   <trkpt lat="51.523230000000005" lon="-0.69447">
    <ele>24.040000000000003</ele>
   </trkpt>
   <trkpt lat="51.52331" lon="-0.6951200000000001">
    <ele>23.770000000000003</ele>
   </trkpt>
   <trkpt lat="51.52349000291052" lon="-0.695944996818637">
    <ele>23.520000000000003</ele>
   </trkpt>
   <trkpt lat="51.52367" lon="-0.6967700000000001">
    <ele>23.430000000000003</ele>
   </trkpt>
   <trkpt lat="51.52378" lon="-0.6974400000000001">
    <ele>23.430000000000003</ele>
   </trkpt>
   <trkpt lat="51.523900000000005" lon="-0.6984400000000001">
    <ele>23.51</ele>
   </trkpt>
   <trkpt lat="51.524" lon="-0.69918">
    <ele>23.630000000000003</ele>
   </trkpt>
   <trkpt lat="51.524" lon="-0.70015">
    <ele>23.950000000000003</ele>
   </trkpt>
   <trkpt lat="51.524060000000006" lon="-0.69959">
    <ele>23.73</ele>
   </trkpt>
   <trkpt lat="51.52414" lon="-0.6993800000000001">
    <ele>23.860000000000003</ele>
   </trkpt>
   <trkpt lat="51.52418" lon="-0.69932">
    <ele>23.860000000000003</ele>
   </trkpt>
   <trkpt lat="51.524330000000006" lon="-0.6992200000000001">
    <ele>23.83</ele>
   </trkpt>
   <trkpt lat="51.524640000000005" lon="-0.6992100000000001">
    <ele>23.51</ele>
   </trkpt>
   <trkpt lat="51.524640000000005" lon="-0.6992900000000001">
    <ele>23.49</ele>
   </trkpt>
   <trkpt lat="51.524640000000005" lon="-0.6992100000000001">
    <ele>23.51</ele>
   </trkpt>
   <trkpt lat="51.52494" lon="-0.69923">
    <ele>23.14</ele>
   </trkpt>
   <trkpt lat="51.52499" lon="-0.6992700000000001">
    <ele>23.14</ele>
   </trkpt>
   <trkpt lat="51.52508" lon="-0.6993900000000001">
    <ele>23.05</ele>
   </trkpt>
   <trkpt lat="51.525310000000005" lon="-0.7002400000000001">
    <ele>23.430000000000003</ele>
   </trkpt>
   <trkpt lat="51.525380000000006" lon="-0.70038">
    <ele>23.73</ele>
   </trkpt>
   <trkpt lat="51.52548" lon="-0.7004600000000001">
    <ele>23.73</ele>
   </trkpt>
   <trkpt lat="51.52563000000001" lon="-0.70045">
    <ele>23.73</ele>
   </trkpt>
   <trkpt lat="51.52602" lon="-0.7002700000000001">
    <ele>23.89</ele>
   </trkpt>
   <trkpt lat="51.52617000000001" lon="-0.70016">
    <ele>23.94</ele>
   </trkpt>
   <trkpt lat="51.526430000000005" lon="-0.7000400000000001">
    <ele>23.96</ele>
   </trkpt>
   <trkpt lat="51.52642" lon="-0.7000400000000001">
    <ele>23.96</ele>
   </trkpt>
   <trkpt lat="51.52617000000001" lon="-0.70016">
    <ele>23.94</ele>
   </trkpt>
   <trkpt lat="51.52602" lon="-0.7002700000000001">
    <ele>23.89</ele>
   </trkpt>
   <trkpt lat="51.52563000000001" lon="-0.70045">
    <ele>23.73</ele>
   </trkpt>
   <trkpt lat="51.52548" lon="-0.7004600000000001">
    <ele>23.73</ele>
   </trkpt>
   <trkpt lat="51.52537" lon="-0.70079">
    <ele>23.8</ele>
   </trkpt>
   <trkpt lat="51.525310000000005" lon="-0.7008200000000001">
    <ele>23.8</ele>
   </trkpt>
   <trkpt lat="51.524770000000004" lon="-0.7009000000000001">
    <ele>23.990000000000002</ele>
   </trkpt>
   <trkpt lat="51.52476000000001" lon="-0.7009000000000001">
    <ele>24.0</ele>
   </trkpt>
   <trkpt lat="51.524240000000006" lon="-0.70098">
    <ele>24.17</ele>
   </trkpt>
   <trkpt lat="51.524150000000006" lon="-0.7009700000000001">
    <ele>24.5</ele>
   </trkpt>
   <trkpt lat="51.52404000000001" lon="-0.7009700000000001">
    <ele>25.310000000000002</ele>
   </trkpt>
   <trkpt lat="51.52396" lon="-0.7010500000000001">
    <ele>25.34</ele>
   </trkpt>
   <trkpt lat="51.523940005099085" lon="-0.7021450003477158">
    <ele>27.520000000000003</ele>
   </trkpt>
   <trkpt lat="51.523920000000004" lon="-0.7032400000000001">
    <ele>25.44</ele>
   </trkpt>
   <trkpt lat="51.523880000000005" lon="-0.7036300000000001">
    <ele>24.98</ele>
   </trkpt>
   <trkpt lat="51.523860000000006" lon="-0.7036600000000001">
    <ele>24.98</ele>
   </trkpt>
   <trkpt lat="51.52328000000001" lon="-0.7034900000000001">
    <ele>24.110000000000003</ele>
   </trkpt>
   <trkpt lat="51.522540000000006" lon="-0.7033200000000001">
    <ele>24.03</ele>
   </trkpt>
   <trkpt lat="51.52253" lon="-0.7034400000000001">
    <ele>23.91</ele>
   </trkpt>
   <trkpt lat="51.52257" lon="-0.70359">
    <ele>23.860000000000003</ele>
   </trkpt>
   <trkpt lat="51.52252000000001" lon="-0.7042">
    <ele>23.78</ele>
   </trkpt>
   <trkpt lat="51.52255" lon="-0.7045800000000001">
    <ele>23.540000000000003</ele>
   </trkpt>
   <trkpt lat="51.522580000000005" lon="-0.7048800000000001">
    <ele>23.500000000000004</ele>
   </trkpt>
   <trkpt lat="51.522540000000006" lon="-0.7051000000000001">
    <ele>23.57</ele>
   </trkpt>
   <trkpt lat="51.52226" lon="-0.70513">
    <ele>23.35</ele>
   </trkpt>
   <trkpt lat="51.5219" lon="-0.7050400000000001">
    <ele>23.24</ele>
   </trkpt>
   <trkpt lat="51.52165" lon="-0.70491">
    <ele>23.17</ele>
   </trkpt>
   <trkpt lat="51.521420000000006" lon="-0.7047500000000001">
    <ele>23.17</ele>
   </trkpt>
   <trkpt lat="51.52134" lon="-0.7051000000000001">
    <ele>23.14</ele>
   </trkpt>
   <trkpt lat="51.521300000000004" lon="-0.7053900000000001">
    <ele>23.21</ele>
   </trkpt>
   <trkpt lat="51.521300000000004" lon="-0.70586">
    <ele>23.22</ele>
   </trkpt>
   <trkpt lat="51.52138000000001" lon="-0.7063">
    <ele>23.160000000000004</ele>
   </trkpt>
   <trkpt lat="51.52156" lon="-0.70689">
    <ele>23.22</ele>
   </trkpt>
   <trkpt lat="51.52161" lon="-0.7072">
    <ele>23.380000000000003</ele>
   </trkpt>
   <trkpt lat="51.52163" lon="-0.70779">
    <ele>23.49</ele>
   </trkpt>
   <trkpt lat="51.5217" lon="-0.7082700000000001">
    <ele>23.69</ele>
   </trkpt>
   <trkpt lat="51.52149000000001" lon="-0.70842">
    <ele>23.69</ele>
   </trkpt>
   <trkpt lat="51.521005001086934" lon="-0.708920005299919">
    <ele>23.73</ele>
   </trkpt>
   <trkpt lat="51.520520000000005" lon="-0.70942">
    <ele>23.69</ele>
   </trkpt>
   <trkpt lat="51.52017000000001" lon="-0.70955">
    <ele>23.680000000000003</ele>
   </trkpt>
   <trkpt lat="51.52011" lon="-0.7096800000000001">
    <ele>23.680000000000003</ele>
   </trkpt>
   <trkpt lat="51.52004" lon="-0.70979">
    <ele>23.57</ele>
   </trkpt>
   <trkpt lat="51.519510000000004" lon="-0.71004">
    <ele>23.28</ele>
   </trkpt>
   <trkpt lat="51.51899" lon="-0.71038">
    <ele>23.250000000000004</ele>
   </trkpt>
   <trkpt lat="51.518820000000005" lon="-0.71047">
    <ele>23.250000000000004</ele>
   </trkpt>
   <trkpt lat="51.51863" lon="-0.71042">
    <ele>23.24</ele>
   </trkpt>
   <trkpt lat="51.518570000000004" lon="-0.7103700000000001">
    <ele>23.180000000000003</ele>
   </trkpt>
   <trkpt lat="51.5185" lon="-0.7103700000000001">
    <ele>23.180000000000003</ele>
   </trkpt>
   <trkpt lat="51.51845" lon="-0.71045">
    <ele>23.28</ele>
   </trkpt>
   <trkpt lat="51.518440000000005" lon="-0.7105300000000001">
    <ele>23.28</ele>
   </trkpt>
   <trkpt lat="51.51847000000001" lon="-0.71062">
    <ele>23.31</ele>
   </trkpt>
   <trkpt lat="51.51845" lon="-0.7108700000000001">
    <ele>23.290000000000003</ele>
   </trkpt>
   <trkpt lat="51.518370000000004" lon="-0.7115900000000001">
    <ele>23.520000000000003</ele>
   </trkpt>
   <trkpt lat="51.51825" lon="-0.71155">
    <ele>23.41</ele>
   </trkpt>
   <trkpt lat="51.51818" lon="-0.7114900000000001">
    <ele>23.37</ele>
   </trkpt>
   <trkpt lat="51.518" lon="-0.7111900000000001">
    <ele>23.42</ele>
   </trkpt>
   <trkpt lat="51.5178" lon="-0.71147">
    <ele>23.48</ele>
   </trkpt>
   <trkpt lat="51.51762" lon="-0.7117000000000001">
    <ele>23.520000000000003</ele>
   </trkpt>
   <trkpt lat="51.51684" lon="-0.71233">
    <ele>23.78</ele>
   </trkpt>
   <trkpt lat="51.51638999994493" lon="-0.7121999986789852">
    <ele>23.87</ele>
   </trkpt>
   <trkpt lat="51.51594000000001" lon="-0.7120700000000001">
    <ele>23.970000000000002</ele>
   </trkpt>
   <trkpt lat="51.51507666781661" lon="-0.7118366445528412">
    <ele>23.76</ele>
   </trkpt>
   <trkpt lat="51.514213335170275" lon="-0.7116032979512256">
    <ele>24.05</ele>
   </trkpt>
   <trkpt lat="51.51335000206101" lon="-0.711369960194549">
    <ele>23.91</ele>
   </trkpt>
   <trkpt lat="51.51248666848886" lon="-0.7111366312822073">
    <ele>23.98</ele>
   </trkpt>
   <trkpt lat="51.51162333445385" lon="-0.7109033112135967">
    <ele>23.770000000000003</ele>
   </trkpt>
   <trkpt lat="51.510760000000005" lon="-0.71067">
    <ele>23.44</ele>
   </trkpt>
   <trkpt lat="51.510310000032696" lon="-0.7105449987559476">
    <ele>23.330000000000002</ele>
   </trkpt>
   <trkpt lat="51.50986" lon="-0.71042">
    <ele>23.040000000000003</ele>
   </trkpt>
   <trkpt lat="51.509295000122464" lon="-0.710279998273523">
    <ele>22.9</ele>
   </trkpt>
   <trkpt lat="51.50873000000001" lon="-0.7101400000000001">
    <ele>23.110000000000003</ele>
   </trkpt>
   <trkpt lat="51.50864000000001" lon="-0.71023">
    <ele>23.250000000000004</ele>
   </trkpt>
   <trkpt lat="51.50842" lon="-0.71059">
    <ele>23.83</ele>
   </trkpt>
   <trkpt lat="51.508340000000004" lon="-0.71065">
    <ele>23.919999999999998</ele>
   </trkpt>
   <trkpt lat="51.508430000000004" lon="-0.7108000000000001">
    <ele>24.09</ele>
   </trkpt>
   <trkpt lat="51.50849" lon="-0.71086">
    <ele>24.96</ele>
   </trkpt>
   <trkpt lat="51.5086" lon="-0.71104">
    <ele>25.890000000000004</ele>
   </trkpt>
   <trkpt lat="51.508610000000004" lon="-0.71123">
    <ele>26.410000000000004</ele>
   </trkpt>
   <trkpt lat="51.50824" lon="-0.7116300000000001">
    <ele>27.42</ele>
   </trkpt>
   <trkpt lat="51.508070000000004" lon="-0.71165">
    <ele>27.57</ele>
   </trkpt>
   <trkpt lat="51.50799000000001" lon="-0.71164">
    <ele>27.590000000000003</ele>
   </trkpt>
   <trkpt lat="51.507780000000004" lon="-0.7114">
    <ele>27.580000000000002</ele>
   </trkpt>
   <trkpt lat="51.507690000000004" lon="-0.71133">
    <ele>27.580000000000002</ele>
   </trkpt>
   <trkpt lat="51.50764" lon="-0.7113700000000001">
    <ele>27.580000000000002</ele>
   </trkpt>
   <trkpt lat="51.50759000000001" lon="-0.71142">
    <ele>27.580000000000002</ele>
   </trkpt>
   <trkpt lat="51.50748" lon="-0.71177">
    <ele>27.680000000000003</ele>
   </trkpt>
   <trkpt lat="51.50732000000001" lon="-0.71206">
    <ele>27.76</ele>
   </trkpt>
   <trkpt lat="51.50724" lon="-0.71208">
    <ele>27.76</ele>
   </trkpt>
   <trkpt lat="51.507110000000004" lon="-0.7124600000000001">
    <ele>27.73</ele>
   </trkpt>
   <trkpt lat="51.50697" lon="-0.7123200000000001">
    <ele>27.49</ele>
   </trkpt>
   <trkpt lat="51.506730000000005" lon="-0.71267">
    <ele>27.270000000000003</ele>
   </trkpt>
   <trkpt lat="51.5065" lon="-0.71306">
    <ele>26.950000000000003</ele>
   </trkpt>
   <trkpt lat="51.50648" lon="-0.71301">
    <ele>26.71</ele>
   </trkpt>
   <trkpt lat="51.50634" lon="-0.7132400000000001">
    <ele>26.45</ele>
   </trkpt>
   <trkpt lat="51.50616" lon="-0.71367">
    <ele>27.160000000000004</ele>
   </trkpt>
   <trkpt lat="51.506220000000006" lon="-0.7135900000000001">
    <ele>26.81</ele>
   </trkpt>
   <trkpt lat="51.506130000000006" lon="-0.7138100000000001">
    <ele>27.13</ele>
   </trkpt>
   <trkpt lat="51.50571000000001" lon="-0.7146800000000001">
    <ele>29.620000000000005</ele>
   </trkpt>
   <trkpt lat="51.505480000000006" lon="-0.7154100000000001">
    <ele>31.580000000000002</ele>
   </trkpt>
   <trkpt lat="51.505410000000005" lon="-0.7157100000000001">
    <ele>32.629999999999995</ele>
   </trkpt>
   <trkpt lat="51.50538" lon="-0.71633">
    <ele>35.56</ele>
   </trkpt>
   <trkpt lat="51.505390000000006" lon="-0.7166100000000001">
    <ele>36.50000000000001</ele>
   </trkpt>
   <trkpt lat="51.505520000000004" lon="-0.7174">
    <ele>37.74</ele>
   </trkpt>
   <trkpt lat="51.50555000000001" lon="-0.71786">
    <ele>37.13</ele>
   </trkpt>
   <trkpt lat="51.50554" lon="-0.71874">
    <ele>36.46000000000001</ele>
   </trkpt>
   <trkpt lat="51.50556" lon="-0.71931">
    <ele>36.31</ele>
   </trkpt>
   <trkpt lat="51.50562000000001" lon="-0.72001">
    <ele>35.83</ele>
   </trkpt>
   <trkpt lat="51.50573000000001" lon="-0.72082">
    <ele>36.31</ele>
   </trkpt>
   <trkpt lat="51.50595001444506" lon="-0.7221233207593384">
    <ele>37.89</ele>
   </trkpt>
   <trkpt lat="51.50617001444713" lon="-0.7234266541046005">
    <ele>40.800000000000004</ele>
   </trkpt>
   <trkpt lat="51.50639" lon="-0.7247300000000001">
    <ele>41.38</ele>
   </trkpt>
   <trkpt lat="51.506240000000005" lon="-0.7248100000000001">
    <ele>41.04</ele>
   </trkpt>
   <trkpt lat="51.506170000000004" lon="-0.72491">
    <ele>40.660000000000004</ele>
   </trkpt>
   <trkpt lat="51.50616" lon="-0.7250700000000001">
    <ele>40.660000000000004</ele>
   </trkpt>
   <trkpt lat="51.50603" lon="-0.72618">
    <ele>38.43000000000001</ele>
   </trkpt>
   <trkpt lat="51.50572500473199" lon="-0.7272400072507812">
    <ele>35.18</ele>
   </trkpt>
   <trkpt lat="51.50542" lon="-0.7283000000000001">
    <ele>31.37</ele>
   </trkpt>
   <trkpt lat="51.50522" lon="-0.7291700000000001">
    <ele>30.080000000000002</ele>
   </trkpt>
   <trkpt lat="51.504920000000006" lon="-0.73011">
    <ele>29.370000000000005</ele>
   </trkpt>
   <trkpt lat="51.504940000000005" lon="-0.73028">
    <ele>29.87</ele>
   </trkpt>
   <trkpt lat="51.50502" lon="-0.73045">
    <ele>30.490000000000002</ele>
   </trkpt>
   <trkpt lat="51.50499000000001" lon="-0.73048">
    <ele>30.490000000000002</ele>
   </trkpt>
   <trkpt lat="51.504830000000005" lon="-0.73019">
    <ele>32.800000000000004</ele>
   </trkpt>
   <trkpt lat="51.504740000000005" lon="-0.7305200000000001">
    <ele>28.610000000000003</ele>
   </trkpt>
   <trkpt lat="51.50466" lon="-0.7305900000000001">
    <ele>28.51</ele>
   </trkpt>
   <trkpt lat="51.504670000000004" lon="-0.7306600000000001">
    <ele>34.46</ele>
   </trkpt>
   <trkpt lat="51.50479000000001" lon="-0.73094">
    <ele>33.330000000000005</ele>
   </trkpt>
   <trkpt lat="51.50482" lon="-0.73089">
    <ele>33.330000000000005</ele>
   </trkpt>
   <trkpt lat="51.50462" lon="-0.7305">
    <ele>29.980000000000004</ele>
   </trkpt>
   <trkpt lat="51.50459000000001" lon="-0.73055">
    <ele>29.980000000000004</ele>
   </trkpt>
   <trkpt lat="51.50466" lon="-0.7306900000000001">
    <ele>29.05</ele>
   </trkpt>
   <trkpt lat="51.50462" lon="-0.73087">
    <ele>28.380000000000003</ele>
   </trkpt>
   <trkpt lat="51.504360000000005" lon="-0.7313400000000001">
    <ele>27.970000000000002</ele>
   </trkpt>
   <trkpt lat="51.50405000000001" lon="-0.73228">
    <ele>27.6</ele>
   </trkpt>
   <trkpt lat="51.50386" lon="-0.73302">
    <ele>27.13</ele>
   </trkpt>
   <trkpt lat="51.50377" lon="-0.7336300000000001">
    <ele>26.230000000000004</ele>
   </trkpt>
   <trkpt lat="51.50377" lon="-0.7349100000000001">
    <ele>25.810000000000002</ele>
   </trkpt>
   <trkpt lat="51.503730000000004" lon="-0.73628">
    <ele>26.02</ele>
   </trkpt>
   <trkpt lat="51.5037" lon="-0.73685">
    <ele>26.02</ele>
   </trkpt>
   <trkpt lat="51.50358000000001" lon="-0.73763">
    <ele>26.060000000000002</ele>
   </trkpt>
   <trkpt lat="51.50334" lon="-0.7387600000000001">
    <ele>26.330000000000002</ele>
   </trkpt>
   <trkpt lat="51.503240000000005" lon="-0.73941">
    <ele>26.64</ele>
   </trkpt>
   <trkpt lat="51.502970000000005" lon="-0.7407800000000001">
    <ele>27.340000000000003</ele>
   </trkpt>
   <trkpt lat="51.50282000000001" lon="-0.7419100000000001">
    <ele>27.26</ele>
   </trkpt>
   <trkpt lat="51.502675002839155" lon="-0.7427300027193882">
    <ele>26.860000000000003</ele>
   </trkpt>
   <trkpt lat="51.50253000000001" lon="-0.74355">
    <ele>26.680000000000003</ele>
   </trkpt>
   <trkpt lat="51.50258" lon="-0.74416">
    <ele>26.660000000000004</ele>
   </trkpt>
   <trkpt lat="51.50267" lon="-0.74455">
    <ele>26.520000000000003</ele>
   </trkpt>
   <trkpt lat="51.50301" lon="-0.74553">
    <ele>26.7</ele>
   </trkpt>
   <trkpt lat="51.5033800052119" lon="-0.746639990908756">
    <ele>27.580000000000002</ele>
   </trkpt>
   <trkpt lat="51.503750000000004" lon="-0.74775">
    <ele>29.030000000000005</ele>
   </trkpt>
   <trkpt lat="51.50421000541869" lon="-0.7488749887365369">
    <ele>30.500000000000004</ele>
   </trkpt>
   <trkpt lat="51.504670000000004" lon="-0.7500000000000001">
    <ele>31.540000000000006</ele>
   </trkpt>
   <trkpt lat="51.50479000000001" lon="-0.7502700000000001">
    <ele>31.630000000000006</ele>
   </trkpt>
   <trkpt lat="51.50495" lon="-0.7505600000000001">
    <ele>32.080000000000005</ele>
   </trkpt>
   <trkpt lat="51.504755001817806" lon="-0.751225003058098">
    <ele>32.040000000000006</ele>
   </trkpt>
   <trkpt lat="51.504560000000005" lon="-0.7518900000000001">
    <ele>31.73</ele>
   </trkpt>
   <trkpt lat="51.504220000000004" lon="-0.7527800000000001">
    <ele>31.69</ele>
   </trkpt>
   <trkpt lat="51.50398000443172" lon="-0.7538000053355451">
    <ele>32.13</ele>
   </trkpt>
   <trkpt lat="51.50374000000001" lon="-0.75482">
    <ele>32.35</ele>
   </trkpt>
   <trkpt lat="51.50448" lon="-0.7554200000000001">
    <ele>32.720000000000006</ele>
   </trkpt>
   <trkpt lat="51.504740000000005" lon="-0.7557">
    <ele>32.89</ele>
   </trkpt>
   <trkpt lat="51.5052" lon="-0.75639">
    <ele>33.260000000000005</ele>
   </trkpt>
   <trkpt lat="51.50531" lon="-0.75656">
    <ele>33.29</ele>
   </trkpt>
   <trkpt lat="51.5054" lon="-0.75678">
    <ele>33.29</ele>
   </trkpt>
   <trkpt lat="51.50547" lon="-0.7570300000000001">
    <ele>33.24</ele>
   </trkpt>
   <trkpt lat="51.505500000000005" lon="-0.7572800000000001">
    <ele>33.010000000000005</ele>
   </trkpt>
   <trkpt lat="51.505480000000006" lon="-0.7574000000000001">
    <ele>33.010000000000005</ele>
   </trkpt>
   <trkpt lat="51.505430000000004" lon="-0.7576700000000001">
    <ele>32.82</ele>
   </trkpt>
   <trkpt lat="51.505300000000005" lon="-0.75799">
    <ele>32.650000000000006</ele>
   </trkpt>
   <trkpt lat="51.505210000000005" lon="-0.7583300000000001">
    <ele>32.300000000000004</ele>
   </trkpt>
   <trkpt lat="51.505160000000004" lon="-0.7587600000000001">
    <ele>32.21</ele>
   </trkpt>
   <trkpt lat="51.505160000000004" lon="-0.75904">
    <ele>32.14</ele>
   </trkpt>
   <trkpt lat="51.505230000000005" lon="-0.75939">
    <ele>32.25</ele>
   </trkpt>
   <trkpt lat="51.50546000000001" lon="-0.75982">
    <ele>32.900000000000006</ele>
   </trkpt>
   <trkpt lat="51.50554" lon="-0.7601500000000001">
    <ele>33.07</ele>
   </trkpt>
   <trkpt lat="51.505480000000006" lon="-0.7603800000000001">
    <ele>33.010000000000005</ele>
   </trkpt>
   <trkpt lat="51.5054" lon="-0.76053">
    <ele>32.92</ele>
   </trkpt>
   <trkpt lat="51.50535000000001" lon="-0.7607200000000001">
    <ele>32.440000000000005</ele>
   </trkpt>
   <trkpt lat="51.505300000000005" lon="-0.7608">
    <ele>32.440000000000005</ele>
   </trkpt>
   <trkpt lat="51.50518" lon="-0.76124">
    <ele>31.92</ele>
   </trkpt>
   <trkpt lat="51.50513" lon="-0.7613200000000001">
    <ele>31.310000000000002</ele>
   </trkpt>
   <trkpt lat="51.50513" lon="-0.7617">
    <ele>30.660000000000004</ele>
   </trkpt>
   <trkpt lat="51.5052" lon="-0.7619400000000001">
    <ele>30.410000000000004</ele>
   </trkpt>
   <trkpt lat="51.50547" lon="-0.7620600000000001">
    <ele>30.62</ele>
   </trkpt>
   <trkpt lat="51.50553000000001" lon="-0.7621300000000001">
    <ele>30.62</ele>
   </trkpt>
   <trkpt lat="51.505500000000005" lon="-0.76221">
    <ele>30.62</ele>
   </trkpt>
   <trkpt lat="51.505480000000006" lon="-0.7625000000000001">
    <ele>30.42</ele>
   </trkpt>
   <trkpt lat="51.50555000000001" lon="-0.76268">
    <ele>30.410000000000004</ele>
   </trkpt>
   <trkpt lat="51.505630000000004" lon="-0.76304">
    <ele>30.63</ele>
   </trkpt>
   <trkpt lat="51.50565" lon="-0.7633200000000001">
    <ele>30.87</ele>
   </trkpt>
   <trkpt lat="51.505140000000004" lon="-0.7635200000000001">
    <ele>31.000000000000004</ele>
   </trkpt>
   <trkpt lat="51.50533" lon="-0.7645000000000001">
    <ele>31.96</ele>
   </trkpt>
   <trkpt lat="51.50539500226923" lon="-0.7652349986413243">
    <ele>33.78</ele>
   </trkpt>
   <trkpt lat="51.50546000000001" lon="-0.76597">
    <ele>35.04</ele>
   </trkpt>
   <trkpt lat="51.505720000000004" lon="-0.76656">
    <ele>36.18</ele>
   </trkpt>
   <trkpt lat="51.50574" lon="-0.7667">
    <ele>36.18</ele>
   </trkpt>
   <trkpt lat="51.50587" lon="-0.7673200000000001">
    <ele>37.86000000000001</ele>
   </trkpt>
   <trkpt lat="51.505720000000004" lon="-0.76826">
    <ele>41.63</ele>
   </trkpt>
   <trkpt lat="51.50576" lon="-0.76844">
    <ele>42.45</ele>
   </trkpt>
   <trkpt lat="51.50605" lon="-0.7687">
    <ele>42.43</ele>
   </trkpt>
   <trkpt lat="51.50632" lon="-0.7692000000000001">
    <ele>40.760000000000005</ele>
   </trkpt>
   <trkpt lat="51.506780000000006" lon="-0.7699400000000001">
    <ele>39.61000000000001</ele>
   </trkpt>
   <trkpt lat="51.50714500301547" lon="-0.7707749934285326">
    <ele>39.46</ele>
   </trkpt>
   <trkpt lat="51.50751" lon="-0.77161">
    <ele>40.190000000000005</ele>
   </trkpt>
   <trkpt lat="51.50764" lon="-0.77195">
    <ele>40.730000000000004</ele>
   </trkpt>
   <trkpt lat="51.50764" lon="-0.7719400000000001">
    <ele>40.730000000000004</ele>
   </trkpt>
   <trkpt lat="51.50768000000001" lon="-0.77202">
    <ele>40.81</ele>
   </trkpt>
   <trkpt lat="51.50779000000001" lon="-0.77212">
    <ele>40.910000000000004</ele>
   </trkpt>
   <trkpt lat="51.50842" lon="-0.7728">
    <ele>41.78</ele>
   </trkpt>
   <trkpt lat="51.50865" lon="-0.77341">
    <ele>42.7</ele>
   </trkpt>
   <trkpt lat="51.5088" lon="-0.77402">
    <ele>44.22</ele>
   </trkpt>
   <trkpt lat="51.509130000000006" lon="-0.77429">
    <ele>44.86000000000001</ele>
   </trkpt>
   <trkpt lat="51.50947000000001" lon="-0.7744800000000001">
    <ele>44.84</ele>
   </trkpt>
   <trkpt lat="51.50983" lon="-0.7748200000000001">
    <ele>44.4</ele>
   </trkpt>
   <trkpt lat="51.51014000000001" lon="-0.775">
    <ele>44.29</ele>
   </trkpt>
   <trkpt lat="51.51044" lon="-0.77529">
    <ele>43.77</ele>
   </trkpt>
   <trkpt lat="51.510850000000005" lon="-0.7754800000000001">
    <ele>43.08</ele>
   </trkpt>
   <trkpt lat="51.510940000000005" lon="-0.7757200000000001">
    <ele>42.89</ele>
   </trkpt>
   <trkpt lat="51.510160000000006" lon="-0.7756000000000001">
    <ele>44.120000000000005</ele>
   </trkpt>
   <trkpt lat="51.509980000000006" lon="-0.7755500000000001">
    <ele>44.51</ele>
   </trkpt>
   <trkpt lat="51.5099" lon="-0.77578">
    <ele>44.82000000000001</ele>
   </trkpt>
   <trkpt lat="51.50991670656126" lon="-0.7771499974684913">
    <ele>45.46</ele>
   </trkpt>
   <trkpt lat="51.509933397164595" lon="-0.7785199959412652">
    <ele>47.41</ele>
   </trkpt>
   <trkpt lat="51.50995007180998" lon="-0.7798899954173635">
    <ele>48.540000000000006</ele>
   </trkpt>
   <trkpt lat="51.5099667304974" lon="-0.7812599958958276">
    <ele>49.42</ele>
   </trkpt>
   <trkpt lat="51.509983373226845" lon="-0.7826299973756993">
    <ele>50.61</ele>
   </trkpt>
   <trkpt lat="51.510000000000005" lon="-0.784">
    <ele>51.36</ele>
   </trkpt>
   <trkpt lat="51.50995" lon="-0.7844300000000001">
    <ele>51.440000000000005</ele>
   </trkpt>
   <trkpt lat="51.50967668200299" lon="-0.7857733494840643">
    <ele>51.45</ele>
   </trkpt>
   <trkpt lat="51.50940334866299" lon="-0.7871166828498168">
    <ele>51.21000000000001</ele>
   </trkpt>
   <trkpt lat="51.509130000000006" lon="-0.78846">
    <ele>51.96000000000001</ele>
   </trkpt>
   <trkpt lat="51.508860003267756" lon="-0.7893350051434266">
    <ele>51.84</ele>
   </trkpt>
   <trkpt lat="51.508590000000005" lon="-0.7902100000000001">
    <ele>51.71000000000001</ele>
   </trkpt>
   <trkpt lat="51.50851" lon="-0.79027">
    <ele>51.71000000000001</ele>
   </trkpt>
   <trkpt lat="51.507960000000004" lon="-0.7901600000000001">
    <ele>50.870000000000005</ele>
   </trkpt>
   <trkpt lat="51.507600000000004" lon="-0.79042">
    <ele>50.5</ele>
   </trkpt>
   <trkpt lat="51.507270000000005" lon="-0.7907200000000001">
    <ele>50.53</ele>
   </trkpt>
   <trkpt lat="51.50701" lon="-0.791">
    <ele>51.21000000000001</ele>
   </trkpt>
   <trkpt lat="51.506890000000006" lon="-0.79122">
    <ele>51.4</ele>
   </trkpt>
   <trkpt lat="51.50683" lon="-0.79156">
    <ele>51.64000000000001</ele>
   </trkpt>
   <trkpt lat="51.506800000000005" lon="-0.7924100000000001">
    <ele>51.83</ele>
   </trkpt>
   <trkpt lat="51.506800000000005" lon="-0.79366">
    <ele>52.10000000000001</ele>
   </trkpt>
   <trkpt lat="51.506750000000004" lon="-0.7942">
    <ele>51.980000000000004</ele>
   </trkpt>
   <trkpt lat="51.50663" lon="-0.7948700000000001">
    <ele>51.88</ele>
   </trkpt>
   <trkpt lat="51.50663" lon="-0.79549">
    <ele>50.85000000000001</ele>
   </trkpt>
   <trkpt lat="51.506530000000005" lon="-0.79673">
    <ele>50.7</ele>
   </trkpt>
   <trkpt lat="51.50658000000001" lon="-0.7975300000000001">
    <ele>52.09</ele>
   </trkpt>
   <trkpt lat="51.50661" lon="-0.79883">
    <ele>53.93000000000001</ele>
   </trkpt>
   <trkpt lat="51.5065" lon="-0.79922">
    <ele>54.21</ele>
   </trkpt>
   <trkpt lat="51.506280000000004" lon="-0.79966">
    <ele>54.160000000000004</ele>
   </trkpt>
   <trkpt lat="51.506170000000004" lon="-0.80003">
    <ele>54.3</ele>
   </trkpt>
   <trkpt lat="51.50612" lon="-0.8003800000000001">
    <ele>54.67</ele>
   </trkpt>
   <trkpt lat="51.506080000000004" lon="-0.8011">
    <ele>54.7</ele>
   </trkpt>
   <trkpt lat="51.50603" lon="-0.80144">
    <ele>54.99</ele>
   </trkpt>
   <trkpt lat="51.50592" lon="-0.8017200000000001">
    <ele>54.99</ele>
   </trkpt>
   <trkpt lat="51.50578" lon="-0.8019700000000001">
    <ele>55.32</ele>
   </trkpt>
   <trkpt lat="51.50569" lon="-0.8021800000000001">
    <ele>55.400000000000006</ele>
   </trkpt>
   <trkpt lat="51.50544000000001" lon="-0.80203">
    <ele>55.260000000000005</ele>
   </trkpt>
   <trkpt lat="51.50498500048144" lon="-0.8017199969542141">
    <ele>54.580000000000005</ele>
   </trkpt>
   <trkpt lat="51.50453" lon="-0.8014100000000001">
    <ele>53.120000000000005</ele>
   </trkpt>
   <trkpt lat="51.503730000000004" lon="-0.8012400000000001">
    <ele>52.21000000000001</ele>
   </trkpt>
   <trkpt lat="51.50291000000001" lon="-0.80098">
    <ele>51.36</ele>
   </trkpt>
   <trkpt lat="51.50253000000001" lon="-0.80088">
    <ele>51.04</ele>
   </trkpt>
   <trkpt lat="51.5022" lon="-0.8006800000000001">
    <ele>50.61</ele>
   </trkpt>
   <trkpt lat="51.502210000000005" lon="-0.8003">
    <ele>49.92</ele>
   </trkpt>
   <trkpt lat="51.50213" lon="-0.79988">
    <ele>49.370000000000005</ele>
   </trkpt>
   <trkpt lat="51.50191" lon="-0.79922">
    <ele>49.18</ele>
   </trkpt>
   <trkpt lat="51.50175" lon="-0.7986300000000001">
    <ele>48.900000000000006</ele>
   </trkpt>
   <trkpt lat="51.50155" lon="-0.79776">
    <ele>48.64</ele>
   </trkpt>
   <trkpt lat="51.50139" lon="-0.7974600000000001">
    <ele>48.49</ele>
   </trkpt>
   <trkpt lat="51.50121000000001" lon="-0.79717">
    <ele>48.160000000000004</ele>
   </trkpt>
   <trkpt lat="51.500720000365426" lon="-0.7968799968866458">
    <ele>47.839999999999996</ele>
   </trkpt>
   <trkpt lat="51.50023" lon="-0.79659">
    <ele>47.09</ele>
   </trkpt>
   <trkpt lat="51.49973000000001" lon="-0.79625">
    <ele>46.43000000000001</ele>
   </trkpt>
   <trkpt lat="51.49965" lon="-0.79612">
    <ele>46.26</ele>
   </trkpt>
   <trkpt lat="51.499520000000004" lon="-0.7955800000000001">
    <ele>45.86000000000001</ele>
   </trkpt>
   <trkpt lat="51.499320004521785" lon="-0.7945449952897207">
    <ele>44.63</ele>
   </trkpt>
   <trkpt lat="51.499120000000005" lon="-0.79351">
    <ele>43.25</ele>
   </trkpt>
   <trkpt lat="51.499030000000005" lon="-0.7931900000000001">
    <ele>42.910000000000004</ele>
   </trkpt>
   <trkpt lat="51.498740000000005" lon="-0.79244">
    <ele>43.0</ele>
   </trkpt>
   <trkpt lat="51.498560000000005" lon="-0.79217">
    <ele>43.67</ele>
   </trkpt>
   <trkpt lat="51.49819" lon="-0.7918700000000001">
    <ele>42.95</ele>
   </trkpt>
   <trkpt lat="51.49752" lon="-0.7913600000000001">
    <ele>41.550000000000004</ele>
   </trkpt>
   <trkpt lat="51.49707500130975" lon="-0.7908349950370851">
    <ele>41.150000000000006</ele>
   </trkpt>
   <trkpt lat="51.49663" lon="-0.7903100000000001">
    <ele>40.400000000000006</ele>
   </trkpt>
   <trkpt lat="51.49622" lon="-0.79012">
    <ele>39.67</ele>
   </trkpt>
   <trkpt lat="51.496030000000005" lon="-0.7901">
    <ele>39.67</ele>
   </trkpt>
   <trkpt lat="51.495830000000005" lon="-0.79015">
    <ele>39.61000000000001</ele>
   </trkpt>
   <trkpt lat="51.495650000000005" lon="-0.79017">
    <ele>39.67</ele>
   </trkpt>
   <trkpt lat="51.49530000000001" lon="-0.78937">
    <ele>39.150000000000006</ele>
   </trkpt>
   <trkpt lat="51.49506" lon="-0.78868">
    <ele>39.02</ele>
   </trkpt>
   <trkpt lat="51.494910000000004" lon="-0.78805">
    <ele>38.7</ele>
   </trkpt>
   <trkpt lat="51.49472500201152" lon="-0.7873749975318145">
    <ele>38.330000000000005</ele>
   </trkpt>
   <trkpt lat="51.49454000000001" lon="-0.7867000000000001">
    <ele>37.94</ele>
   </trkpt>
   <trkpt lat="51.49439" lon="-0.78615">
    <ele>37.95</ele>
   </trkpt>
   <trkpt lat="51.4943" lon="-0.7862">
    <ele>38.02</ele>
   </trkpt>
   <trkpt lat="51.49385" lon="-0.7868">
    <ele>38.75</ele>
   </trkpt>
   <trkpt lat="51.493330001839844" lon="-0.7874350070902701">
    <ele>39.290000000000006</ele>
   </trkpt>
   <trkpt lat="51.492810000000006" lon="-0.78807">
    <ele>38.98</ele>
   </trkpt>
   <trkpt lat="51.49237" lon="-0.78846">
    <ele>38.55</ele>
   </trkpt>
   <trkpt lat="51.49195" lon="-0.7889">
    <ele>38.48</ele>
   </trkpt>
   <trkpt lat="51.49157" lon="-0.7891900000000001">
    <ele>38.73</ele>
   </trkpt>
   <trkpt lat="51.49114" lon="-0.7894800000000001">
    <ele>38.77</ele>
   </trkpt>
   <trkpt lat="51.49058" lon="-0.78966">
    <ele>38.970000000000006</ele>
   </trkpt>
   <trkpt lat="51.490070000140214" lon="-0.7899250030466745">
    <ele>38.68000000000001</ele>
   </trkpt>
   <trkpt lat="51.489560000000004" lon="-0.7901900000000001">
    <ele>38.31</ele>
   </trkpt>
   <trkpt lat="51.48930000000001" lon="-0.79022">
    <ele>37.99</ele>
   </trkpt>
   <trkpt lat="51.48872000119253" lon="-0.7898466571729571">
    <ele>37.64</ele>
   </trkpt>
   <trkpt lat="51.48814000119978" lon="-0.7894733238444466">
    <ele>37.50000000000001</ele>
   </trkpt>
   <trkpt lat="51.48756" lon="-0.7891">
    <ele>37.230000000000004</ele>
   </trkpt>
   <trkpt lat="51.48731" lon="-0.78898">
    <ele>37.05</ele>
   </trkpt>
   <trkpt lat="51.486990000000006" lon="-0.7889200000000001">
    <ele>37.05</ele>
   </trkpt>
   <trkpt lat="51.486700000000006" lon="-0.78893">
    <ele>36.79</ele>
   </trkpt>
   <trkpt lat="51.48633" lon="-0.78871">
    <ele>36.35</ele>
   </trkpt>
   <trkpt lat="51.48592000000001" lon="-0.78829">
    <ele>35.95</ele>
   </trkpt>
   <trkpt lat="51.48561" lon="-0.78788">
    <ele>35.86</ele>
   </trkpt>
   <trkpt lat="51.48537" lon="-0.78746">
    <ele>36.050000000000004</ele>
   </trkpt>
   <trkpt lat="51.48516000000001" lon="-0.78683">
    <ele>36.17</ele>
   </trkpt>
   <trkpt lat="51.48494" lon="-0.7860900000000001">
    <ele>36.480000000000004</ele>
   </trkpt>
   <trkpt lat="51.48469000000001" lon="-0.7855500000000001">
    <ele>37.02</ele>
   </trkpt>
   <trkpt lat="51.484590000000004" lon="-0.78532">
    <ele>37.36000000000001</ele>
   </trkpt>
   <trkpt lat="51.48415000000001" lon="-0.7845700000000001">
    <ele>38.35</ele>
   </trkpt>
   <trkpt lat="51.48397000792677" lon="-0.7855366744045544">
    <ele>37.73</ele>
   </trkpt>
   <trkpt lat="51.48379000790689" lon="-0.7865033411778841">
    <ele>38.220000000000006</ele>
   </trkpt>
   <trkpt lat="51.483610000000006" lon="-0.7874700000000001">
    <ele>38.940000000000005</ele>
   </trkpt>
   <trkpt lat="51.48353" lon="-0.78802">
    <ele>39.260000000000005</ele>
   </trkpt>
   <trkpt lat="51.483470000000004" lon="-0.7890900000000001">
    <ele>38.330000000000005</ele>
   </trkpt>
   <trkpt lat="51.48350000292671" lon="-0.7899199993835545">
    <ele>38.09</ele>
   </trkpt>
   <trkpt lat="51.48353" lon="-0.7907500000000001">
    <ele>37.86000000000001</ele>
   </trkpt>
   <trkpt lat="51.48349" lon="-0.7910900000000001">
    <ele>37.76</ele>
   </trkpt>
   <trkpt lat="51.48332500359657" lon="-0.7920050031075634">
    <ele>37.76</ele>
   </trkpt>
   <trkpt lat="51.483160000000005" lon="-0.7929200000000001">
    <ele>37.76</ele>
   </trkpt>
   <trkpt lat="51.482620000000004" lon="-0.79261">
    <ele>37.480000000000004</ele>
   </trkpt>
   <trkpt lat="51.48210500158162" lon="-0.7919849928456972">
    <ele>38.45</ele>
   </trkpt>
   <trkpt lat="51.481590000000004" lon="-0.7913600000000001">
    <ele>41.39</ele>
   </trkpt>
   <trkpt lat="51.481105002079076" lon="-0.7906599925493238">
    <ele>43.36</ele>
   </trkpt>
   <trkpt lat="51.48062" lon="-0.7899600000000001">
    <ele>45.2</ele>
   </trkpt>
   <trkpt lat="51.480320000000006" lon="-0.79032">
    <ele>45.160000000000004</ele>
   </trkpt>
   <trkpt lat="51.47989667091803" lon="-0.7910266797777764">
    <ele>45.35</ele>
   </trkpt>
   <trkpt lat="51.47947333758908" lon="-0.7917333464369275">
    <ele>44.95</ele>
   </trkpt>
   <trkpt lat="51.47905" lon="-0.79244">
    <ele>43.300000000000004</ele>
   </trkpt>
   <trkpt lat="51.478745003574744" lon="-0.7933550060747175">
    <ele>41.59</ele>
   </trkpt>
   <trkpt lat="51.478440000000006" lon="-0.79427">
    <ele>40.019999999999996</ele>
   </trkpt>
   <trkpt lat="51.47795333873425" lon="-0.7950666836619871">
    <ele>38.19</ele>
   </trkpt>
   <trkpt lat="51.477466672070776" lon="-0.7958633503231627">
    <ele>37.76</ele>
   </trkpt>
   <trkpt lat="51.476980000000005" lon="-0.79666">
    <ele>37.84</ele>
   </trkpt>
   <trkpt lat="51.47658667369045" lon="-0.7975700157378969">
    <ele>38.45</ele>
   </trkpt>
   <trkpt lat="51.47619334033814" lon="-0.7984800157815654">
    <ele>39.220000000000006</ele>
   </trkpt>
   <trkpt lat="51.47580000000001" lon="-0.79939">
    <ele>38.71</ele>
   </trkpt>
   <trkpt lat="51.475210000000004" lon="-0.80042">
    <ele>37.1</ele>
   </trkpt>
   <trkpt lat="51.47491500385239" lon="-0.8013800064250562">
    <ele>36.75000000000001</ele>
   </trkpt>
   <trkpt lat="51.47462" lon="-0.80234">
    <ele>37.19</ele>
   </trkpt>
   <trkpt lat="51.47489" lon="-0.80247">
    <ele>37.50000000000001</ele>
   </trkpt>
   <trkpt lat="51.474880000000006" lon="-0.80266">
    <ele>37.82000000000001</ele>
   </trkpt>
   <trkpt lat="51.47475000000001" lon="-0.8027400000000001">
    <ele>37.85</ele>
   </trkpt>
   <trkpt lat="51.47451" lon="-0.80295">
    <ele>37.660000000000004</ele>
   </trkpt>
   <trkpt lat="51.474160000000005" lon="-0.80322">
    <ele>37.6</ele>
   </trkpt>
   <trkpt lat="51.47386" lon="-0.80361">
    <ele>37.68000000000001</ele>
   </trkpt>
   <trkpt lat="51.47345500337999" lon="-0.8045000078757596">
    <ele>37.08</ele>
   </trkpt>
   <trkpt lat="51.47305000000001" lon="-0.80539">
    <ele>36.69</ele>
   </trkpt>
   <trkpt lat="51.47276000250895" lon="-0.8061600049275307">
    <ele>36.71</ele>
   </trkpt>
   <trkpt lat="51.47247" lon="-0.80693">
    <ele>36.88</ele>
   </trkpt>
   <trkpt lat="51.47209000266994" lon="-0.8077100063271925">
    <ele>36.74</ele>
   </trkpt>
   <trkpt lat="51.47171" lon="-0.80849">
    <ele>36.77</ele>
   </trkpt>
   <trkpt lat="51.47107000247559" lon="-0.8092600108567021">
    <ele>36.57000000000001</ele>
   </trkpt>
   <trkpt lat="51.47043000000001" lon="-0.81003">
    <ele>36.9</ele>
   </trkpt>
   <trkpt lat="51.470330000000004" lon="-0.8102400000000001">
    <ele>37.18000000000001</ele>
   </trkpt>
   <trkpt lat="51.47019" lon="-0.81125">
    <ele>38.25000000000001</ele>
   </trkpt>
   <trkpt lat="51.46992" lon="-0.811">
    <ele>37.900000000000006</ele>
   </trkpt>
   <trkpt lat="51.469770000000004" lon="-0.81091">
    <ele>37.62</ele>
   </trkpt>
   <trkpt lat="51.469530000000006" lon="-0.81091">
    <ele>37.55</ele>
   </trkpt>
   <trkpt lat="51.46934" lon="-0.811">
    <ele>37.50000000000001</ele>
   </trkpt>
   <trkpt lat="51.46923" lon="-0.8110700000000001">
    <ele>37.44</ele>
   </trkpt>
   <trkpt lat="51.468630000000005" lon="-0.81176">
    <ele>36.93000000000001</ele>
   </trkpt>
   <trkpt lat="51.468450000000004" lon="-0.81188">
    <ele>36.71</ele>
   </trkpt>
   <trkpt lat="51.46759" lon="-0.8122900000000001">
    <ele>36.49</ele>
   </trkpt>
   <trkpt lat="51.46680000015802" lon="-0.8125200040015755">
    <ele>36.62</ele>
   </trkpt>
   <trkpt lat="51.466010000000004" lon="-0.8127500000000001">
    <ele>37.63</ele>
   </trkpt>
   <trkpt lat="51.46594" lon="-0.8131900000000001">
    <ele>37.720000000000006</ele>
   </trkpt>
   <trkpt lat="51.46591500314379" lon="-0.8140500005217469">
    <ele>37.900000000000006</ele>
   </trkpt>
   <trkpt lat="51.46589" lon="-0.81491">
    <ele>37.67</ele>
   </trkpt>
   <trkpt lat="51.46583000597682" lon="-0.816095001456986">
    <ele>37.78</ele>
   </trkpt>
   <trkpt lat="51.465770000000006" lon="-0.8172800000000001">
    <ele>38.19</ele>
   </trkpt>
   <trkpt lat="51.465680000000006" lon="-0.81837">
    <ele>38.28</ele>
   </trkpt>
   <trkpt lat="51.465710020495926" lon="-0.8196374974797506">
    <ele>38.46</ele>
   </trkpt>
   <trkpt lat="51.46574002732762" lon="-0.8209049966268834">
    <ele>39.510000000000005</ele>
   </trkpt>
   <trkpt lat="51.46577002049503" lon="-0.8221724974406431">
    <ele>41.53</ele>
   </trkpt>
   <trkpt lat="51.4658" lon="-0.8234400000000001">
    <ele>41.580000000000005</ele>
   </trkpt>
   <trkpt lat="51.465790000000005" lon="-0.8240500000000001">
    <ele>40.74</ele>
   </trkpt>
   <trkpt lat="51.465770000000006" lon="-0.8242700000000001">
    <ele>40.53</ele>
   </trkpt>
   <trkpt lat="51.465650000000004" lon="-0.8250000000000001">
    <ele>40.410000000000004</ele>
   </trkpt>
   <trkpt lat="51.46539000666631" lon="-0.8262500070188443">
    <ele>41.74</ele>
   </trkpt>
   <trkpt lat="51.46513" lon="-0.8275">
    <ele>44.0</ele>
   </trkpt>
   <trkpt lat="51.46490000000001" lon="-0.8286100000000001">
    <ele>44.35</ele>
   </trkpt>
   <trkpt lat="51.46463000000001" lon="-0.82972">
    <ele>44.190000000000005</ele>
   </trkpt>
   <trkpt lat="51.46454000000001" lon="-0.83023">
    <ele>43.86</ele>
   </trkpt>
   <trkpt lat="51.464393346128084" lon="-0.8314566745806835">
    <ele>43.15</ele>
   </trkpt>
   <trkpt lat="51.464246679457894" lon="-0.8326833412766028">
    <ele>42.92000000000001</ele>
   </trkpt>
   <trkpt lat="51.4641" lon="-0.83391">
    <ele>44.28000000000001</ele>
   </trkpt>
   <trkpt lat="51.4644566752769" lon="-0.8349166509053403">
    <ele>43.76</ele>
   </trkpt>
   <trkpt lat="51.464813341934764" lon="-0.8359233175468594">
    <ele>42.28</ele>
   </trkpt>
   <trkpt lat="51.46517000000001" lon="-0.8369300000000001">
    <ele>40.760000000000005</ele>
   </trkpt>
   <trkpt lat="51.465210000000006" lon="-0.83711">
    <ele>40.760000000000005</ele>
   </trkpt>
   <trkpt lat="51.46535000398475" lon="-0.8380849966050721">
    <ele>39.78</ele>
   </trkpt>
   <trkpt lat="51.46549" lon="-0.83906">
    <ele>38.91</ele>
   </trkpt>
   <trkpt lat="51.465610002024754" lon="-0.8397549980020672">
    <ele>38.37</ele>
   </trkpt>
   <trkpt lat="51.46573000000001" lon="-0.84045">
    <ele>37.61000000000001</ele>
   </trkpt>
   <trkpt lat="51.465830000000004" lon="-0.84096">
    <ele>37.13</ele>
   </trkpt>
   <trkpt lat="51.46598" lon="-0.84155">
    <ele>36.87</ele>
   </trkpt>
   <trkpt lat="51.46611000000001" lon="-0.84228">
    <ele>36.9</ele>
   </trkpt>
   <trkpt lat="51.46622000000001" lon="-0.8432400000000001">
    <ele>37.50000000000001</ele>
   </trkpt>
   <trkpt lat="51.465970000000006" lon="-0.8434200000000001">
    <ele>36.81</ele>
   </trkpt>
   <trkpt lat="51.46569" lon="-0.84379">
    <ele>36.54</ele>
   </trkpt>
   <trkpt lat="51.46549" lon="-0.8441500000000001">
    <ele>36.36</ele>
   </trkpt>
   <trkpt lat="51.465320000000006" lon="-0.8445400000000001">
    <ele>36.45</ele>
   </trkpt>
   <trkpt lat="51.46517000000001" lon="-0.8450300000000001">
    <ele>36.53</ele>
   </trkpt>
   <trkpt lat="51.464980000000004" lon="-0.8455400000000001">
    <ele>36.65</ele>
   </trkpt>
   <trkpt lat="51.46491" lon="-0.8456400000000001">
    <ele>36.65</ele>
   </trkpt>
   <trkpt lat="51.464760000000005" lon="-0.84579">
    <ele>36.800000000000004</ele>
   </trkpt>
   <trkpt lat="51.46464" lon="-0.84589">
    <ele>36.7</ele>
   </trkpt>
   <trkpt lat="51.46425000000001" lon="-0.84604">
    <ele>36.77</ele>
   </trkpt>
   <trkpt lat="51.463620000197636" lon="-0.8461550015618026">
    <ele>36.69</ele>
   </trkpt>
   <trkpt lat="51.462990000000005" lon="-0.8462700000000001">
    <ele>36.84</ele>
   </trkpt>
   <trkpt lat="51.463" lon="-0.8462700000000001">
    <ele>36.84</ele>
   </trkpt>
   <trkpt lat="51.462250000000004" lon="-0.8464">
    <ele>37.13</ele>
   </trkpt>
   <trkpt lat="51.461920000000006" lon="-0.8465">
    <ele>37.21</ele>
   </trkpt>
   <trkpt lat="51.461780000000005" lon="-0.84662">
    <ele>37.22</ele>
   </trkpt>
   <trkpt lat="51.46139" lon="-0.84682">
    <ele>37.2</ele>
   </trkpt>
   <trkpt lat="51.461040000000004" lon="-0.84733">
    <ele>37.01</ele>
   </trkpt>
   <trkpt lat="51.460840000000005" lon="-0.8478300000000001">
    <ele>37.03</ele>
   </trkpt>
   <trkpt lat="51.46045" lon="-0.8483700000000001">
    <ele>36.85</ele>
   </trkpt>
   <trkpt lat="51.46010000128605" lon="-0.8489300043706696">
    <ele>37.06</ele>
   </trkpt>
   <trkpt lat="51.45975000000001" lon="-0.8494900000000001">
    <ele>37.1</ele>
   </trkpt>
   <trkpt lat="51.459360001433325" lon="-0.8500650048731438">
    <ele>37.43000000000001</ele>
   </trkpt>
   <trkpt lat="51.45897" lon="-0.8506400000000001">
    <ele>37.75000000000001</ele>
   </trkpt>
   <trkpt lat="51.45881000000001" lon="-0.85094">
    <ele>38.09</ele>
   </trkpt>
   <trkpt lat="51.458490000000005" lon="-0.85135">
    <ele>38.330000000000005</ele>
   </trkpt>
   <trkpt lat="51.45796000000001" lon="-0.85172">
    <ele>38.790000000000006</ele>
   </trkpt>
   <trkpt lat="51.457860000000004" lon="-0.8518300000000001">
    <ele>38.790000000000006</ele>
   </trkpt>
   <trkpt lat="51.457660000000004" lon="-0.8515600000000001">
    <ele>38.940000000000005</ele>
   </trkpt>
   <trkpt lat="51.457550000000005" lon="-0.85143">
    <ele>38.98</ele>
   </trkpt>
   <trkpt lat="51.457010000000004" lon="-0.85101">
    <ele>39.1</ele>
   </trkpt>
   <trkpt lat="51.45676" lon="-0.8509000000000001">
    <ele>39.2</ele>
   </trkpt>
   <trkpt lat="51.456720000000004" lon="-0.8507600000000001">
    <ele>39.27</ele>
   </trkpt>
   <trkpt lat="51.456590000000006" lon="-0.85057">
    <ele>39.32</ele>
   </trkpt>
   <trkpt lat="51.4564" lon="-0.85035">
    <ele>39.27</ele>
   </trkpt>
   <trkpt lat="51.456030000000005" lon="-0.84982">
    <ele>39.35</ele>
   </trkpt>
   <trkpt lat="51.456050000000005" lon="-0.8495900000000001">
    <ele>39.24</ele>
   </trkpt>
   <trkpt lat="51.456" lon="-0.84901">
    <ele>38.93000000000001</ele>
   </trkpt>
   <trkpt lat="51.45593" lon="-0.84872">
    <ele>38.74</ele>
   </trkpt>
   <trkpt lat="51.45560500249817" lon="-0.8479499944622533">
    <ele>38.690000000000005</ele>
   </trkpt>
   <trkpt lat="51.45528" lon="-0.84718">
    <ele>38.580000000000005</ele>
   </trkpt>
   <trkpt lat="51.45474" lon="-0.84604">
    <ele>38.11000000000001</ele>
   </trkpt>
   <trkpt lat="51.4543650007099" lon="-0.8456349966862958">
    <ele>37.76</ele>
   </trkpt>
   <trkpt lat="51.453990000000005" lon="-0.84523">
    <ele>37.4</ele>
   </trkpt>
   <trkpt lat="51.45375000000001" lon="-0.8449300000000001">
    <ele>37.53</ele>
   </trkpt>
   <trkpt lat="51.45351" lon="-0.84457">
    <ele>37.64</ele>
   </trkpt>
   <trkpt lat="51.45322" lon="-0.84406">
    <ele>37.45</ele>
   </trkpt>
   <trkpt lat="51.45313" lon="-0.84389">
    <ele>37.4</ele>
   </trkpt>
   <trkpt lat="51.45290500187154" lon="-0.8432249966950209">
    <ele>37.44</ele>
   </trkpt>
   <trkpt lat="51.45268" lon="-0.8425600000000001">
    <ele>37.53</ele>
   </trkpt>
   <trkpt lat="51.452360002409144" lon="-0.8418049946719515">
    <ele>37.790000000000006</ele>
   </trkpt>
   <trkpt lat="51.452040000000004" lon="-0.8410500000000001">
    <ele>38.12</ele>
   </trkpt>
   <trkpt lat="51.451480003098695" lon="-0.8416533481318896">
    <ele>37.040000000000006</ele>
   </trkpt>
   <trkpt lat="51.45092000310091" lon="-0.8422566814625807">
    <ele>36.83</ele>
   </trkpt>
   <trkpt lat="51.45036" lon="-0.84286">
    <ele>36.75000000000001</ele>
   </trkpt>
   <trkpt lat="51.44989" lon="-0.84362">
    <ele>37.00000000000001</ele>
   </trkpt>
   <trkpt lat="51.44964" lon="-0.84411">
    <ele>37.03</ele>
   </trkpt>
   <trkpt lat="51.44908" lon="-0.84374">
    <ele>36.81</ele>
   </trkpt>
   <trkpt lat="51.44879" lon="-0.8435900000000001">
    <ele>36.93000000000001</ele>
   </trkpt>
   <trkpt lat="51.448660000000004" lon="-0.8434200000000001">
    <ele>36.93000000000001</ele>
   </trkpt>
   <trkpt lat="51.44827" lon="-0.8423700000000001">
    <ele>37.63</ele>
   </trkpt>
   <trkpt lat="51.4479300050754" lon="-0.8412749917677829">
    <ele>38.540000000000006</ele>
   </trkpt>
   <trkpt lat="51.447590000000005" lon="-0.84018">
    <ele>39.14</ele>
   </trkpt>
   <trkpt lat="51.44722" lon="-0.83925">
    <ele>39.300000000000004</ele>
   </trkpt>
   <trkpt lat="51.446940000000005" lon="-0.83869">
    <ele>39.39</ele>
   </trkpt>
   <trkpt lat="51.44679000000001" lon="-0.83852">
    <ele>39.38</ele>
   </trkpt>
   <trkpt lat="51.44661000000001" lon="-0.8385800000000001">
    <ele>39.45</ele>
   </trkpt>
   <trkpt lat="51.446140001263984" lon="-0.8391650062597644">
    <ele>39.67</ele>
   </trkpt>
   <trkpt lat="51.44567000000001" lon="-0.8397500000000001">
    <ele>39.6</ele>
   </trkpt>
   <trkpt lat="51.44503000294979" lon="-0.8405750114918055">
    <ele>39.470000000000006</ele>
   </trkpt>
   <trkpt lat="51.444390000000006" lon="-0.8414">
    <ele>39.470000000000006</ele>
   </trkpt>
   <trkpt lat="51.44424000000001" lon="-0.8416100000000001">
    <ele>39.41</ele>
   </trkpt>
   <trkpt lat="51.444050000000004" lon="-0.84196">
    <ele>39.370000000000005</ele>
   </trkpt>
   <trkpt lat="51.44375" lon="-0.84257">
    <ele>39.040000000000006</ele>
   </trkpt>
   <trkpt lat="51.44362" lon="-0.84272">
    <ele>38.88</ele>
   </trkpt>
   <trkpt lat="51.443090000000005" lon="-0.84318">
    <ele>38.790000000000006</ele>
   </trkpt>
   <trkpt lat="51.44263" lon="-0.84374">
    <ele>38.830000000000005</ele>
   </trkpt>
   <trkpt lat="51.4423" lon="-0.8442200000000001">
    <ele>38.99</ele>
   </trkpt>
   <trkpt lat="51.442080000000004" lon="-0.84482">
    <ele>38.31</ele>
   </trkpt>
   <trkpt lat="51.441880000000005" lon="-0.8455900000000001">
    <ele>38.14</ele>
   </trkpt>
   <trkpt lat="51.44176" lon="-0.84616">
    <ele>39.11000000000001</ele>
   </trkpt>
   <trkpt lat="51.44122" lon="-0.84606">
    <ele>39.800000000000004</ele>
   </trkpt>
   <trkpt lat="51.441100000000006" lon="-0.84596">
    <ele>39.93</ele>
   </trkpt>
   <trkpt lat="51.440990000000006" lon="-0.84584">
    <ele>40.31</ele>
   </trkpt>
   <trkpt lat="51.440615001494876" lon="-0.8452399950153573">
    <ele>40.660000000000004</ele>
   </trkpt>
   <trkpt lat="51.44024" lon="-0.8446400000000001">
    <ele>41.25</ele>
   </trkpt>
   <trkpt lat="51.439870002782264" lon="-0.843849993872689">
    <ele>43.160000000000004</ele>
   </trkpt>
   <trkpt lat="51.4395" lon="-0.84306">
    <ele>46.14</ele>
   </trkpt>
   <trkpt lat="51.43916" lon="-0.84245">
    <ele>49.46</ele>
   </trkpt>
   <trkpt lat="51.43889" lon="-0.84206">
    <ele>52.59</ele>
   </trkpt>
   <trkpt lat="51.438390000000005" lon="-0.8414200000000001">
    <ele>55.260000000000005</ele>
   </trkpt>
   <trkpt lat="51.43795" lon="-0.84096">
    <ele>56.800000000000004</ele>
   </trkpt>
   <trkpt lat="51.43750000000001" lon="-0.8405900000000001">
    <ele>57.77</ele>
   </trkpt>
   <trkpt lat="51.43704" lon="-0.8403">
    <ele>57.77</ele>
   </trkpt>
   <trkpt lat="51.43659" lon="-0.84008">
    <ele>57.230000000000004</ele>
   </trkpt>
   <trkpt lat="51.436040000000006" lon="-0.83991">
    <ele>56.120000000000005</ele>
   </trkpt>
   <trkpt lat="51.43558" lon="-0.8398100000000001">
    <ele>56.09</ele>
   </trkpt>
   <trkpt lat="51.434990000000006" lon="-0.8397800000000001">
    <ele>57.120000000000005</ele>
   </trkpt>
   <trkpt lat="51.434760000000004" lon="-0.83979">
    <ele>57.650000000000006</ele>
   </trkpt>
   <trkpt lat="51.434230000050235" lon="-0.8398850011000478">
    <ele>59.07</ele>
   </trkpt>
   <trkpt lat="51.4337" lon="-0.8399800000000001">
    <ele>61.64000000000001</ele>
   </trkpt>
   <trkpt lat="51.433150000000005" lon="-0.84006">
    <ele>62.65000000000001</ele>
   </trkpt>
   <trkpt lat="51.43265999974939" lon="-0.8400599999999999">
    <ele>63.230000000000004</ele>
   </trkpt>
   <trkpt lat="51.432170000000006" lon="-0.84006">
    <ele>61.21000000000001</ele>
   </trkpt>
   <trkpt lat="51.43169500010964" lon="-0.8399749991303832">
    <ele>59.050000000000004</ele>
   </trkpt>
   <trkpt lat="51.43122" lon="-0.83989">
    <ele>56.78</ele>
   </trkpt>
   <trkpt lat="51.430350000000004" lon="-0.8399300000000001">
    <ele>51.120000000000005</ele>
   </trkpt>
   <trkpt lat="51.42987" lon="-0.8399300000000001">
    <ele>49.720000000000006</ele>
   </trkpt>
   <trkpt lat="51.4294" lon="-0.83991">
    <ele>49.830000000000005</ele>
   </trkpt>
   <trkpt lat="51.42875" lon="-0.8398100000000001">
    <ele>51.58</ele>
   </trkpt>
   <trkpt lat="51.42829500004599" lon="-0.8397149990555867">
    <ele>53.25000000000001</ele>
   </trkpt>
   <trkpt lat="51.42784" lon="-0.83962">
    <ele>54.410000000000004</ele>
   </trkpt>
   <trkpt lat="51.427330000000005" lon="-0.8395400000000001">
    <ele>54.39000000000001</ele>
   </trkpt>
   <trkpt lat="51.42698000000001" lon="-0.8395400000000001">
    <ele>53.67</ele>
   </trkpt>
   <trkpt lat="51.42665" lon="-0.83957">
    <ele>52.04</ele>
   </trkpt>
   <trkpt lat="51.426140000019025" lon="-0.8397000014643726">
    <ele>49.25</ele>
   </trkpt>
   <trkpt lat="51.425630000000005" lon="-0.8398300000000001">
    <ele>47.370000000000005</ele>
   </trkpt>
   <trkpt lat="51.424850000000006" lon="-0.8400700000000001">
    <ele>46.37</ele>
   </trkpt>
   <trkpt lat="51.424530000000004" lon="-0.84013">
    <ele>46.67</ele>
   </trkpt>
   <trkpt lat="51.424290000000006" lon="-0.84023">
    <ele>47.46</ele>
   </trkpt>
   <trkpt lat="51.4239" lon="-0.8405100000000001">
    <ele>48.660000000000004</ele>
   </trkpt>
   <trkpt lat="51.423820000000006" lon="-0.8405300000000001">
    <ele>48.86</ele>
   </trkpt>
   <trkpt lat="51.423750000000005" lon="-0.84045">
    <ele>48.86</ele>
   </trkpt>
   <trkpt lat="51.423680000000004" lon="-0.84045">
    <ele>49.34</ele>
   </trkpt>
   <trkpt lat="51.42362000000001" lon="-0.8404800000000001">
    <ele>49.470000000000006</ele>
   </trkpt>
   <trkpt lat="51.423590000000004" lon="-0.8405100000000001">
    <ele>49.470000000000006</ele>
   </trkpt>
   <trkpt lat="51.42334" lon="-0.8405800000000001">
    <ele>50.260000000000005</ele>
   </trkpt>
   <trkpt lat="51.422880000000006" lon="-0.84052">
    <ele>51.730000000000004</ele>
   </trkpt>
   <trkpt lat="51.422340000000005" lon="-0.84057">
    <ele>53.06</ele>
   </trkpt>
   <trkpt lat="51.42184500014686" lon="-0.8407000013883222">
    <ele>54.09</ele>
   </trkpt>
   <trkpt lat="51.421350000000004" lon="-0.8408300000000001">
    <ele>54.82000000000001</ele>
   </trkpt>
   <trkpt lat="51.421150000000004" lon="-0.8398000000000001">
    <ele>55.38</ele>
   </trkpt>
   <trkpt lat="51.42104000235481" lon="-0.839059998388548">
    <ele>55.690000000000005</ele>
   </trkpt>
   <trkpt lat="51.420930000000006" lon="-0.8383200000000001">
    <ele>56.13</ele>
   </trkpt>
   <trkpt lat="51.42089000000001" lon="-0.8382200000000001">
    <ele>56.13</ele>
   </trkpt>
  </trkseg>
 </trk>
</gpx>
