<?xml version="1.0" encoding="UTF-8"?>
<gpx creator="StravaGPX" version="1.1" xmlns="http://www.topografix.com/GPX/1/1" xmlns:xsi="http://www.w3.org/2001/XMLSchema-instance" xsi:schemaLocation="http://www.topografix.com/GPX/1/1 http://www.topografix.com/GPX/1/1/gpx.xsd">
 <metadata>
  <name>Evening Gravel 3</name>
  <author>
   <name>Andy Gundry</name>
   <link href="https://www.strava.com/athletes/25556211"/>
  </author>
  <copyright author="OpenStreetMap contributors">
   <year>2020</year>
   <license>https://www.openstreetmap.org/copyright</license>
  </copyright>
  <link href="https://www.strava.com/routes/3395736971316329284"/>
 </metadata>
 <trk>
  <name>Evening Gravel 3</name>
  <link href="https://www.strava.com/routes/3395736971316329284"/>
  <type>gravel_biking</type>
  <trkseg>
   <trkpt lat="51.42081" lon="-0.8378500000000001">
    <ele>55.99</ele>
   </trkpt>
   <trkpt lat="51.420820000000006" lon="-0.8380700000000001">
    <ele>56.150000000000006</ele>
   </trkpt>
   <trkpt lat="51.42087" lon="-0.83813">
    <ele>56.150000000000006</ele>
   </trkpt>
   <trkpt lat="51.420930000000006" lon="-0.8383200000000001">
    <ele>56.07</ele>
   </trkpt>
   <trkpt lat="51.42104000230438" lon="-0.8390599980494144">
    <ele>55.77</ele>
   </trkpt>
   <trkpt lat="51.421150000000004" lon="-0.8398000000000001">
    <ele>55.36000000000001</ele>
   </trkpt>
   <trkpt lat="51.421350000000004" lon="-0.8408300000000001">
    <ele>54.85</ele>
   </trkpt>
   <trkpt lat="51.42221000000001" lon="-0.8406">
    <ele>53.11000000000001</ele>
   </trkpt>
   <trkpt lat="51.42221000000001" lon="-0.8407000000000001">
    <ele>53.00000000000001</ele>
   </trkpt>
   <trkpt lat="51.42237" lon="-0.8406600000000001">
    <ele>52.68000000000001</ele>
   </trkpt>
   <trkpt lat="51.422380000000004" lon="-0.8407600000000001">
    <ele>52.68000000000001</ele>
   </trkpt>
   <trkpt lat="51.422450000000005" lon="-0.84077">
    <ele>52.480000000000004</ele>
   </trkpt>
   <trkpt lat="51.422470000000004" lon="-0.84084">
    <ele>52.480000000000004</ele>
   </trkpt>
   <trkpt lat="51.422560000000004" lon="-0.8408500000000001">
    <ele>52.26</ele>
   </trkpt>
   <trkpt lat="51.42293" lon="-0.84077">
    <ele>51.22</ele>
   </trkpt>
   <trkpt lat="51.42315000000001" lon="-0.8407300000000001">
    <ele>50.690000000000005</ele>
   </trkpt>
   <trkpt lat="51.42345" lon="-0.84077">
    <ele>50.080000000000005</ele>
   </trkpt>
   <trkpt lat="51.42362000000001" lon="-0.84108">
    <ele>49.7</ele>
   </trkpt>
   <trkpt lat="51.42372" lon="-0.84101">
    <ele>49.620000000000005</ele>
   </trkpt>
   <trkpt lat="51.42383" lon="-0.8410500000000001">
    <ele>49.35</ele>
   </trkpt>
   <trkpt lat="51.42387" lon="-0.8409300000000001">
    <ele>49.35</ele>
   </trkpt>
   <trkpt lat="51.42398000000001" lon="-0.84072">
    <ele>48.96</ele>
   </trkpt>
   <trkpt lat="51.423930000000006" lon="-0.84064">
    <ele>48.89</ele>
   </trkpt>
   <trkpt lat="51.42409000000001" lon="-0.84038">
    <ele>47.910000000000004</ele>
   </trkpt>
   <trkpt lat="51.424290000000006" lon="-0.84023">
    <ele>47.150000000000006</ele>
   </trkpt>
   <trkpt lat="51.424530000000004" lon="-0.84013">
    <ele>46.790000000000006</ele>
   </trkpt>
   <trkpt lat="51.424850000000006" lon="-0.8400700000000001">
    <ele>46.44</ele>
   </trkpt>
   <trkpt lat="51.425630000000005" lon="-0.8398300000000001">
    <ele>47.470000000000006</ele>
   </trkpt>
   <trkpt lat="51.42614000012475" lon="-0.8397000014374237">
    <ele>49.910000000000004</ele>
   </trkpt>
   <trkpt lat="51.42665" lon="-0.83957">
    <ele>52.59</ele>
   </trkpt>
   <trkpt lat="51.42698000000001" lon="-0.8395400000000001">
    <ele>53.86000000000001</ele>
   </trkpt>
   <trkpt lat="51.427330000000005" lon="-0.8395400000000001">
    <ele>54.37</ele>
   </trkpt>
   <trkpt lat="51.42784" lon="-0.83962">
    <ele>54.43000000000001</ele>
   </trkpt>
   <trkpt lat="51.42829500003079" lon="-0.8397149990524101">
    <ele>53.07000000000001</ele>
   </trkpt>
   <trkpt lat="51.42875" lon="-0.8398100000000001">
    <ele>50.79</ele>
   </trkpt>
   <trkpt lat="51.4294" lon="-0.83991">
    <ele>49.760000000000005</ele>
   </trkpt>
   <trkpt lat="51.42987" lon="-0.8399300000000001">
    <ele>49.970000000000006</ele>
   </trkpt>
   <trkpt lat="51.430350000000004" lon="-0.8399300000000001">
    <ele>51.60000000000001</ele>
   </trkpt>
   <trkpt lat="51.43122" lon="-0.83989">
    <ele>56.89</ele>
   </trkpt>
   <trkpt lat="51.431694999951844" lon="-0.8399749991021461">
    <ele>59.11</ele>
   </trkpt>
   <trkpt lat="51.432170000000006" lon="-0.84006">
    <ele>61.68000000000001</ele>
   </trkpt>
   <trkpt lat="51.43266000025061" lon="-0.8400599999999999">
    <ele>63.2</ele>
   </trkpt>
   <trkpt lat="51.433150000000005" lon="-0.84006">
    <ele>62.730000000000004</ele>
   </trkpt>
   <trkpt lat="51.4337" lon="-0.8399800000000001">
    <ele>61.440000000000005</ele>
   </trkpt>
   <trkpt lat="51.43423000002653" lon="-0.8398850011042928">
    <ele>59.17000000000001</ele>
   </trkpt>
   <trkpt lat="51.434760000000004" lon="-0.83979">
    <ele>57.440000000000005</ele>
   </trkpt>
   <trkpt lat="51.434990000000006" lon="-0.8397800000000001">
    <ele>57.17</ele>
   </trkpt>
   <trkpt lat="51.43558" lon="-0.8398100000000001">
    <ele>56.0</ele>
   </trkpt>
   <trkpt lat="51.436040000000006" lon="-0.83991">
    <ele>56.150000000000006</ele>
   </trkpt>
   <trkpt lat="51.43659" lon="-0.84008">
    <ele>57.28</ele>
   </trkpt>
   <trkpt lat="51.43704" lon="-0.8403">
    <ele>57.75</ele>
   </trkpt>
   <trkpt lat="51.43750000000001" lon="-0.8405900000000001">
    <ele>57.74</ele>
   </trkpt>
   <trkpt lat="51.43795" lon="-0.84096">
    <ele>56.61000000000001</ele>
   </trkpt>
   <trkpt lat="51.438390000000005" lon="-0.8414200000000001">
    <ele>54.92</ele>
   </trkpt>
   <trkpt lat="51.43889" lon="-0.84206">
    <ele>51.370000000000005</ele>
   </trkpt>
   <trkpt lat="51.43916" lon="-0.84245">
    <ele>48.7</ele>
   </trkpt>
   <trkpt lat="51.4395" lon="-0.84306">
    <ele>45.18000000000001</ele>
   </trkpt>
   <trkpt lat="51.43987000252702" lon="-0.8438499933277337">
    <ele>43.120000000000005</ele>
   </trkpt>
   <trkpt lat="51.44024" lon="-0.8446400000000001">
    <ele>41.27</ele>
   </trkpt>
   <trkpt lat="51.44061500156766" lon="-0.8452399951318132">
    <ele>40.660000000000004</ele>
   </trkpt>
   <trkpt lat="51.440990000000006" lon="-0.84584">
    <ele>40.160000000000004</ele>
   </trkpt>
   <trkpt lat="51.441100000000006" lon="-0.84596">
    <ele>40.160000000000004</ele>
   </trkpt>
   <trkpt lat="51.44122" lon="-0.84606">
    <ele>39.970000000000006</ele>
   </trkpt>
   <trkpt lat="51.44176" lon="-0.84616">
    <ele>39.16</ele>
   </trkpt>
   <trkpt lat="51.441880000000005" lon="-0.8455900000000001">
    <ele>38.27</ele>
   </trkpt>
   <trkpt lat="51.442080000000004" lon="-0.84482">
    <ele>38.37</ele>
   </trkpt>
   <trkpt lat="51.4423" lon="-0.8442200000000001">
    <ele>39.05</ele>
   </trkpt>
   <trkpt lat="51.442550000000004" lon="-0.8433200000000001">
    <ele>39.64</ele>
   </trkpt>
   <trkpt lat="51.44261" lon="-0.84289">
    <ele>39.64</ele>
   </trkpt>
   <trkpt lat="51.442665002510424" lon="-0.8421200010875524">
    <ele>40.06</ele>
   </trkpt>
   <trkpt lat="51.44272" lon="-0.84135">
    <ele>40.800000000000004</ele>
   </trkpt>
   <trkpt lat="51.44285000000001" lon="-0.84011">
    <ele>41.35</ele>
   </trkpt>
   <trkpt lat="51.44285000000001" lon="-0.8388800000000001">
    <ele>41.95</ele>
   </trkpt>
   <trkpt lat="51.44292" lon="-0.8384">
    <ele>42.25</ele>
   </trkpt>
   <trkpt lat="51.44301" lon="-0.83796">
    <ele>42.22</ele>
   </trkpt>
   <trkpt lat="51.44327500257326" lon="-0.8371800045689093">
    <ele>41.96</ele>
   </trkpt>
   <trkpt lat="51.443540000000006" lon="-0.8364">
    <ele>41.72</ele>
   </trkpt>
   <trkpt lat="51.44389" lon="-0.83572">
    <ele>41.46</ele>
   </trkpt>
   <trkpt lat="51.44417000248154" lon="-0.8349600045926571">
    <ele>41.29</ele>
   </trkpt>
   <trkpt lat="51.44445" lon="-0.8342">
    <ele>41.28</ele>
   </trkpt>
   <trkpt lat="51.444635007070474" lon="-0.8329100052789772">
    <ele>41.010000000000005</ele>
   </trkpt>
   <trkpt lat="51.44482000000001" lon="-0.83162">
    <ele>41.28</ele>
   </trkpt>
   <trkpt lat="51.44496" lon="-0.8304">
    <ele>41.910000000000004</ele>
   </trkpt>
   <trkpt lat="51.445140029552654" lon="-0.8290820207932049">
    <ele>42.35</ele>
   </trkpt>
   <trkpt lat="51.445320044328426" lon="-0.8277640311947462">
    <ele>42.11</ele>
   </trkpt>
   <trkpt lat="51.44550004432711" lon="-0.8264460312053287">
    <ele>42.18</ele>
   </trkpt>
   <trkpt lat="51.445680029548456" lon="-0.825128020825656">
    <ele>42.84</ele>
   </trkpt>
   <trkpt lat="51.44586" lon="-0.82381">
    <ele>43.18</ele>
   </trkpt>
   <trkpt lat="51.44599" lon="-0.8235000000000001">
    <ele>43.18</ele>
   </trkpt>
   <trkpt lat="51.44638500431634" lon="-0.8224950086417736">
    <ele>44.13</ele>
   </trkpt>
   <trkpt lat="51.446780000000004" lon="-0.82149">
    <ele>45.65</ele>
   </trkpt>
   <trkpt lat="51.44711" lon="-0.8216600000000001">
    <ele>47.910000000000004</ele>
   </trkpt>
   <trkpt lat="51.44693" lon="-0.8213">
    <ele>48.99</ele>
   </trkpt>
   <trkpt lat="51.446920000000006" lon="-0.8212800000000001">
    <ele>49.080000000000005</ele>
   </trkpt>
   <trkpt lat="51.44771125988778" lon="-0.8218561800990135">
    <ele>46.55</ele>
   </trkpt>
   <trkpt lat="51.44850251695141" lon="-0.822432380167792">
    <ele>41.870000000000005</ele>
   </trkpt>
   <trkpt lat="51.44929377119074" lon="-0.8230086002075223">
    <ele>40.050000000000004</ele>
   </trkpt>
   <trkpt lat="51.450085022605556" lon="-0.8235848402193915">
    <ele>39.75</ele>
   </trkpt>
   <trkpt lat="51.45087627119573" lon="-0.8241611002045862">
    <ele>39.31</ele>
   </trkpt>
   <trkpt lat="51.45166751696106" lon="-0.8247373801642935">
    <ele>39.11000000000001</ele>
   </trkpt>
   <trkpt lat="51.45245875990137" lon="-0.8253136800997004">
    <ele>39.96</ele>
   </trkpt>
   <trkpt lat="51.453250000000004" lon="-0.82589">
    <ele>42.050000000000004</ele>
   </trkpt>
   <trkpt lat="51.453520000000005" lon="-0.82601">
    <ele>43.10000000000001</ele>
   </trkpt>
   <trkpt lat="51.45369" lon="-0.82606">
    <ele>43.72</ele>
   </trkpt>
   <trkpt lat="51.454080000000005" lon="-0.8260900000000001">
    <ele>44.82000000000001</ele>
   </trkpt>
   <trkpt lat="51.45459" lon="-0.8261700000000001">
    <ele>46.18000000000001</ele>
   </trkpt>
   <trkpt lat="51.45483" lon="-0.82625">
    <ele>47.1</ele>
   </trkpt>
   <trkpt lat="51.455090000000006" lon="-0.8264">
    <ele>47.46</ele>
   </trkpt>
   <trkpt lat="51.45548" lon="-0.82667">
    <ele>48.040000000000006</ele>
   </trkpt>
   <trkpt lat="51.45573" lon="-0.8267800000000001">
    <ele>48.21</ele>
   </trkpt>
   <trkpt lat="51.456010000000006" lon="-0.8268800000000001">
    <ele>48.13</ele>
   </trkpt>
   <trkpt lat="51.456775000453206" lon="-0.827067490573852">
    <ele>48.080000000000005</ele>
   </trkpt>
   <trkpt lat="51.45754000060738" lon="-0.8272549874323105">
    <ele>47.82</ele>
   </trkpt>
   <trkpt lat="51.45830500046254" lon="-0.8274424905757559">
    <ele>47.56</ele>
   </trkpt>
   <trkpt lat="51.459070000000004" lon="-0.8276300000000001">
    <ele>47.760000000000005</ele>
   </trkpt>
   <trkpt lat="51.45913719256496" lon="-0.8262342980384098">
    <ele>46.540000000000006</ele>
   </trkpt>
   <trkpt lat="51.459204368560755" lon="-0.8248385919679011">
    <ele>46.44</ele>
   </trkpt>
   <trkpt lat="51.4592715279873" lon="-0.8234428817894656">
    <ele>45.8</ele>
   </trkpt>
   <trkpt lat="51.45933867084451" lon="-0.8220471675040945">
    <ele>44.51</ele>
   </trkpt>
   <trkpt lat="51.45940579713228" lon="-0.8206514491127793">
    <ele>44.13</ele>
   </trkpt>
   <trkpt lat="51.45947290685056" lon="-0.8192557266165116">
    <ele>43.84</ele>
   </trkpt>
   <trkpt lat="51.459540000000004" lon="-0.81786">
    <ele>43.03000000000001</ele>
   </trkpt>
   <trkpt lat="51.46034500000494" lon="-0.8178350013229597">
    <ele>41.580000000000005</ele>
   </trkpt>
   <trkpt lat="51.46115000000457" lon="-0.817810001764047">
    <ele>41.78</ele>
   </trkpt>
   <trkpt lat="51.46195499999888" lon="-0.817785001323205">
    <ele>43.14</ele>
   </trkpt>
   <trkpt lat="51.46276" lon="-0.81776">
    <ele>44.06</ele>
   </trkpt>
   <trkpt lat="51.46346250000875" lon="-0.8177924984988613">
    <ele>43.38</ele>
   </trkpt>
   <trkpt lat="51.46416500000851" lon="-0.8178249979982984">
    <ele>41.74</ele>
   </trkpt>
   <trkpt lat="51.46486749999931" lon="-0.8178574984983678">
    <ele>40.410000000000004</ele>
   </trkpt>
   <trkpt lat="51.46557000000001" lon="-0.8178900000000001">
    <ele>38.75</ele>
   </trkpt>
   <trkpt lat="51.46562" lon="-0.8179500000000001">
    <ele>38.75</ele>
   </trkpt>
   <trkpt lat="51.46569" lon="-0.81813">
    <ele>38.31</ele>
   </trkpt>
   <trkpt lat="51.465680000000006" lon="-0.81837">
    <ele>38.31</ele>
   </trkpt>
   <trkpt lat="51.465710020495926" lon="-0.8196374974797506">
    <ele>38.580000000000005</ele>
   </trkpt>
   <trkpt lat="51.46574002732762" lon="-0.8209049966268834">
    <ele>39.510000000000005</ele>
   </trkpt>
   <trkpt lat="51.46577002049503" lon="-0.8221724974406431">
    <ele>41.57</ele>
   </trkpt>
   <trkpt lat="51.4658" lon="-0.8234400000000001">
    <ele>41.550000000000004</ele>
   </trkpt>
   <trkpt lat="51.465790000000005" lon="-0.8240500000000001">
    <ele>40.760000000000005</ele>
   </trkpt>
   <trkpt lat="51.465770000000006" lon="-0.8242700000000001">
    <ele>40.6</ele>
   </trkpt>
   <trkpt lat="51.465650000000004" lon="-0.8250000000000001">
    <ele>40.34</ele>
   </trkpt>
   <trkpt lat="51.46540001230977" lon="-0.8262033465479619">
    <ele>42.31</ele>
   </trkpt>
   <trkpt lat="51.465150012303575" lon="-0.82740667991088">
    <ele>44.01</ele>
   </trkpt>
   <trkpt lat="51.46490000000001" lon="-0.8286100000000001">
    <ele>44.36</ele>
   </trkpt>
   <trkpt lat="51.465540000000004" lon="-0.8289300000000001">
    <ele>41.06</ele>
   </trkpt>
   <trkpt lat="51.465790000000005" lon="-0.8290000000000001">
    <ele>40.25</ele>
   </trkpt>
   <trkpt lat="51.46594" lon="-0.8289300000000001">
    <ele>40.0</ele>
   </trkpt>
   <trkpt lat="51.46637000107729" lon="-0.828445004483667">
    <ele>38.78</ele>
   </trkpt>
   <trkpt lat="51.466800000000006" lon="-0.82796">
    <ele>38.36000000000001</ele>
   </trkpt>
   <trkpt lat="51.467474008520746" lon="-0.8272520418395204">
    <ele>37.88</ele>
   </trkpt>
   <trkpt lat="51.46814801277849" lon="-0.8265440627632544">
    <ele>36.43000000000001</ele>
   </trkpt>
   <trkpt lat="51.46882201277304" lon="-0.8258360627702114">
    <ele>35.980000000000004</ele>
   </trkpt>
   <trkpt lat="51.46949600850416" lon="-0.825128041859401">
    <ele>36.06</ele>
   </trkpt>
   <trkpt lat="51.47017" lon="-0.82442">
    <ele>36.56</ele>
   </trkpt>
   <trkpt lat="51.47081500252135" lon="-0.8236450109961119">
    <ele>37.38</ele>
   </trkpt>
   <trkpt lat="51.47146000000001" lon="-0.8228700000000001">
    <ele>37.34</ele>
   </trkpt>
   <trkpt lat="51.471855003059545" lon="-0.8237149927333665">
    <ele>36.57000000000001</ele>
   </trkpt>
   <trkpt lat="51.47225" lon="-0.8245600000000001">
    <ele>36.480000000000004</ele>
   </trkpt>
   <trkpt lat="51.472150000000006" lon="-0.82491">
    <ele>36.45</ele>
   </trkpt>
   <trkpt lat="51.47216001279731" lon="-0.8261366661175451">
    <ele>36.13</ele>
   </trkpt>
   <trkpt lat="51.47217001279722" lon="-0.8273633327732028">
    <ele>36.160000000000004</ele>
   </trkpt>
   <trkpt lat="51.47218" lon="-0.82859">
    <ele>36.37</ele>
   </trkpt>
   <trkpt lat="51.4722500102965" lon="-0.8296899967122443">
    <ele>36.38</ele>
   </trkpt>
   <trkpt lat="51.47232001030211" lon="-0.8307899968004113">
    <ele>36.43000000000001</ele>
   </trkpt>
   <trkpt lat="51.472390000000004" lon="-0.83189">
    <ele>36.46000000000001</ele>
   </trkpt>
   <trkpt lat="51.472385004251144" lon="-0.8328900003682136">
    <ele>36.42</ele>
   </trkpt>
   <trkpt lat="51.47238" lon="-0.83389">
    <ele>36.51</ele>
   </trkpt>
   <trkpt lat="51.47228500828829" lon="-0.8352850027150193">
    <ele>36.300000000000004</ele>
   </trkpt>
   <trkpt lat="51.472190000000005" lon="-0.8366800000000001">
    <ele>36.49</ele>
   </trkpt>
   <trkpt lat="51.47219000289432" lon="-0.8375049996781648">
    <ele>36.47</ele>
   </trkpt>
   <trkpt lat="51.472190000000005" lon="-0.83833">
    <ele>36.49</ele>
   </trkpt>
   <trkpt lat="51.472897504178114" lon="-0.8389024733610164">
    <ele>36.43000000000001</ele>
   </trkpt>
   <trkpt lat="51.47360500556886" lon="-0.8394749644790784">
    <ele>36.25000000000001</ele>
   </trkpt>
   <trkpt lat="51.47431250417212" lon="-0.8400474733551168">
    <ele>36.42</ele>
   </trkpt>
   <trkpt lat="51.47502" lon="-0.84062">
    <ele>36.230000000000004</ele>
   </trkpt>
   <trkpt lat="51.475327514277616" lon="-0.8416774786531237">
    <ele>36.45</ele>
   </trkpt>
   <trkpt lat="51.47563501904468" lon="-0.8427349715640119">
    <ele>36.35</ele>
   </trkpt>
   <trkpt lat="51.47594251430094" lon="-0.8437924787325732">
    <ele>36.19</ele>
   </trkpt>
   <trkpt lat="51.47625000000001" lon="-0.8448500000000001">
    <ele>36.62</ele>
   </trkpt>
   <trkpt lat="51.47643000528773" lon="-0.8459649956071836">
    <ele>36.09</ele>
   </trkpt>
   <trkpt lat="51.47661" lon="-0.84708">
    <ele>37.12</ele>
   </trkpt>
   <trkpt lat="51.476960000000005" lon="-0.84806">
    <ele>38.42</ele>
   </trkpt>
   <trkpt lat="51.47733" lon="-0.84862">
    <ele>39.99</ele>
   </trkpt>
   <trkpt lat="51.477450000000005" lon="-0.8486400000000001">
    <ele>40.269999999999996</ele>
   </trkpt>
   <trkpt lat="51.47811" lon="-0.84855">
    <ele>39.42</ele>
   </trkpt>
   <trkpt lat="51.47827" lon="-0.84855">
    <ele>39.63</ele>
   </trkpt>
   <trkpt lat="51.47840000000001" lon="-0.8485900000000001">
    <ele>39.88</ele>
   </trkpt>
   <trkpt lat="51.478500000000004" lon="-0.84867">
    <ele>40.21</ele>
   </trkpt>
   <trkpt lat="51.47858" lon="-0.8488000000000001">
    <ele>40.81</ele>
   </trkpt>
   <trkpt lat="51.478660000000005" lon="-0.84906">
    <ele>41.35</ele>
   </trkpt>
   <trkpt lat="51.47880000000001" lon="-0.8493100000000001">
    <ele>42.660000000000004</ele>
   </trkpt>
   <trkpt lat="51.478860000000005" lon="-0.8495">
    <ele>44.26</ele>
   </trkpt>
   <trkpt lat="51.479000000000006" lon="-0.8509000000000001">
    <ele>49.21</ele>
   </trkpt>
   <trkpt lat="51.479020000000006" lon="-0.85128">
    <ele>49.96</ele>
   </trkpt>
   <trkpt lat="51.47905" lon="-0.8513600000000001">
    <ele>49.96</ele>
   </trkpt>
   <trkpt lat="51.479400000000005" lon="-0.8516600000000001">
    <ele>50.49000000000001</ele>
   </trkpt>
   <trkpt lat="51.479510000000005" lon="-0.8518100000000001">
    <ele>50.57</ele>
   </trkpt>
   <trkpt lat="51.47964" lon="-0.85221">
    <ele>50.86</ele>
   </trkpt>
   <trkpt lat="51.4797550029047" lon="-0.853034997995517">
    <ele>51.2</ele>
   </trkpt>
   <trkpt lat="51.479870000000005" lon="-0.8538600000000001">
    <ele>51.370000000000005</ele>
   </trkpt>
   <trkpt lat="51.479910000000004" lon="-0.8539800000000001">
    <ele>51.370000000000005</ele>
   </trkpt>
   <trkpt lat="51.47993" lon="-0.8543000000000001">
    <ele>51.36</ele>
   </trkpt>
   <trkpt lat="51.480030000000006" lon="-0.85509">
    <ele>51.14</ele>
   </trkpt>
   <trkpt lat="51.48070000003213" lon="-0.8551299988258352">
    <ele>50.85000000000001</ele>
   </trkpt>
   <trkpt lat="51.48137000005067" lon="-0.8551699988269207">
    <ele>50.74000000000001</ele>
   </trkpt>
   <trkpt lat="51.482040000000005" lon="-0.85521">
    <ele>50.830000000000005</ele>
   </trkpt>
   <trkpt lat="51.4825500000967" lon="-0.8552000001099455">
    <ele>50.46</ele>
   </trkpt>
   <trkpt lat="51.48306" lon="-0.8551900000000001">
    <ele>49.93</ele>
   </trkpt>
   <trkpt lat="51.48368000000001" lon="-0.85516">
    <ele>47.42</ele>
   </trkpt>
   <trkpt lat="51.48456" lon="-0.85516">
    <ele>44.870000000000005</ele>
   </trkpt>
   <trkpt lat="51.485240000000005" lon="-0.8551300000000001">
    <ele>46.37</ele>
   </trkpt>
   <trkpt lat="51.48588999994948" lon="-0.8551200001433337">
    <ele>46.95</ele>
   </trkpt>
   <trkpt lat="51.486540000000005" lon="-0.85511">
    <ele>46.290000000000006</ele>
   </trkpt>
   <trkpt lat="51.48662" lon="-0.85521">
    <ele>46.12</ele>
   </trkpt>
   <trkpt lat="51.486630000000005" lon="-0.8552200000000001">
    <ele>46.11000000000001</ele>
   </trkpt>
   <trkpt lat="51.486236674571636" lon="-0.8542566500792501">
    <ele>48.220000000000006</ele>
   </trkpt>
   <trkpt lat="51.48584334125141" lon="-0.85329331677826">
    <ele>49.410000000000004</ele>
   </trkpt>
   <trkpt lat="51.48545000000001" lon="-0.85233">
    <ele>49.730000000000004</ele>
   </trkpt>
   <trkpt lat="51.48525000000001" lon="-0.85199">
    <ele>49.5</ele>
   </trkpt>
   <trkpt lat="51.48501" lon="-0.85172">
    <ele>49.03</ele>
   </trkpt>
   <trkpt lat="51.484570000000005" lon="-0.8515900000000001">
    <ele>48.13</ele>
   </trkpt>
   <trkpt lat="51.48453000000001" lon="-0.85116">
    <ele>46.910000000000004</ele>
   </trkpt>
   <trkpt lat="51.48445" lon="-0.85082">
    <ele>46.64</ele>
   </trkpt>
   <trkpt lat="51.4844" lon="-0.8501900000000001">
    <ele>45.7</ele>
   </trkpt>
   <trkpt lat="51.484480000000005" lon="-0.84991">
    <ele>45.34</ele>
   </trkpt>
   <trkpt lat="51.48447" lon="-0.8495">
    <ele>44.39000000000001</ele>
   </trkpt>
   <trkpt lat="51.484880000000004" lon="-0.8494700000000001">
    <ele>43.85000000000001</ele>
   </trkpt>
   <trkpt lat="51.485490000000006" lon="-0.8492500000000001">
    <ele>43.59</ele>
   </trkpt>
   <trkpt lat="51.485690000000005" lon="-0.84911">
    <ele>43.04</ele>
   </trkpt>
   <trkpt lat="51.485910000000004" lon="-0.84879">
    <ele>42.89</ele>
   </trkpt>
   <trkpt lat="51.48629333839894" lon="-0.8480166797099108">
    <ele>42.830000000000005</ele>
   </trkpt>
   <trkpt lat="51.48667667171223" lon="-0.847243346417185">
    <ele>43.06</ele>
   </trkpt>
   <trkpt lat="51.48706000000001" lon="-0.8464700000000001">
    <ele>43.58</ele>
   </trkpt>
   <trkpt lat="51.48752500349263" lon="-0.8455650092096835">
    <ele>44.730000000000004</ele>
   </trkpt>
   <trkpt lat="51.48799" lon="-0.8446600000000001">
    <ele>46.35</ele>
   </trkpt>
   <trkpt lat="51.4881" lon="-0.8444200000000001">
    <ele>46.35</ele>
   </trkpt>
   <trkpt lat="51.488200000000006" lon="-0.8439800000000001">
    <ele>47.49</ele>
   </trkpt>
   <trkpt lat="51.48839" lon="-0.84289">
    <ele>49.63000000000001</ele>
   </trkpt>
   <trkpt lat="51.48837" lon="-0.8427600000000001">
    <ele>49.54</ele>
   </trkpt>
   <trkpt lat="51.48836000000001" lon="-0.84274">
    <ele>49.54</ele>
   </trkpt>
   <trkpt lat="51.48819" lon="-0.8424200000000001">
    <ele>49.220000000000006</ele>
   </trkpt>
   <trkpt lat="51.48760000000001" lon="-0.84216">
    <ele>48.49</ele>
   </trkpt>
   <trkpt lat="51.48687500018723" lon="-0.842375003421331">
    <ele>47.88</ele>
   </trkpt>
   <trkpt lat="51.48615" lon="-0.8425900000000001">
    <ele>47.550000000000004</ele>
   </trkpt>
   <trkpt lat="51.485530000000004" lon="-0.8425900000000001">
    <ele>46.910000000000004</ele>
   </trkpt>
   <trkpt lat="51.48471500043886" lon="-0.8428600047829475">
    <ele>44.29</ele>
   </trkpt>
   <trkpt lat="51.483900000000006" lon="-0.84313">
    <ele>39.93</ele>
   </trkpt>
   <trkpt lat="51.483223333688244" lon="-0.8433266724955191">
    <ele>38.75</ele>
   </trkpt>
   <trkpt lat="51.48254666704756" lon="-0.8435233391545311">
    <ele>37.95</ele>
   </trkpt>
   <trkpt lat="51.48187" lon="-0.84372">
    <ele>37.43000000000001</ele>
   </trkpt>
   <trkpt lat="51.481680000000004" lon="-0.84308">
    <ele>37.3</ele>
   </trkpt>
   <trkpt lat="51.481770000000004" lon="-0.8427600000000001">
    <ele>37.27</ele>
   </trkpt>
   <trkpt lat="51.481970000000004" lon="-0.84221">
    <ele>36.86000000000001</ele>
   </trkpt>
   <trkpt lat="51.48237836735254" lon="-0.8409450566394663">
    <ele>37.290000000000006</ele>
   </trkpt>
   <trkpt lat="51.482786721097426" lon="-0.839680090624835">
    <ele>37.28</ele>
   </trkpt>
   <trkpt lat="51.483195061234234" lon="-0.8384151019561237">
    <ele>38.09</ele>
   </trkpt>
   <trkpt lat="51.48360338776252" lon="-0.8371500906333508">
    <ele>38.59</ele>
   </trkpt>
   <trkpt lat="51.484011700681826" lon="-0.835885056656534">
    <ele>39.52</ele>
   </trkpt>
   <trkpt lat="51.48442000000001" lon="-0.83462">
    <ele>40.17</ele>
   </trkpt>
   <trkpt lat="51.484774021249144" lon="-0.8335020347467563">
    <ele>40.410000000000004</ele>
   </trkpt>
   <trkpt lat="51.48512803186939" lon="-0.8323840521347095">
    <ele>40.900000000000006</ele>
   </trkpt>
   <trkpt lat="51.48548203186043" lon="-0.8312660521638913">
    <ele>41.56</ele>
   </trkpt>
   <trkpt lat="51.48583602122199" lon="-0.8301480348343332">
    <ele>41.72</ele>
   </trkpt>
   <trkpt lat="51.48619000000001" lon="-0.82903">
    <ele>41.71</ele>
   </trkpt>
   <trkpt lat="51.4865650055725" lon="-0.8278850094225744">
    <ele>43.4</ele>
   </trkpt>
   <trkpt lat="51.486940000000004" lon="-0.82674">
    <ele>44.50000000000001</ele>
   </trkpt>
   <trkpt lat="51.48715000000001" lon="-0.82618">
    <ele>45.07000000000001</ele>
   </trkpt>
   <trkpt lat="51.48736" lon="-0.8255300000000001">
    <ele>45.410000000000004</ele>
   </trkpt>
   <trkpt lat="51.48722000000001" lon="-0.8252">
    <ele>43.92</ele>
   </trkpt>
   <trkpt lat="51.487140000000004" lon="-0.8248200000000001">
    <ele>43.02</ele>
   </trkpt>
   <trkpt lat="51.487045002381386" lon="-0.8240699983557978">
    <ele>42.24000000000001</ele>
   </trkpt>
   <trkpt lat="51.48695000000001" lon="-0.82332">
    <ele>41.63</ele>
   </trkpt>
   <trkpt lat="51.48684" lon="-0.82291">
    <ele>41.5</ele>
   </trkpt>
   <trkpt lat="51.486560000000004" lon="-0.82232">
    <ele>41.46</ele>
   </trkpt>
   <trkpt lat="51.486250000000005" lon="-0.82171">
    <ele>40.78</ele>
   </trkpt>
   <trkpt lat="51.486050000000006" lon="-0.82123">
    <ele>40.540000000000006</ele>
   </trkpt>
   <trkpt lat="51.48595" lon="-0.8209500000000001">
    <ele>40.52</ele>
   </trkpt>
   <trkpt lat="51.485890000000005" lon="-0.8206100000000001">
    <ele>40.52</ele>
   </trkpt>
   <trkpt lat="51.48588" lon="-0.8193400000000001">
    <ele>39.910000000000004</ele>
   </trkpt>
   <trkpt lat="51.485785004245294" lon="-0.8183399978462081">
    <ele>39.870000000000005</ele>
   </trkpt>
   <trkpt lat="51.485690000000005" lon="-0.8173400000000001">
    <ele>40.34</ele>
   </trkpt>
   <trkpt lat="51.4857" lon="-0.81671">
    <ele>40.25</ele>
   </trkpt>
   <trkpt lat="51.485765003073126" lon="-0.8158600011977644">
    <ele>40.230000000000004</ele>
   </trkpt>
   <trkpt lat="51.48583000000001" lon="-0.81501">
    <ele>40.290000000000006</ele>
   </trkpt>
   <trkpt lat="51.48583000000001" lon="-0.81447">
    <ele>40.35</ele>
   </trkpt>
   <trkpt lat="51.48577" lon="-0.81371">
    <ele>40.470000000000006</ele>
   </trkpt>
   <trkpt lat="51.48563000000001" lon="-0.8126500000000001">
    <ele>40.32</ele>
   </trkpt>
   <trkpt lat="51.48566500577278" lon="-0.8114850008317677">
    <ele>40.03</ele>
   </trkpt>
   <trkpt lat="51.4857" lon="-0.81032">
    <ele>39.2</ele>
   </trkpt>
   <trkpt lat="51.48579" lon="-0.8097300000000001">
    <ele>38.86000000000001</ele>
   </trkpt>
   <trkpt lat="51.485780000000005" lon="-0.8095800000000001">
    <ele>38.580000000000005</ele>
   </trkpt>
   <trkpt lat="51.48575" lon="-0.8094600000000001">
    <ele>38.35</ele>
   </trkpt>
   <trkpt lat="51.48536000000001" lon="-0.80864">
    <ele>37.71</ele>
   </trkpt>
   <trkpt lat="51.485240000000005" lon="-0.80832">
    <ele>37.59</ele>
   </trkpt>
   <trkpt lat="51.4851" lon="-0.8077000000000001">
    <ele>37.64</ele>
   </trkpt>
   <trkpt lat="51.48505" lon="-0.80698">
    <ele>37.7</ele>
   </trkpt>
   <trkpt lat="51.485170000000004" lon="-0.80696">
    <ele>37.87</ele>
   </trkpt>
   <trkpt lat="51.48521" lon="-0.8069000000000001">
    <ele>37.87</ele>
   </trkpt>
   <trkpt lat="51.485310000000005" lon="-0.80649">
    <ele>37.910000000000004</ele>
   </trkpt>
   <trkpt lat="51.485440000000004" lon="-0.8063400000000001">
    <ele>38.05</ele>
   </trkpt>
   <trkpt lat="51.48572000000001" lon="-0.8061100000000001">
    <ele>38.330000000000005</ele>
   </trkpt>
   <trkpt lat="51.48619000000001" lon="-0.80588">
    <ele>38.71</ele>
   </trkpt>
   <trkpt lat="51.48693" lon="-0.80564">
    <ele>39.470000000000006</ele>
   </trkpt>
   <trkpt lat="51.487170000000006" lon="-0.8054600000000001">
    <ele>40.050000000000004</ele>
   </trkpt>
   <trkpt lat="51.48749" lon="-0.80513">
    <ele>40.410000000000004</ele>
   </trkpt>
   <trkpt lat="51.48753000000001" lon="-0.8050100000000001">
    <ele>40.480000000000004</ele>
   </trkpt>
   <trkpt lat="51.48738" lon="-0.80474">
    <ele>39.74</ele>
   </trkpt>
   <trkpt lat="51.48709" lon="-0.8040700000000001">
    <ele>38.85</ele>
   </trkpt>
   <trkpt lat="51.48691" lon="-0.80376">
    <ele>38.57</ele>
   </trkpt>
   <trkpt lat="51.48675" lon="-0.8035100000000001">
    <ele>38.49</ele>
   </trkpt>
   <trkpt lat="51.48664" lon="-0.8032400000000001">
    <ele>38.53</ele>
   </trkpt>
   <trkpt lat="51.48653" lon="-0.8028500000000001">
    <ele>38.690000000000005</ele>
   </trkpt>
   <trkpt lat="51.48619000000001" lon="-0.80215">
    <ele>38.86000000000001</ele>
   </trkpt>
   <trkpt lat="51.486000000000004" lon="-0.8016300000000001">
    <ele>38.55</ele>
   </trkpt>
   <trkpt lat="51.48597" lon="-0.80142">
    <ele>38.55</ele>
   </trkpt>
   <trkpt lat="51.48601000000001" lon="-0.80069">
    <ele>38.46</ele>
   </trkpt>
   <trkpt lat="51.48593" lon="-0.8002400000000001">
    <ele>38.32</ele>
   </trkpt>
   <trkpt lat="51.48575" lon="-0.7998000000000001">
    <ele>38.12</ele>
   </trkpt>
   <trkpt lat="51.48563000000001" lon="-0.79959">
    <ele>37.910000000000004</ele>
   </trkpt>
   <trkpt lat="51.48534" lon="-0.79922">
    <ele>37.71</ele>
   </trkpt>
   <trkpt lat="51.48500000000001" lon="-0.79883">
    <ele>37.45</ele>
   </trkpt>
   <trkpt lat="51.48487" lon="-0.79864">
    <ele>37.3</ele>
   </trkpt>
   <trkpt lat="51.484190000000005" lon="-0.79803">
    <ele>36.93000000000001</ele>
   </trkpt>
   <trkpt lat="51.4836" lon="-0.79747">
    <ele>36.61</ele>
   </trkpt>
   <trkpt lat="51.48339000000001" lon="-0.79732">
    <ele>36.660000000000004</ele>
   </trkpt>
   <trkpt lat="51.48283000000001" lon="-0.79717">
    <ele>36.660000000000004</ele>
   </trkpt>
   <trkpt lat="51.482440000000004" lon="-0.79703">
    <ele>37.24</ele>
   </trkpt>
   <trkpt lat="51.482680015960916" lon="-0.7956600144229985">
    <ele>37.4</ele>
   </trkpt>
   <trkpt lat="51.48292001596051" lon="-0.7942900144256181">
    <ele>37.64</ele>
   </trkpt>
   <trkpt lat="51.483160000000005" lon="-0.7929200000000001">
    <ele>37.76</ele>
   </trkpt>
   <trkpt lat="51.482620000000004" lon="-0.79261">
    <ele>37.38</ele>
   </trkpt>
   <trkpt lat="51.48210500158162" lon="-0.7919849928456972">
    <ele>38.2</ele>
   </trkpt>
   <trkpt lat="51.481590000000004" lon="-0.7913600000000001">
    <ele>41.02</ele>
   </trkpt>
   <trkpt lat="51.481105002079076" lon="-0.7906599925493238">
    <ele>43.24</ele>
   </trkpt>
   <trkpt lat="51.48062" lon="-0.7899600000000001">
    <ele>45.11000000000001</ele>
   </trkpt>
   <trkpt lat="51.480320000000006" lon="-0.79032">
    <ele>45.01</ele>
   </trkpt>
   <trkpt lat="51.47989667091803" lon="-0.7910266797777764">
    <ele>45.34</ele>
   </trkpt>
   <trkpt lat="51.47947333758908" lon="-0.7917333464369275">
    <ele>44.550000000000004</ele>
   </trkpt>
   <trkpt lat="51.47905" lon="-0.79244">
    <ele>43.61</ele>
   </trkpt>
   <trkpt lat="51.478745003574744" lon="-0.7933550060747175">
    <ele>41.5</ele>
   </trkpt>
   <trkpt lat="51.478440000000006" lon="-0.79427">
    <ele>40.1</ele>
   </trkpt>
   <trkpt lat="51.47795333873425" lon="-0.7950666836619871">
    <ele>38.080000000000005</ele>
   </trkpt>
   <trkpt lat="51.477466672070776" lon="-0.7958633503231627">
    <ele>37.51</ele>
   </trkpt>
   <trkpt lat="51.476980000000005" lon="-0.79666">
    <ele>37.59</ele>
   </trkpt>
   <trkpt lat="51.47658667369045" lon="-0.7975700157378969">
    <ele>38.290000000000006</ele>
   </trkpt>
   <trkpt lat="51.47619334033814" lon="-0.7984800157815654">
    <ele>39.03</ele>
   </trkpt>
   <trkpt lat="51.47580000000001" lon="-0.79939">
    <ele>38.55</ele>
   </trkpt>
   <trkpt lat="51.475210000000004" lon="-0.80042">
    <ele>37.37</ele>
   </trkpt>
   <trkpt lat="51.47491500385239" lon="-0.8013800064250562">
    <ele>36.77</ele>
   </trkpt>
   <trkpt lat="51.47462" lon="-0.80234">
    <ele>37.3</ele>
   </trkpt>
   <trkpt lat="51.47489" lon="-0.80247">
    <ele>37.6</ele>
   </trkpt>
   <trkpt lat="51.474880000000006" lon="-0.80266">
    <ele>37.87</ele>
   </trkpt>
   <trkpt lat="51.47475000000001" lon="-0.8027400000000001">
    <ele>37.89</ele>
   </trkpt>
   <trkpt lat="51.47451" lon="-0.80295">
    <ele>37.73</ele>
   </trkpt>
   <trkpt lat="51.474160000000005" lon="-0.80322">
    <ele>37.63</ele>
   </trkpt>
   <trkpt lat="51.47386" lon="-0.80361">
    <ele>37.71</ele>
   </trkpt>
   <trkpt lat="51.47345500337999" lon="-0.8045000078757596">
    <ele>36.84</ele>
   </trkpt>
   <trkpt lat="51.47305000000001" lon="-0.80539">
    <ele>36.59</ele>
   </trkpt>
   <trkpt lat="51.47276000250895" lon="-0.8061600049275307">
    <ele>36.730000000000004</ele>
   </trkpt>
   <trkpt lat="51.47247" lon="-0.80693">
    <ele>36.94</ele>
   </trkpt>
   <trkpt lat="51.47209000266994" lon="-0.8077100063271925">
    <ele>36.800000000000004</ele>
   </trkpt>
   <trkpt lat="51.47171" lon="-0.80849">
    <ele>36.74</ele>
   </trkpt>
   <trkpt lat="51.47107000247559" lon="-0.8092600108567021">
    <ele>36.50000000000001</ele>
   </trkpt>
   <trkpt lat="51.47043000000001" lon="-0.81003">
    <ele>36.94</ele>
   </trkpt>
   <trkpt lat="51.470330000000004" lon="-0.8102400000000001">
    <ele>37.12</ele>
   </trkpt>
   <trkpt lat="51.47019" lon="-0.81125">
    <ele>38.35</ele>
   </trkpt>
   <trkpt lat="51.46992" lon="-0.811">
    <ele>37.790000000000006</ele>
   </trkpt>
   <trkpt lat="51.469770000000004" lon="-0.81091">
    <ele>37.790000000000006</ele>
   </trkpt>
   <trkpt lat="51.469530000000006" lon="-0.81091">
    <ele>37.55</ele>
   </trkpt>
   <trkpt lat="51.46934" lon="-0.811">
    <ele>37.480000000000004</ele>
   </trkpt>
   <trkpt lat="51.46923" lon="-0.8110700000000001">
    <ele>37.38</ele>
   </trkpt>
   <trkpt lat="51.468630000000005" lon="-0.81176">
    <ele>36.61</ele>
   </trkpt>
   <trkpt lat="51.468450000000004" lon="-0.81188">
    <ele>36.61</ele>
   </trkpt>
   <trkpt lat="51.46759" lon="-0.8122900000000001">
    <ele>36.230000000000004</ele>
   </trkpt>
   <trkpt lat="51.46680000015802" lon="-0.8125200040015755">
    <ele>36.39000000000001</ele>
   </trkpt>
   <trkpt lat="51.466010000000004" lon="-0.8127500000000001">
    <ele>37.63</ele>
   </trkpt>
   <trkpt lat="51.46607" lon="-0.8120700000000001">
    <ele>37.64</ele>
   </trkpt>
   <trkpt lat="51.46605" lon="-0.81157">
    <ele>37.6</ele>
   </trkpt>
   <trkpt lat="51.465990000000005" lon="-0.81132">
    <ele>37.7</ele>
   </trkpt>
   <trkpt lat="51.46571" lon="-0.8107800000000001">
    <ele>37.98</ele>
   </trkpt>
   <trkpt lat="51.46547" lon="-0.81039">
    <ele>38.48</ele>
   </trkpt>
   <trkpt lat="51.46519000000001" lon="-0.8097300000000001">
    <ele>39.330000000000005</ele>
   </trkpt>
   <trkpt lat="51.465030000000006" lon="-0.8099500000000001">
    <ele>39.260000000000005</ele>
   </trkpt>
   <trkpt lat="51.46490000000001" lon="-0.8101700000000001">
    <ele>39.27</ele>
   </trkpt>
   <trkpt lat="51.464780000000005" lon="-0.8103">
    <ele>39.32</ele>
   </trkpt>
   <trkpt lat="51.464650000000006" lon="-0.81039">
    <ele>39.46</ele>
   </trkpt>
   <trkpt lat="51.46411000016274" lon="-0.8105400017563785">
    <ele>40.830000000000005</ele>
   </trkpt>
   <trkpt lat="51.463570000000004" lon="-0.81069">
    <ele>41.45</ele>
   </trkpt>
   <trkpt lat="51.463100000000004" lon="-0.8107800000000001">
    <ele>41.59</ele>
   </trkpt>
   <trkpt lat="51.462410000000006" lon="-0.81115">
    <ele>42.18</ele>
   </trkpt>
   <trkpt lat="51.462160000000004" lon="-0.8112">
    <ele>42.830000000000005</ele>
   </trkpt>
   <trkpt lat="51.461980000000004" lon="-0.8111700000000001">
    <ele>42.830000000000005</ele>
   </trkpt>
   <trkpt lat="51.46153" lon="-0.81115">
    <ele>42.97</ele>
   </trkpt>
   <trkpt lat="51.461110000000005" lon="-0.81115">
    <ele>43.10000000000001</ele>
   </trkpt>
   <trkpt lat="51.46065" lon="-0.81127">
    <ele>43.25</ele>
   </trkpt>
   <trkpt lat="51.45984000000001" lon="-0.8114100000000001">
    <ele>43.910000000000004</ele>
   </trkpt>
   <trkpt lat="51.459830000000004" lon="-0.8114100000000001">
    <ele>43.92</ele>
   </trkpt>
   <trkpt lat="51.45976675213715" lon="-0.8127616872993456">
    <ele>43.190000000000005</ele>
   </trkpt>
   <trkpt lat="51.459703488733865" lon="-0.814113370851972">
    <ele>43.120000000000005</ele>
   </trkpt>
   <trkpt lat="51.45964020979023" lon="-0.8154650506569777">
    <ele>42.95</ele>
   </trkpt>
   <trkpt lat="51.459576915306336" lon="-0.8168167267134612">
    <ele>42.980000000000004</ele>
   </trkpt>
   <trkpt lat="51.45951360528224" lon="-0.8181683990205207">
    <ele>43.22</ele>
   </trkpt>
   <trkpt lat="51.459450279718034" lon="-0.8195200675772548">
    <ele>43.9</ele>
   </trkpt>
   <trkpt lat="51.4593869386138" lon="-0.8208717323827619">
    <ele>44.13</ele>
   </trkpt>
   <trkpt lat="51.4593235819696" lon="-0.8222233934361408">
    <ele>44.84</ele>
   </trkpt>
   <trkpt lat="51.45926020978552" lon="-0.8235750507364896">
    <ele>45.8</ele>
   </trkpt>
   <trkpt lat="51.45919682206165" lon="-0.824926704282907">
    <ele>46.44</ele>
   </trkpt>
   <trkpt lat="51.45913341879805" lon="-0.8262783540744918">
    <ele>46.540000000000006</ele>
   </trkpt>
   <trkpt lat="51.459070000000004" lon="-0.8276300000000001">
    <ele>47.760000000000005</ele>
   </trkpt>
   <trkpt lat="51.45830500044391" lon="-0.8274424905711874">
    <ele>47.56</ele>
   </trkpt>
   <trkpt lat="51.45754000058874" lon="-0.827254987427742">
    <ele>47.82</ele>
   </trkpt>
   <trkpt lat="51.45677500043457" lon="-0.8270674905692833">
    <ele>48.080000000000005</ele>
   </trkpt>
   <trkpt lat="51.456010000000006" lon="-0.8268800000000001">
    <ele>48.13</ele>
   </trkpt>
   <trkpt lat="51.45573" lon="-0.8267800000000001">
    <ele>48.21</ele>
   </trkpt>
   <trkpt lat="51.45548" lon="-0.82667">
    <ele>48.040000000000006</ele>
   </trkpt>
   <trkpt lat="51.455090000000006" lon="-0.8264">
    <ele>47.46</ele>
   </trkpt>
   <trkpt lat="51.45483" lon="-0.82625">
    <ele>47.1</ele>
   </trkpt>
   <trkpt lat="51.45459" lon="-0.8261700000000001">
    <ele>46.18000000000001</ele>
   </trkpt>
   <trkpt lat="51.454080000000005" lon="-0.8260900000000001">
    <ele>44.82000000000001</ele>
   </trkpt>
   <trkpt lat="51.45369" lon="-0.82606">
    <ele>43.72</ele>
   </trkpt>
   <trkpt lat="51.453520000000005" lon="-0.82601">
    <ele>43.10000000000001</ele>
   </trkpt>
   <trkpt lat="51.453250000000004" lon="-0.82589">
    <ele>41.78</ele>
   </trkpt>
   <trkpt lat="51.453" lon="-0.8257200000000001">
    <ele>41.27</ele>
   </trkpt>
   <trkpt lat="51.452980000000004" lon="-0.82603">
    <ele>40.32</ele>
   </trkpt>
   <trkpt lat="51.45292673167279" lon="-0.8274122351345686">
    <ele>38.61000000000001</ele>
   </trkpt>
   <trkpt lat="51.45287344709392" lon="-0.828794467042972">
    <ele>37.86000000000001</ele>
   </trkpt>
   <trkpt lat="51.45282014626342" lon="-0.8301766957242394">
    <ele>37.21</ele>
   </trkpt>
   <trkpt lat="51.452766829181385" lon="-0.8315589211774005">
    <ele>37.27</ele>
   </trkpt>
   <trkpt lat="51.45271349584788" lon="-0.8329411434014847">
    <ele>37.07000000000001</ele>
   </trkpt>
   <trkpt lat="51.452660146262964" lon="-0.834323362395522">
    <ele>37.03</ele>
   </trkpt>
   <trkpt lat="51.45260678042671" lon="-0.8357055781585417">
    <ele>37.1</ele>
   </trkpt>
   <trkpt lat="51.452553398339205" lon="-0.8370877906895737">
    <ele>37.35</ele>
   </trkpt>
   <trkpt lat="51.45250000000001" lon="-0.83847">
    <ele>37.660000000000004</ele>
   </trkpt>
   <trkpt lat="51.452450000000006" lon="-0.8387300000000001">
    <ele>37.84</ele>
   </trkpt>
   <trkpt lat="51.45223500227603" lon="-0.8394800039379485">
    <ele>37.660000000000004</ele>
   </trkpt>
   <trkpt lat="51.452020000000005" lon="-0.84023">
    <ele>37.86000000000001</ele>
   </trkpt>
   <trkpt lat="51.45188" lon="-0.8406600000000001">
    <ele>38.290000000000006</ele>
   </trkpt>
   <trkpt lat="51.45154" lon="-0.8400900000000001">
    <ele>38.540000000000006</ele>
   </trkpt>
   <trkpt lat="51.451170000000005" lon="-0.8395">
    <ele>38.74</ele>
   </trkpt>
   <trkpt lat="51.45071" lon="-0.83918">
    <ele>39.0</ele>
   </trkpt>
   <trkpt lat="51.45015" lon="-0.8385900000000001">
    <ele>39.06</ele>
   </trkpt>
   <trkpt lat="51.44953" lon="-0.83777">
    <ele>39.16</ele>
   </trkpt>
   <trkpt lat="51.449140001261554" lon="-0.8372299954169765">
    <ele>38.95</ele>
   </trkpt>
   <trkpt lat="51.448750000000004" lon="-0.83669">
    <ele>38.95</ele>
   </trkpt>
   <trkpt lat="51.448170000000005" lon="-0.83594">
    <ele>39.28</ele>
   </trkpt>
   <trkpt lat="51.44776" lon="-0.8355">
    <ele>39.470000000000006</ele>
   </trkpt>
   <trkpt lat="51.44740000328759" lon="-0.8363750068228945">
    <ele>39.260000000000005</ele>
   </trkpt>
   <trkpt lat="51.44704" lon="-0.83725">
    <ele>39.28</ele>
   </trkpt>
   <trkpt lat="51.44675" lon="-0.8381000000000001">
    <ele>39.300000000000004</ele>
   </trkpt>
   <trkpt lat="51.446720000000006" lon="-0.8382700000000001">
    <ele>39.41</ele>
   </trkpt>
   <trkpt lat="51.44661000000001" lon="-0.8385800000000001">
    <ele>39.49</ele>
   </trkpt>
   <trkpt lat="51.446140001263984" lon="-0.8391650062597644">
    <ele>39.7</ele>
   </trkpt>
   <trkpt lat="51.44567000000001" lon="-0.8397500000000001">
    <ele>39.6</ele>
   </trkpt>
   <trkpt lat="51.44503000294979" lon="-0.8405750114918055">
    <ele>39.42</ele>
   </trkpt>
   <trkpt lat="51.444390000000006" lon="-0.8414">
    <ele>39.510000000000005</ele>
   </trkpt>
   <trkpt lat="51.44424000000001" lon="-0.8416100000000001">
    <ele>39.41</ele>
   </trkpt>
   <trkpt lat="51.444050000000004" lon="-0.84196">
    <ele>39.38</ele>
   </trkpt>
   <trkpt lat="51.44375" lon="-0.84257">
    <ele>39.03</ele>
   </trkpt>
   <trkpt lat="51.44362" lon="-0.84272">
    <ele>38.940000000000005</ele>
   </trkpt>
   <trkpt lat="51.443090000000005" lon="-0.84318">
    <ele>38.93000000000001</ele>
   </trkpt>
   <trkpt lat="51.44263" lon="-0.84374">
    <ele>38.86000000000001</ele>
   </trkpt>
   <trkpt lat="51.4423" lon="-0.8442200000000001">
    <ele>39.05</ele>
   </trkpt>
   <trkpt lat="51.442080000000004" lon="-0.84482">
    <ele>38.37</ele>
   </trkpt>
   <trkpt lat="51.441880000000005" lon="-0.8455900000000001">
    <ele>38.27</ele>
   </trkpt>
   <trkpt lat="51.44176" lon="-0.84616">
    <ele>39.16</ele>
   </trkpt>
   <trkpt lat="51.44122" lon="-0.84606">
    <ele>39.970000000000006</ele>
   </trkpt>
   <trkpt lat="51.441100000000006" lon="-0.84596">
    <ele>40.160000000000004</ele>
   </trkpt>
   <trkpt lat="51.440990000000006" lon="-0.84584">
    <ele>40.160000000000004</ele>
   </trkpt>
   <trkpt lat="51.440615001494876" lon="-0.8452399950153573">
    <ele>40.660000000000004</ele>
   </trkpt>
   <trkpt lat="51.44024" lon="-0.8446400000000001">
    <ele>41.46</ele>
   </trkpt>
   <trkpt lat="51.439870002782264" lon="-0.843849993872689">
    <ele>43.49</ele>
   </trkpt>
   <trkpt lat="51.4395" lon="-0.84306">
    <ele>45.18000000000001</ele>
   </trkpt>
   <trkpt lat="51.43916" lon="-0.84245">
    <ele>48.7</ele>
   </trkpt>
   <trkpt lat="51.43889" lon="-0.84206">
    <ele>52.65</ele>
   </trkpt>
   <trkpt lat="51.438390000000005" lon="-0.8414200000000001">
    <ele>54.92</ele>
   </trkpt>
   <trkpt lat="51.43795" lon="-0.84096">
    <ele>56.61000000000001</ele>
   </trkpt>
   <trkpt lat="51.43750000000001" lon="-0.8405900000000001">
    <ele>57.74</ele>
   </trkpt>
   <trkpt lat="51.43704" lon="-0.8403">
    <ele>57.75</ele>
   </trkpt>
   <trkpt lat="51.43659" lon="-0.84008">
    <ele>57.1</ele>
   </trkpt>
   <trkpt lat="51.436040000000006" lon="-0.83991">
    <ele>56.040000000000006</ele>
   </trkpt>
   <trkpt lat="51.43558" lon="-0.8398100000000001">
    <ele>56.0</ele>
   </trkpt>
   <trkpt lat="51.434990000000006" lon="-0.8397800000000001">
    <ele>57.17</ele>
   </trkpt>
   <trkpt lat="51.434760000000004" lon="-0.83979">
    <ele>57.92</ele>
   </trkpt>
   <trkpt lat="51.434230000050235" lon="-0.8398850011000478">
    <ele>59.17000000000001</ele>
   </trkpt>
   <trkpt lat="51.4337" lon="-0.8399800000000001">
    <ele>61.68000000000001</ele>
   </trkpt>
   <trkpt lat="51.433150000000005" lon="-0.84006">
    <ele>62.730000000000004</ele>
   </trkpt>
   <trkpt lat="51.43265999974939" lon="-0.8400599999999999">
    <ele>63.22</ele>
   </trkpt>
   <trkpt lat="51.432170000000006" lon="-0.84006">
    <ele>61.68000000000001</ele>
   </trkpt>
   <trkpt lat="51.43169500010964" lon="-0.8399749991303832">
    <ele>59.11</ele>
   </trkpt>
   <trkpt lat="51.43122" lon="-0.83989">
    <ele>56.89</ele>
   </trkpt>
   <trkpt lat="51.430350000000004" lon="-0.8399300000000001">
    <ele>51.080000000000005</ele>
   </trkpt>
   <trkpt lat="51.42987" lon="-0.8399300000000001">
    <ele>49.82</ele>
   </trkpt>
   <trkpt lat="51.4294" lon="-0.83991">
    <ele>49.85</ele>
   </trkpt>
   <trkpt lat="51.42875" lon="-0.8398100000000001">
    <ele>52.11</ele>
   </trkpt>
   <trkpt lat="51.42829500004599" lon="-0.8397149990555867">
    <ele>53.07000000000001</ele>
   </trkpt>
   <trkpt lat="51.42784" lon="-0.83962">
    <ele>54.43000000000001</ele>
   </trkpt>
   <trkpt lat="51.427330000000005" lon="-0.8395400000000001">
    <ele>54.37</ele>
   </trkpt>
   <trkpt lat="51.42698000000001" lon="-0.8395400000000001">
    <ele>53.62</ele>
   </trkpt>
   <trkpt lat="51.42665" lon="-0.83957">
    <ele>52.59</ele>
   </trkpt>
   <trkpt lat="51.426140000019025" lon="-0.8397000014643726">
    <ele>49.2</ele>
   </trkpt>
   <trkpt lat="51.425630000000005" lon="-0.8398300000000001">
    <ele>47.470000000000006</ele>
   </trkpt>
   <trkpt lat="51.424850000000006" lon="-0.8400700000000001">
    <ele>46.44</ele>
   </trkpt>
   <trkpt lat="51.424530000000004" lon="-0.84013">
    <ele>46.790000000000006</ele>
   </trkpt>
   <trkpt lat="51.424290000000006" lon="-0.84023">
    <ele>47.57</ele>
   </trkpt>
   <trkpt lat="51.4239" lon="-0.8405100000000001">
    <ele>48.470000000000006</ele>
   </trkpt>
   <trkpt lat="51.423820000000006" lon="-0.8405300000000001">
    <ele>48.7</ele>
   </trkpt>
   <trkpt lat="51.423750000000005" lon="-0.84045">
    <ele>48.89</ele>
   </trkpt>
   <trkpt lat="51.423680000000004" lon="-0.84045">
    <ele>49.36</ele>
   </trkpt>
   <trkpt lat="51.42362000000001" lon="-0.8404800000000001">
    <ele>49.49</ele>
   </trkpt>
   <trkpt lat="51.423590000000004" lon="-0.8405100000000001">
    <ele>49.49</ele>
   </trkpt>
   <trkpt lat="51.423500000000004" lon="-0.8405300000000001">
    <ele>49.900000000000006</ele>
   </trkpt>
   <trkpt lat="51.42351000000001" lon="-0.8406">
    <ele>50.17</ele>
   </trkpt>
   <trkpt lat="51.42345" lon="-0.84077">
    <ele>50.080000000000005</ele>
   </trkpt>
   <trkpt lat="51.42315000000001" lon="-0.8407300000000001">
    <ele>50.690000000000005</ele>
   </trkpt>
   <trkpt lat="51.42293" lon="-0.84077">
    <ele>51.22</ele>
   </trkpt>
   <trkpt lat="51.422560000000004" lon="-0.8408500000000001">
    <ele>52.26</ele>
   </trkpt>
   <trkpt lat="51.422470000000004" lon="-0.84084">
    <ele>52.480000000000004</ele>
   </trkpt>
   <trkpt lat="51.422450000000005" lon="-0.84077">
    <ele>52.480000000000004</ele>
   </trkpt>
   <trkpt lat="51.422380000000004" lon="-0.8407600000000001">
    <ele>52.980000000000004</ele>
   </trkpt>
   <trkpt lat="51.422230000000006" lon="-0.84089">
    <ele>52.980000000000004</ele>
   </trkpt>
   <trkpt lat="51.42167000030267" lon="-0.8410300016605963">
    <ele>54.290000000000006</ele>
   </trkpt>
   <trkpt lat="51.421110000000006" lon="-0.8411700000000001">
    <ele>55.370000000000005</ele>
   </trkpt>
   <trkpt lat="51.42108" lon="-0.8408200000000001">
    <ele>55.34</ele>
   </trkpt>
   <trkpt lat="51.421240000000004" lon="-0.8407800000000001">
    <ele>55.1</ele>
   </trkpt>
   <trkpt lat="51.42123" lon="-0.84072">
    <ele>55.1</ele>
   </trkpt>
   <trkpt lat="51.42108" lon="-0.84067">
    <ele>55.370000000000005</ele>
   </trkpt>
   <trkpt lat="51.4211" lon="-0.84052">
    <ele>55.290000000000006</ele>
   </trkpt>
   <trkpt lat="51.42127000000001" lon="-0.8404200000000001">
    <ele>55.07000000000001</ele>
   </trkpt>
   <trkpt lat="51.421240000000004" lon="-0.84025">
    <ele>55.07000000000001</ele>
   </trkpt>
  </trkseg>
 </trk>
</gpx>
