<?xml version="1.0" encoding="UTF-8"?>
<gpx creator="StravaGPX" version="1.1" xmlns="http://www.topografix.com/GPX/1/1" xmlns:xsi="http://www.w3.org/2001/XMLSchema-instance" xsi:schemaLocation="http://www.topografix.com/GPX/1/1 http://www.topografix.com/GPX/1/1/gpx.xsd">
 <metadata>
  <name>Wednesday Evening Gravel V1</name>
  <author>
   <name>Andy Gundry</name>
   <link href="https://www.strava.com/athletes/25556211"/>
  </author>
  <copyright author="OpenStreetMap contributors">
   <year>2020</year>
   <license>https://www.openstreetmap.org/copyright</license>
  </copyright>
  <link href="https://www.strava.com/routes/3488619640579751150"/>
 </metadata>
 <trk>
  <name>Wednesday Evening Gravel V1</name>
  <link href="https://www.strava.com/routes/3488619640579751150"/>
  <type>gravel_biking</type>
  <trkseg>
   <trkpt lat="51.42099" lon="-0.8387600000000001">
    <ele>55.84</ele>
   </trkpt>
   <trkpt lat="51.421150000000004" lon="-0.8398000000000001">
    <ele>55.38</ele>
   </trkpt>
   <trkpt lat="51.421350000000004" lon="-0.8408300000000001">
    <ele>54.82000000000001</ele>
   </trkpt>
   <trkpt lat="51.42221000000001" lon="-0.8406">
    <ele>53.06</ele>
   </trkpt>
   <trkpt lat="51.422340000000005" lon="-0.84057">
    <ele>52.52</ele>
   </trkpt>
   <trkpt lat="51.422880000000006" lon="-0.84052">
    <ele>51.02</ele>
   </trkpt>
   <trkpt lat="51.42334" lon="-0.8405800000000001">
    <ele>50.03</ele>
   </trkpt>
   <trkpt lat="51.42356" lon="-0.8407300000000001">
    <ele>50.11</ele>
   </trkpt>
   <trkpt lat="51.423570000000005" lon="-0.8407800000000001">
    <ele>50.13</ele>
   </trkpt>
   <trkpt lat="51.423640000000006" lon="-0.84089">
    <ele>49.96</ele>
   </trkpt>
   <trkpt lat="51.42371000000001" lon="-0.84091">
    <ele>49.63000000000001</ele>
   </trkpt>
   <trkpt lat="51.42378" lon="-0.8408800000000001">
    <ele>49.63000000000001</ele>
   </trkpt>
   <trkpt lat="51.42383" lon="-0.8408100000000001">
    <ele>49.260000000000005</ele>
   </trkpt>
   <trkpt lat="51.42385" lon="-0.84072">
    <ele>49.260000000000005</ele>
   </trkpt>
   <trkpt lat="51.423930000000006" lon="-0.84064">
    <ele>48.85</ele>
   </trkpt>
   <trkpt lat="51.42409000000001" lon="-0.84038">
    <ele>47.830000000000005</ele>
   </trkpt>
   <trkpt lat="51.424290000000006" lon="-0.84023">
    <ele>47.13</ele>
   </trkpt>
   <trkpt lat="51.424530000000004" lon="-0.84013">
    <ele>46.67</ele>
   </trkpt>
   <trkpt lat="51.424850000000006" lon="-0.8400700000000001">
    <ele>46.25000000000001</ele>
   </trkpt>
   <trkpt lat="51.425630000000005" lon="-0.8398300000000001">
    <ele>47.370000000000005</ele>
   </trkpt>
   <trkpt lat="51.42614000012475" lon="-0.8397000014374237">
    <ele>49.25</ele>
   </trkpt>
   <trkpt lat="51.42665" lon="-0.83957">
    <ele>52.67</ele>
   </trkpt>
   <trkpt lat="51.42698000000001" lon="-0.8395400000000001">
    <ele>53.67</ele>
   </trkpt>
   <trkpt lat="51.427330000000005" lon="-0.8395400000000001">
    <ele>54.39000000000001</ele>
   </trkpt>
   <trkpt lat="51.42784" lon="-0.83962">
    <ele>54.410000000000004</ele>
   </trkpt>
   <trkpt lat="51.42829500003079" lon="-0.8397149990524101">
    <ele>53.25000000000001</ele>
   </trkpt>
   <trkpt lat="51.42875" lon="-0.8398100000000001">
    <ele>51.58</ele>
   </trkpt>
   <trkpt lat="51.4294" lon="-0.83991">
    <ele>49.720000000000006</ele>
   </trkpt>
   <trkpt lat="51.42987" lon="-0.8399300000000001">
    <ele>49.85</ele>
   </trkpt>
   <trkpt lat="51.430350000000004" lon="-0.8399300000000001">
    <ele>51.120000000000005</ele>
   </trkpt>
   <trkpt lat="51.43122" lon="-0.83989">
    <ele>56.78</ele>
   </trkpt>
   <trkpt lat="51.431694999951844" lon="-0.8399749991021461">
    <ele>59.53000000000001</ele>
   </trkpt>
   <trkpt lat="51.432170000000006" lon="-0.84006">
    <ele>61.58</ele>
   </trkpt>
   <trkpt lat="51.43266000025061" lon="-0.8400599999999999">
    <ele>63.230000000000004</ele>
   </trkpt>
   <trkpt lat="51.433150000000005" lon="-0.84006">
    <ele>62.65000000000001</ele>
   </trkpt>
   <trkpt lat="51.4337" lon="-0.8399800000000001">
    <ele>61.64000000000001</ele>
   </trkpt>
   <trkpt lat="51.43423000002653" lon="-0.8398850011042928">
    <ele>59.07</ele>
   </trkpt>
   <trkpt lat="51.434760000000004" lon="-0.83979">
    <ele>57.42</ele>
   </trkpt>
   <trkpt lat="51.434990000000006" lon="-0.8397800000000001">
    <ele>57.120000000000005</ele>
   </trkpt>
   <trkpt lat="51.43558" lon="-0.8398100000000001">
    <ele>56.02</ele>
   </trkpt>
   <trkpt lat="51.436040000000006" lon="-0.83991">
    <ele>56.120000000000005</ele>
   </trkpt>
   <trkpt lat="51.43659" lon="-0.84008">
    <ele>57.230000000000004</ele>
   </trkpt>
   <trkpt lat="51.43704" lon="-0.8403">
    <ele>57.77</ele>
   </trkpt>
   <trkpt lat="51.43750000000001" lon="-0.8405900000000001">
    <ele>57.77</ele>
   </trkpt>
   <trkpt lat="51.43795" lon="-0.84096">
    <ele>56.800000000000004</ele>
   </trkpt>
   <trkpt lat="51.438390000000005" lon="-0.8414200000000001">
    <ele>55.260000000000005</ele>
   </trkpt>
   <trkpt lat="51.43889" lon="-0.84206">
    <ele>51.34</ele>
   </trkpt>
   <trkpt lat="51.43916" lon="-0.84245">
    <ele>49.46</ele>
   </trkpt>
   <trkpt lat="51.4395" lon="-0.84306">
    <ele>46.14</ele>
   </trkpt>
   <trkpt lat="51.43987000252702" lon="-0.8438499933277337">
    <ele>43.160000000000004</ele>
   </trkpt>
   <trkpt lat="51.44024" lon="-0.8446400000000001">
    <ele>41.25</ele>
   </trkpt>
   <trkpt lat="51.44061500156766" lon="-0.8452399951318132">
    <ele>40.660000000000004</ele>
   </trkpt>
   <trkpt lat="51.440990000000006" lon="-0.84584">
    <ele>39.93</ele>
   </trkpt>
   <trkpt lat="51.441100000000006" lon="-0.84596">
    <ele>39.93</ele>
   </trkpt>
   <trkpt lat="51.44122" lon="-0.84606">
    <ele>39.800000000000004</ele>
   </trkpt>
   <trkpt lat="51.44176" lon="-0.84616">
    <ele>39.11000000000001</ele>
   </trkpt>
   <trkpt lat="51.441880000000005" lon="-0.8455900000000001">
    <ele>38.14</ele>
   </trkpt>
   <trkpt lat="51.442080000000004" lon="-0.84482">
    <ele>38.31</ele>
   </trkpt>
   <trkpt lat="51.4423" lon="-0.8442200000000001">
    <ele>38.99</ele>
   </trkpt>
   <trkpt lat="51.442550000000004" lon="-0.8433200000000001">
    <ele>39.46</ele>
   </trkpt>
   <trkpt lat="51.44261" lon="-0.84289">
    <ele>39.790000000000006</ele>
   </trkpt>
   <trkpt lat="51.442665002510424" lon="-0.8421200010875524">
    <ele>40.080000000000005</ele>
   </trkpt>
   <trkpt lat="51.44272" lon="-0.84135">
    <ele>40.82</ele>
   </trkpt>
   <trkpt lat="51.44285000000001" lon="-0.84011">
    <ele>41.56</ele>
   </trkpt>
   <trkpt lat="51.44285000000001" lon="-0.8388800000000001">
    <ele>42.120000000000005</ele>
   </trkpt>
   <trkpt lat="51.44292" lon="-0.8384">
    <ele>42.18</ele>
   </trkpt>
   <trkpt lat="51.44301" lon="-0.83796">
    <ele>42.160000000000004</ele>
   </trkpt>
   <trkpt lat="51.44327500257326" lon="-0.8371800045689093">
    <ele>42.04</ele>
   </trkpt>
   <trkpt lat="51.443540000000006" lon="-0.8364">
    <ele>41.7</ele>
   </trkpt>
   <trkpt lat="51.44389" lon="-0.83572">
    <ele>41.400000000000006</ele>
   </trkpt>
   <trkpt lat="51.44417000248154" lon="-0.8349600045926571">
    <ele>41.230000000000004</ele>
   </trkpt>
   <trkpt lat="51.44445" lon="-0.8342">
    <ele>41.230000000000004</ele>
   </trkpt>
   <trkpt lat="51.444635007070474" lon="-0.8329100052789772">
    <ele>40.830000000000005</ele>
   </trkpt>
   <trkpt lat="51.44482000000001" lon="-0.83162">
    <ele>41.02</ele>
   </trkpt>
   <trkpt lat="51.44496" lon="-0.8304">
    <ele>41.79</ele>
   </trkpt>
   <trkpt lat="51.445140029552654" lon="-0.8290820207932049">
    <ele>42.230000000000004</ele>
   </trkpt>
   <trkpt lat="51.445320044328426" lon="-0.8277640311947462">
    <ele>41.84</ele>
   </trkpt>
   <trkpt lat="51.44550004432711" lon="-0.8264460312053287">
    <ele>41.97</ele>
   </trkpt>
   <trkpt lat="51.445680029548456" lon="-0.825128020825656">
    <ele>42.60000000000001</ele>
   </trkpt>
   <trkpt lat="51.44586" lon="-0.82381">
    <ele>42.910000000000004</ele>
   </trkpt>
   <trkpt lat="51.44599" lon="-0.8235000000000001">
    <ele>42.99</ele>
   </trkpt>
   <trkpt lat="51.44638500431634" lon="-0.8224950086417736">
    <ele>42.47</ele>
   </trkpt>
   <trkpt lat="51.446780000000004" lon="-0.82149">
    <ele>43.39</ele>
   </trkpt>
   <trkpt lat="51.44711" lon="-0.8216600000000001">
    <ele>45.34</ele>
   </trkpt>
   <trkpt lat="51.44693" lon="-0.8213">
    <ele>48.970000000000006</ele>
   </trkpt>
   <trkpt lat="51.446920000000006" lon="-0.8212800000000001">
    <ele>49.14</ele>
   </trkpt>
   <trkpt lat="51.44771125988778" lon="-0.8218561800990135">
    <ele>46.6</ele>
   </trkpt>
   <trkpt lat="51.44850251695141" lon="-0.822432380167792">
    <ele>42.150000000000006</ele>
   </trkpt>
   <trkpt lat="51.44929377119074" lon="-0.8230086002075223">
    <ele>40.550000000000004</ele>
   </trkpt>
   <trkpt lat="51.450085022605556" lon="-0.8235848402193915">
    <ele>40.260000000000005</ele>
   </trkpt>
   <trkpt lat="51.45087627119573" lon="-0.8241611002045862">
    <ele>39.900000000000006</ele>
   </trkpt>
   <trkpt lat="51.45166751696106" lon="-0.8247373801642935">
    <ele>39.52</ele>
   </trkpt>
   <trkpt lat="51.45245875990137" lon="-0.8253136800997004">
    <ele>40.13</ele>
   </trkpt>
   <trkpt lat="51.453250000000004" lon="-0.82589">
    <ele>42.24000000000001</ele>
   </trkpt>
   <trkpt lat="51.453520000000005" lon="-0.82601">
    <ele>42.54</ele>
   </trkpt>
   <trkpt lat="51.45369" lon="-0.82606">
    <ele>43.65</ele>
   </trkpt>
   <trkpt lat="51.454080000000005" lon="-0.8260900000000001">
    <ele>44.72</ele>
   </trkpt>
   <trkpt lat="51.45459" lon="-0.8261700000000001">
    <ele>47.06</ele>
   </trkpt>
   <trkpt lat="51.45483" lon="-0.82625">
    <ele>47.06</ele>
   </trkpt>
   <trkpt lat="51.455090000000006" lon="-0.8264">
    <ele>47.71</ele>
   </trkpt>
   <trkpt lat="51.45548" lon="-0.82667">
    <ele>48.32</ele>
   </trkpt>
   <trkpt lat="51.45573" lon="-0.8267800000000001">
    <ele>48.34</ele>
   </trkpt>
   <trkpt lat="51.456010000000006" lon="-0.8268800000000001">
    <ele>48.17</ele>
   </trkpt>
   <trkpt lat="51.456775000453206" lon="-0.827067490573852">
    <ele>48.17</ele>
   </trkpt>
   <trkpt lat="51.45754000060738" lon="-0.8272549874323105">
    <ele>47.86000000000001</ele>
   </trkpt>
   <trkpt lat="51.45830500046254" lon="-0.8274424905757559">
    <ele>47.59</ele>
   </trkpt>
   <trkpt lat="51.459070000000004" lon="-0.8276300000000001">
    <ele>47.75</ele>
   </trkpt>
   <trkpt lat="51.45913719256496" lon="-0.8262342980384098">
    <ele>46.53</ele>
   </trkpt>
   <trkpt lat="51.459204368560755" lon="-0.8248385919679011">
    <ele>46.46</ele>
   </trkpt>
   <trkpt lat="51.4592715279873" lon="-0.8234428817894656">
    <ele>46.00000000000001</ele>
   </trkpt>
   <trkpt lat="51.45933867084451" lon="-0.8220471675040945">
    <ele>44.51</ele>
   </trkpt>
   <trkpt lat="51.45940579713228" lon="-0.8206514491127793">
    <ele>44.18</ele>
   </trkpt>
   <trkpt lat="51.45947290685056" lon="-0.8192557266165116">
    <ele>43.85000000000001</ele>
   </trkpt>
   <trkpt lat="51.459540000000004" lon="-0.81786">
    <ele>43.03000000000001</ele>
   </trkpt>
   <trkpt lat="51.46034500000494" lon="-0.8178350013229597">
    <ele>41.410000000000004</ele>
   </trkpt>
   <trkpt lat="51.46115000000457" lon="-0.817810001764047">
    <ele>41.440000000000005</ele>
   </trkpt>
   <trkpt lat="51.46195499999888" lon="-0.817785001323205">
    <ele>43.050000000000004</ele>
   </trkpt>
   <trkpt lat="51.46276" lon="-0.81776">
    <ele>43.84</ele>
   </trkpt>
   <trkpt lat="51.46346250000875" lon="-0.8177924984988613">
    <ele>43.13</ele>
   </trkpt>
   <trkpt lat="51.46416500000851" lon="-0.8178249979982984">
    <ele>41.86</ele>
   </trkpt>
   <trkpt lat="51.46486749999931" lon="-0.8178574984983678">
    <ele>39.6</ele>
   </trkpt>
   <trkpt lat="51.46557000000001" lon="-0.8178900000000001">
    <ele>38.55</ele>
   </trkpt>
   <trkpt lat="51.46562" lon="-0.8179500000000001">
    <ele>38.55</ele>
   </trkpt>
   <trkpt lat="51.46569" lon="-0.81813">
    <ele>38.28</ele>
   </trkpt>
   <trkpt lat="51.465680000000006" lon="-0.81837">
    <ele>38.28</ele>
   </trkpt>
   <trkpt lat="51.465710020495926" lon="-0.8196374974797506">
    <ele>38.46</ele>
   </trkpt>
   <trkpt lat="51.46574002732762" lon="-0.8209049966268834">
    <ele>39.510000000000005</ele>
   </trkpt>
   <trkpt lat="51.46577002049503" lon="-0.8221724974406431">
    <ele>41.53</ele>
   </trkpt>
   <trkpt lat="51.4658" lon="-0.8234400000000001">
    <ele>41.81000000000001</ele>
   </trkpt>
   <trkpt lat="51.465790000000005" lon="-0.8240500000000001">
    <ele>40.93</ele>
   </trkpt>
   <trkpt lat="51.465770000000006" lon="-0.8242700000000001">
    <ele>40.74</ele>
   </trkpt>
   <trkpt lat="51.465650000000004" lon="-0.8250000000000001">
    <ele>40.410000000000004</ele>
   </trkpt>
   <trkpt lat="51.46540001230977" lon="-0.8262033465479619">
    <ele>41.74</ele>
   </trkpt>
   <trkpt lat="51.465150012303575" lon="-0.82740667991088">
    <ele>43.96000000000001</ele>
   </trkpt>
   <trkpt lat="51.46490000000001" lon="-0.8286100000000001">
    <ele>44.35</ele>
   </trkpt>
   <trkpt lat="51.465540000000004" lon="-0.8289300000000001">
    <ele>40.46</ele>
   </trkpt>
   <trkpt lat="51.465790000000005" lon="-0.8290000000000001">
    <ele>39.970000000000006</ele>
   </trkpt>
   <trkpt lat="51.46594" lon="-0.8289300000000001">
    <ele>39.63</ele>
   </trkpt>
   <trkpt lat="51.46637000107729" lon="-0.828445004483667">
    <ele>38.86000000000001</ele>
   </trkpt>
   <trkpt lat="51.466800000000006" lon="-0.82796">
    <ele>38.510000000000005</ele>
   </trkpt>
   <trkpt lat="51.467474008520746" lon="-0.8272520418395204">
    <ele>37.77</ele>
   </trkpt>
   <trkpt lat="51.46814801277849" lon="-0.8265440627632544">
    <ele>36.45</ele>
   </trkpt>
   <trkpt lat="51.46882201277304" lon="-0.8258360627702114">
    <ele>35.94</ele>
   </trkpt>
   <trkpt lat="51.46949600850416" lon="-0.825128041859401">
    <ele>35.92</ele>
   </trkpt>
   <trkpt lat="51.47017" lon="-0.82442">
    <ele>36.38</ele>
   </trkpt>
   <trkpt lat="51.47081500252135" lon="-0.8236450109961119">
    <ele>37.1</ele>
   </trkpt>
   <trkpt lat="51.47146000000001" lon="-0.8228700000000001">
    <ele>37.290000000000006</ele>
   </trkpt>
   <trkpt lat="51.471855003059545" lon="-0.8237149927333665">
    <ele>36.57000000000001</ele>
   </trkpt>
   <trkpt lat="51.47225" lon="-0.8245600000000001">
    <ele>36.300000000000004</ele>
   </trkpt>
   <trkpt lat="51.472150000000006" lon="-0.82491">
    <ele>36.300000000000004</ele>
   </trkpt>
   <trkpt lat="51.47216001279731" lon="-0.8261366661175451">
    <ele>36.1</ele>
   </trkpt>
   <trkpt lat="51.47217001279722" lon="-0.8273633327732028">
    <ele>36.22</ele>
   </trkpt>
   <trkpt lat="51.47218" lon="-0.82859">
    <ele>36.56</ele>
   </trkpt>
   <trkpt lat="51.4722500102965" lon="-0.8296899967122443">
    <ele>36.75000000000001</ele>
   </trkpt>
   <trkpt lat="51.47232001030211" lon="-0.8307899968004113">
    <ele>36.81</ele>
   </trkpt>
   <trkpt lat="51.472390000000004" lon="-0.83189">
    <ele>36.81</ele>
   </trkpt>
   <trkpt lat="51.472385004251144" lon="-0.8328900003682136">
    <ele>36.61</ele>
   </trkpt>
   <trkpt lat="51.47238" lon="-0.83389">
    <ele>36.6</ele>
   </trkpt>
   <trkpt lat="51.47228500828829" lon="-0.8352850027150193">
    <ele>36.59</ele>
   </trkpt>
   <trkpt lat="51.472190000000005" lon="-0.8366800000000001">
    <ele>36.49</ele>
   </trkpt>
   <trkpt lat="51.47219000289432" lon="-0.8375049996781648">
    <ele>36.56</ele>
   </trkpt>
   <trkpt lat="51.472190000000005" lon="-0.83833">
    <ele>36.39000000000001</ele>
   </trkpt>
   <trkpt lat="51.472897504178114" lon="-0.8389024733610164">
    <ele>35.86</ele>
   </trkpt>
   <trkpt lat="51.47360500556886" lon="-0.8394749644790784">
    <ele>35.93</ele>
   </trkpt>
   <trkpt lat="51.47431250417212" lon="-0.8400474733551168">
    <ele>35.96000000000001</ele>
   </trkpt>
   <trkpt lat="51.47502" lon="-0.84062">
    <ele>35.96000000000001</ele>
   </trkpt>
   <trkpt lat="51.475327514277616" lon="-0.8416774786531237">
    <ele>36.09</ele>
   </trkpt>
   <trkpt lat="51.47563501904468" lon="-0.8427349715640119">
    <ele>36.03</ele>
   </trkpt>
   <trkpt lat="51.47594251430094" lon="-0.8437924787325732">
    <ele>36.1</ele>
   </trkpt>
   <trkpt lat="51.47625000000001" lon="-0.8448500000000001">
    <ele>36.54</ele>
   </trkpt>
   <trkpt lat="51.47643000528773" lon="-0.8459649956071836">
    <ele>36.21000000000001</ele>
   </trkpt>
   <trkpt lat="51.47661" lon="-0.84708">
    <ele>37.17</ele>
   </trkpt>
   <trkpt lat="51.476960000000005" lon="-0.84806">
    <ele>38.62</ele>
   </trkpt>
   <trkpt lat="51.47733" lon="-0.84862">
    <ele>40.11</ele>
   </trkpt>
   <trkpt lat="51.477450000000005" lon="-0.8486400000000001">
    <ele>40.32</ele>
   </trkpt>
   <trkpt lat="51.47811" lon="-0.84855">
    <ele>39.400000000000006</ele>
   </trkpt>
   <trkpt lat="51.47827" lon="-0.84855">
    <ele>39.650000000000006</ele>
   </trkpt>
   <trkpt lat="51.47840000000001" lon="-0.8485900000000001">
    <ele>39.89</ele>
   </trkpt>
   <trkpt lat="51.478500000000004" lon="-0.84867">
    <ele>40.2</ele>
   </trkpt>
   <trkpt lat="51.47858" lon="-0.8488000000000001">
    <ele>40.79</ele>
   </trkpt>
   <trkpt lat="51.478660000000005" lon="-0.84906">
    <ele>42.410000000000004</ele>
   </trkpt>
   <trkpt lat="51.47880000000001" lon="-0.8493100000000001">
    <ele>42.84</ele>
   </trkpt>
   <trkpt lat="51.478860000000005" lon="-0.8495">
    <ele>44.120000000000005</ele>
   </trkpt>
   <trkpt lat="51.479000000000006" lon="-0.8509000000000001">
    <ele>49.160000000000004</ele>
   </trkpt>
   <trkpt lat="51.479020000000006" lon="-0.85128">
    <ele>49.64</ele>
   </trkpt>
   <trkpt lat="51.47905" lon="-0.8513600000000001">
    <ele>50.160000000000004</ele>
   </trkpt>
   <trkpt lat="51.479400000000005" lon="-0.8516600000000001">
    <ele>50.410000000000004</ele>
   </trkpt>
   <trkpt lat="51.479510000000005" lon="-0.8518100000000001">
    <ele>50.49000000000001</ele>
   </trkpt>
   <trkpt lat="51.47964" lon="-0.85221">
    <ele>50.84</ele>
   </trkpt>
   <trkpt lat="51.4797550029047" lon="-0.853034997995517">
    <ele>51.25</ele>
   </trkpt>
   <trkpt lat="51.479870000000005" lon="-0.8538600000000001">
    <ele>51.4</ele>
   </trkpt>
   <trkpt lat="51.479910000000004" lon="-0.8539800000000001">
    <ele>51.4</ele>
   </trkpt>
   <trkpt lat="51.47993" lon="-0.8543000000000001">
    <ele>51.39</ele>
   </trkpt>
   <trkpt lat="51.480030000000006" lon="-0.85509">
    <ele>51.17000000000001</ele>
   </trkpt>
   <trkpt lat="51.48070000003213" lon="-0.8551299988258352">
    <ele>50.74000000000001</ele>
   </trkpt>
   <trkpt lat="51.48137000005067" lon="-0.8551699988269207">
    <ele>50.730000000000004</ele>
   </trkpt>
   <trkpt lat="51.482040000000005" lon="-0.85521">
    <ele>50.81</ele>
   </trkpt>
   <trkpt lat="51.4825500000967" lon="-0.8552000001099455">
    <ele>50.47</ele>
   </trkpt>
   <trkpt lat="51.48306" lon="-0.8551900000000001">
    <ele>49.7</ele>
   </trkpt>
   <trkpt lat="51.48368000000001" lon="-0.85516">
    <ele>47.330000000000005</ele>
   </trkpt>
   <trkpt lat="51.48456" lon="-0.85516">
    <ele>44.93000000000001</ele>
   </trkpt>
   <trkpt lat="51.485240000000005" lon="-0.8551300000000001">
    <ele>46.62</ele>
   </trkpt>
   <trkpt lat="51.48588999994948" lon="-0.8551200001433337">
    <ele>47.32</ele>
   </trkpt>
   <trkpt lat="51.486540000000005" lon="-0.85511">
    <ele>46.34</ele>
   </trkpt>
   <trkpt lat="51.48662" lon="-0.85521">
    <ele>46.11000000000001</ele>
   </trkpt>
   <trkpt lat="51.486630000000005" lon="-0.8552200000000001">
    <ele>46.09</ele>
   </trkpt>
   <trkpt lat="51.486236674571636" lon="-0.8542566500792501">
    <ele>48.160000000000004</ele>
   </trkpt>
   <trkpt lat="51.48584334125141" lon="-0.85329331677826">
    <ele>49.21</ele>
   </trkpt>
   <trkpt lat="51.48545000000001" lon="-0.85233">
    <ele>49.6</ele>
   </trkpt>
   <trkpt lat="51.48525000000001" lon="-0.85199">
    <ele>49.34</ele>
   </trkpt>
   <trkpt lat="51.48501" lon="-0.85172">
    <ele>48.85</ele>
   </trkpt>
   <trkpt lat="51.484570000000005" lon="-0.8515900000000001">
    <ele>47.99</ele>
   </trkpt>
   <trkpt lat="51.484" lon="-0.85155">
    <ele>47.440000000000005</ele>
   </trkpt>
   <trkpt lat="51.48382" lon="-0.8514">
    <ele>47.41</ele>
   </trkpt>
   <trkpt lat="51.483360000000005" lon="-0.85133">
    <ele>47.78</ele>
   </trkpt>
   <trkpt lat="51.483160000000005" lon="-0.85089">
    <ele>48.080000000000005</ele>
   </trkpt>
   <trkpt lat="51.48237" lon="-0.85079">
    <ele>48.760000000000005</ele>
   </trkpt>
   <trkpt lat="51.48297" lon="-0.85013">
    <ele>46.56</ele>
   </trkpt>
   <trkpt lat="51.48342" lon="-0.84972">
    <ele>44.88</ele>
   </trkpt>
   <trkpt lat="51.48382" lon="-0.84952">
    <ele>44.410000000000004</ele>
   </trkpt>
   <trkpt lat="51.48447" lon="-0.8495">
    <ele>44.4</ele>
   </trkpt>
   <trkpt lat="51.484880000000004" lon="-0.8494700000000001">
    <ele>43.82000000000001</ele>
   </trkpt>
   <trkpt lat="51.485490000000006" lon="-0.8492500000000001">
    <ele>43.29</ele>
   </trkpt>
   <trkpt lat="51.485690000000005" lon="-0.84911">
    <ele>42.99</ele>
   </trkpt>
   <trkpt lat="51.485910000000004" lon="-0.84879">
    <ele>42.84</ele>
   </trkpt>
   <trkpt lat="51.48629333839894" lon="-0.8480166797099108">
    <ele>42.910000000000004</ele>
   </trkpt>
   <trkpt lat="51.48667667171223" lon="-0.847243346417185">
    <ele>43.11</ele>
   </trkpt>
   <trkpt lat="51.48706000000001" lon="-0.8464700000000001">
    <ele>43.800000000000004</ele>
   </trkpt>
   <trkpt lat="51.487525003390736" lon="-0.8455750091567193">
    <ele>44.57000000000001</ele>
   </trkpt>
   <trkpt lat="51.48799" lon="-0.8446800000000001">
    <ele>45.78</ele>
   </trkpt>
   <trkpt lat="51.4881" lon="-0.8444200000000001">
    <ele>46.900000000000006</ele>
   </trkpt>
   <trkpt lat="51.488200000000006" lon="-0.8439800000000001">
    <ele>47.400000000000006</ele>
   </trkpt>
   <trkpt lat="51.48839" lon="-0.84289">
    <ele>49.620000000000005</ele>
   </trkpt>
   <trkpt lat="51.48837" lon="-0.8427600000000001">
    <ele>49.550000000000004</ele>
   </trkpt>
   <trkpt lat="51.48836000000001" lon="-0.84274">
    <ele>49.550000000000004</ele>
   </trkpt>
   <trkpt lat="51.48819" lon="-0.8424200000000001">
    <ele>49.25</ele>
   </trkpt>
   <trkpt lat="51.48760000000001" lon="-0.84216">
    <ele>48.35</ele>
   </trkpt>
   <trkpt lat="51.48687500018723" lon="-0.842375003421331">
    <ele>47.67</ele>
   </trkpt>
   <trkpt lat="51.48615" lon="-0.8425900000000001">
    <ele>47.38</ele>
   </trkpt>
   <trkpt lat="51.485530000000004" lon="-0.8425900000000001">
    <ele>46.71</ele>
   </trkpt>
   <trkpt lat="51.48471500043886" lon="-0.8428600047829475">
    <ele>44.33</ele>
   </trkpt>
   <trkpt lat="51.483900000000006" lon="-0.84313">
    <ele>40.120000000000005</ele>
   </trkpt>
   <trkpt lat="51.483223333688244" lon="-0.8433266724955191">
    <ele>38.86000000000001</ele>
   </trkpt>
   <trkpt lat="51.48254666704756" lon="-0.8435233391545311">
    <ele>37.900000000000006</ele>
   </trkpt>
   <trkpt lat="51.48187" lon="-0.84372">
    <ele>37.49</ele>
   </trkpt>
   <trkpt lat="51.481680000000004" lon="-0.84308">
    <ele>37.31</ele>
   </trkpt>
   <trkpt lat="51.481770000000004" lon="-0.8427600000000001">
    <ele>37.230000000000004</ele>
   </trkpt>
   <trkpt lat="51.481970000000004" lon="-0.84221">
    <ele>36.71</ele>
   </trkpt>
   <trkpt lat="51.48237836735254" lon="-0.8409450566394663">
    <ele>37.08</ele>
   </trkpt>
   <trkpt lat="51.482786721097426" lon="-0.839680090624835">
    <ele>37.18000000000001</ele>
   </trkpt>
   <trkpt lat="51.483195061234234" lon="-0.8384151019561237">
    <ele>38.06</ele>
   </trkpt>
   <trkpt lat="51.48360338776252" lon="-0.8371500906333508">
    <ele>38.64</ele>
   </trkpt>
   <trkpt lat="51.484011700681826" lon="-0.835885056656534">
    <ele>39.470000000000006</ele>
   </trkpt>
   <trkpt lat="51.48442000000001" lon="-0.83462">
    <ele>39.7</ele>
   </trkpt>
   <trkpt lat="51.484774021249144" lon="-0.8335020347467563">
    <ele>39.99</ele>
   </trkpt>
   <trkpt lat="51.48512803186939" lon="-0.8323840521347095">
    <ele>40.160000000000004</ele>
   </trkpt>
   <trkpt lat="51.48548203186043" lon="-0.8312660521638913">
    <ele>40.95</ele>
   </trkpt>
   <trkpt lat="51.48583602122199" lon="-0.8301480348343332">
    <ele>40.720000000000006</ele>
   </trkpt>
   <trkpt lat="51.48619000000001" lon="-0.82903">
    <ele>40.330000000000005</ele>
   </trkpt>
   <trkpt lat="51.4865650055725" lon="-0.8278850094225744">
    <ele>42.99</ele>
   </trkpt>
   <trkpt lat="51.486940000000004" lon="-0.82674">
    <ele>43.77</ele>
   </trkpt>
   <trkpt lat="51.48715000000001" lon="-0.82618">
    <ele>44.550000000000004</ele>
   </trkpt>
   <trkpt lat="51.48736" lon="-0.8255300000000001">
    <ele>45.42</ele>
   </trkpt>
   <trkpt lat="51.48722000000001" lon="-0.8252">
    <ele>43.92</ele>
   </trkpt>
   <trkpt lat="51.487140000000004" lon="-0.8248200000000001">
    <ele>42.89</ele>
   </trkpt>
   <trkpt lat="51.487045002381386" lon="-0.8240699983557978">
    <ele>42.06</ele>
   </trkpt>
   <trkpt lat="51.48695000000001" lon="-0.82332">
    <ele>41.620000000000005</ele>
   </trkpt>
   <trkpt lat="51.48684" lon="-0.82291">
    <ele>41.5</ele>
   </trkpt>
   <trkpt lat="51.486560000000004" lon="-0.82232">
    <ele>41.32</ele>
   </trkpt>
   <trkpt lat="51.486250000000005" lon="-0.82171">
    <ele>40.78</ele>
   </trkpt>
   <trkpt lat="51.486050000000006" lon="-0.82123">
    <ele>40.61</ele>
   </trkpt>
   <trkpt lat="51.48595" lon="-0.8209500000000001">
    <ele>40.61</ele>
   </trkpt>
   <trkpt lat="51.485890000000005" lon="-0.8206100000000001">
    <ele>40.34</ele>
   </trkpt>
   <trkpt lat="51.48588" lon="-0.8193400000000001">
    <ele>39.95</ele>
   </trkpt>
   <trkpt lat="51.485785004245294" lon="-0.8183399978462081">
    <ele>39.93</ele>
   </trkpt>
   <trkpt lat="51.485690000000005" lon="-0.8173400000000001">
    <ele>40.28</ele>
   </trkpt>
   <trkpt lat="51.4857" lon="-0.81671">
    <ele>40.24</ele>
   </trkpt>
   <trkpt lat="51.485765003073126" lon="-0.8158600011977644">
    <ele>40.25</ele>
   </trkpt>
   <trkpt lat="51.48583000000001" lon="-0.81501">
    <ele>40.28</ele>
   </trkpt>
   <trkpt lat="51.48583000000001" lon="-0.81447">
    <ele>40.330000000000005</ele>
   </trkpt>
   <trkpt lat="51.48577" lon="-0.81371">
    <ele>40.49</ele>
   </trkpt>
   <trkpt lat="51.48563000000001" lon="-0.8126500000000001">
    <ele>40.28</ele>
   </trkpt>
   <trkpt lat="51.48566500577278" lon="-0.8114850008317677">
    <ele>39.760000000000005</ele>
   </trkpt>
   <trkpt lat="51.4857" lon="-0.81032">
    <ele>38.970000000000006</ele>
   </trkpt>
   <trkpt lat="51.48579" lon="-0.8097300000000001">
    <ele>38.510000000000005</ele>
   </trkpt>
   <trkpt lat="51.485780000000005" lon="-0.8095800000000001">
    <ele>38.510000000000005</ele>
   </trkpt>
   <trkpt lat="51.48575" lon="-0.8094600000000001">
    <ele>38.510000000000005</ele>
   </trkpt>
   <trkpt lat="51.48536000000001" lon="-0.80864">
    <ele>37.55</ele>
   </trkpt>
   <trkpt lat="51.485240000000005" lon="-0.80832">
    <ele>37.50000000000001</ele>
   </trkpt>
   <trkpt lat="51.4851" lon="-0.8077000000000001">
    <ele>37.64</ele>
   </trkpt>
   <trkpt lat="51.48505" lon="-0.80698">
    <ele>37.68000000000001</ele>
   </trkpt>
   <trkpt lat="51.485170000000004" lon="-0.80696">
    <ele>37.87</ele>
   </trkpt>
   <trkpt lat="51.48521" lon="-0.8069000000000001">
    <ele>37.87</ele>
   </trkpt>
   <trkpt lat="51.485310000000005" lon="-0.80649">
    <ele>37.910000000000004</ele>
   </trkpt>
   <trkpt lat="51.485440000000004" lon="-0.8063400000000001">
    <ele>37.93000000000001</ele>
   </trkpt>
   <trkpt lat="51.48572000000001" lon="-0.8061100000000001">
    <ele>38.06</ele>
   </trkpt>
   <trkpt lat="51.48619000000001" lon="-0.80588">
    <ele>38.6</ele>
   </trkpt>
   <trkpt lat="51.48693" lon="-0.80564">
    <ele>39.5</ele>
   </trkpt>
   <trkpt lat="51.487170000000006" lon="-0.8054600000000001">
    <ele>39.99</ele>
   </trkpt>
   <trkpt lat="51.48749" lon="-0.80513">
    <ele>40.510000000000005</ele>
   </trkpt>
   <trkpt lat="51.48753000000001" lon="-0.8050100000000001">
    <ele>40.510000000000005</ele>
   </trkpt>
   <trkpt lat="51.48738" lon="-0.80474">
    <ele>39.89</ele>
   </trkpt>
   <trkpt lat="51.48709" lon="-0.8040700000000001">
    <ele>38.830000000000005</ele>
   </trkpt>
   <trkpt lat="51.48691" lon="-0.80376">
    <ele>38.67</ele>
   </trkpt>
   <trkpt lat="51.48675" lon="-0.8035100000000001">
    <ele>38.55</ele>
   </trkpt>
   <trkpt lat="51.48664" lon="-0.8032400000000001">
    <ele>38.540000000000006</ele>
   </trkpt>
   <trkpt lat="51.48653" lon="-0.8028500000000001">
    <ele>38.540000000000006</ele>
   </trkpt>
   <trkpt lat="51.48619000000001" lon="-0.80215">
    <ele>38.82</ele>
   </trkpt>
   <trkpt lat="51.486000000000004" lon="-0.8016300000000001">
    <ele>38.540000000000006</ele>
   </trkpt>
   <trkpt lat="51.48597" lon="-0.80142">
    <ele>38.45</ele>
   </trkpt>
   <trkpt lat="51.48601000000001" lon="-0.80069">
    <ele>38.39</ele>
   </trkpt>
   <trkpt lat="51.48593" lon="-0.8002400000000001">
    <ele>38.39</ele>
   </trkpt>
   <trkpt lat="51.48575" lon="-0.7998000000000001">
    <ele>37.98</ele>
   </trkpt>
   <trkpt lat="51.48563000000001" lon="-0.79959">
    <ele>37.77</ele>
   </trkpt>
   <trkpt lat="51.48534" lon="-0.79922">
    <ele>37.67</ele>
   </trkpt>
   <trkpt lat="51.48500000000001" lon="-0.79883">
    <ele>37.46</ele>
   </trkpt>
   <trkpt lat="51.48487" lon="-0.79864">
    <ele>37.26</ele>
   </trkpt>
   <trkpt lat="51.484190000000005" lon="-0.79803">
    <ele>36.78</ele>
   </trkpt>
   <trkpt lat="51.4836" lon="-0.79747">
    <ele>36.47</ele>
   </trkpt>
   <trkpt lat="51.48339000000001" lon="-0.79732">
    <ele>36.53</ele>
   </trkpt>
   <trkpt lat="51.48283000000001" lon="-0.79717">
    <ele>36.410000000000004</ele>
   </trkpt>
   <trkpt lat="51.482440000000004" lon="-0.79703">
    <ele>37.22</ele>
   </trkpt>
   <trkpt lat="51.482680015960916" lon="-0.7956600144229985">
    <ele>37.37</ele>
   </trkpt>
   <trkpt lat="51.48292001596051" lon="-0.7942900144256181">
    <ele>37.64</ele>
   </trkpt>
   <trkpt lat="51.483160000000005" lon="-0.7929200000000001">
    <ele>37.76</ele>
   </trkpt>
   <trkpt lat="51.482620000000004" lon="-0.79261">
    <ele>37.480000000000004</ele>
   </trkpt>
   <trkpt lat="51.48210500158162" lon="-0.7919849928456972">
    <ele>38.45</ele>
   </trkpt>
   <trkpt lat="51.481590000000004" lon="-0.7913600000000001">
    <ele>41.39</ele>
   </trkpt>
   <trkpt lat="51.481105002079076" lon="-0.7906599925493238">
    <ele>43.36</ele>
   </trkpt>
   <trkpt lat="51.48062" lon="-0.7899600000000001">
    <ele>45.2</ele>
   </trkpt>
   <trkpt lat="51.480320000000006" lon="-0.79032">
    <ele>45.160000000000004</ele>
   </trkpt>
   <trkpt lat="51.47989667091803" lon="-0.7910266797777764">
    <ele>45.35</ele>
   </trkpt>
   <trkpt lat="51.47947333758908" lon="-0.7917333464369275">
    <ele>44.95</ele>
   </trkpt>
   <trkpt lat="51.47905" lon="-0.79244">
    <ele>43.300000000000004</ele>
   </trkpt>
   <trkpt lat="51.478745003574744" lon="-0.7933550060747175">
    <ele>41.59</ele>
   </trkpt>
   <trkpt lat="51.478440000000006" lon="-0.79427">
    <ele>40.019999999999996</ele>
   </trkpt>
   <trkpt lat="51.47795333873425" lon="-0.7950666836619871">
    <ele>38.19</ele>
   </trkpt>
   <trkpt lat="51.477466672070776" lon="-0.7958633503231627">
    <ele>37.76</ele>
   </trkpt>
   <trkpt lat="51.476980000000005" lon="-0.79666">
    <ele>37.74</ele>
   </trkpt>
   <trkpt lat="51.47658667369045" lon="-0.7975700157378969">
    <ele>38.45</ele>
   </trkpt>
   <trkpt lat="51.47619334033814" lon="-0.7984800157815654">
    <ele>39.220000000000006</ele>
   </trkpt>
   <trkpt lat="51.47580000000001" lon="-0.79939">
    <ele>38.71</ele>
   </trkpt>
   <trkpt lat="51.475210000000004" lon="-0.80042">
    <ele>37.3</ele>
   </trkpt>
   <trkpt lat="51.47491500385239" lon="-0.8013800064250562">
    <ele>36.75000000000001</ele>
   </trkpt>
   <trkpt lat="51.47462" lon="-0.80234">
    <ele>37.19</ele>
   </trkpt>
   <trkpt lat="51.47489" lon="-0.80247">
    <ele>37.50000000000001</ele>
   </trkpt>
   <trkpt lat="51.474880000000006" lon="-0.80266">
    <ele>37.82000000000001</ele>
   </trkpt>
   <trkpt lat="51.47475000000001" lon="-0.8027400000000001">
    <ele>37.85</ele>
   </trkpt>
   <trkpt lat="51.47451" lon="-0.80295">
    <ele>37.660000000000004</ele>
   </trkpt>
   <trkpt lat="51.474160000000005" lon="-0.80322">
    <ele>37.6</ele>
   </trkpt>
   <trkpt lat="51.47386" lon="-0.80361">
    <ele>37.68000000000001</ele>
   </trkpt>
   <trkpt lat="51.47345500337999" lon="-0.8045000078757596">
    <ele>37.08</ele>
   </trkpt>
   <trkpt lat="51.47305000000001" lon="-0.80539">
    <ele>36.69</ele>
   </trkpt>
   <trkpt lat="51.47276000250895" lon="-0.8061600049275307">
    <ele>36.71</ele>
   </trkpt>
   <trkpt lat="51.47247" lon="-0.80693">
    <ele>36.99</ele>
   </trkpt>
   <trkpt lat="51.47209000266994" lon="-0.8077100063271925">
    <ele>36.74</ele>
   </trkpt>
   <trkpt lat="51.47171" lon="-0.80849">
    <ele>36.77</ele>
   </trkpt>
   <trkpt lat="51.47107000247559" lon="-0.8092600108567021">
    <ele>36.57000000000001</ele>
   </trkpt>
   <trkpt lat="51.47043000000001" lon="-0.81003">
    <ele>36.9</ele>
   </trkpt>
   <trkpt lat="51.470330000000004" lon="-0.8102400000000001">
    <ele>37.18000000000001</ele>
   </trkpt>
   <trkpt lat="51.47019" lon="-0.81125">
    <ele>38.25000000000001</ele>
   </trkpt>
   <trkpt lat="51.46992" lon="-0.811">
    <ele>37.900000000000006</ele>
   </trkpt>
   <trkpt lat="51.469770000000004" lon="-0.81091">
    <ele>37.62</ele>
   </trkpt>
   <trkpt lat="51.469530000000006" lon="-0.81091">
    <ele>37.55</ele>
   </trkpt>
   <trkpt lat="51.46934" lon="-0.811">
    <ele>37.50000000000001</ele>
   </trkpt>
   <trkpt lat="51.46923" lon="-0.8110700000000001">
    <ele>37.44</ele>
   </trkpt>
   <trkpt lat="51.468630000000005" lon="-0.81176">
    <ele>36.93000000000001</ele>
   </trkpt>
   <trkpt lat="51.468450000000004" lon="-0.81188">
    <ele>36.71</ele>
   </trkpt>
   <trkpt lat="51.46759" lon="-0.8122900000000001">
    <ele>36.49</ele>
   </trkpt>
   <trkpt lat="51.46680000015802" lon="-0.8125200040015755">
    <ele>36.62</ele>
   </trkpt>
   <trkpt lat="51.466010000000004" lon="-0.8127500000000001">
    <ele>37.63</ele>
   </trkpt>
   <trkpt lat="51.46607" lon="-0.8120700000000001">
    <ele>37.63</ele>
   </trkpt>
   <trkpt lat="51.46605" lon="-0.81157">
    <ele>37.71</ele>
   </trkpt>
   <trkpt lat="51.465990000000005" lon="-0.81132">
    <ele>37.84</ele>
   </trkpt>
   <trkpt lat="51.46571" lon="-0.8107800000000001">
    <ele>38.18000000000001</ele>
   </trkpt>
   <trkpt lat="51.46547" lon="-0.81039">
    <ele>38.650000000000006</ele>
   </trkpt>
   <trkpt lat="51.46519000000001" lon="-0.8097300000000001">
    <ele>39.339999999999996</ele>
   </trkpt>
   <trkpt lat="51.465030000000006" lon="-0.8099500000000001">
    <ele>39.32</ele>
   </trkpt>
   <trkpt lat="51.46490000000001" lon="-0.8101700000000001">
    <ele>39.27</ele>
   </trkpt>
   <trkpt lat="51.464780000000005" lon="-0.8103">
    <ele>39.339999999999996</ele>
   </trkpt>
   <trkpt lat="51.464650000000006" lon="-0.81039">
    <ele>39.49</ele>
   </trkpt>
   <trkpt lat="51.46411000016274" lon="-0.8105400017563785">
    <ele>40.63</ele>
   </trkpt>
   <trkpt lat="51.463570000000004" lon="-0.81069">
    <ele>41.38</ele>
   </trkpt>
   <trkpt lat="51.463100000000004" lon="-0.8107800000000001">
    <ele>41.52</ele>
   </trkpt>
   <trkpt lat="51.462410000000006" lon="-0.81115">
    <ele>42.230000000000004</ele>
   </trkpt>
   <trkpt lat="51.462160000000004" lon="-0.8112">
    <ele>42.580000000000005</ele>
   </trkpt>
   <trkpt lat="51.461980000000004" lon="-0.8111700000000001">
    <ele>42.68</ele>
   </trkpt>
   <trkpt lat="51.46153" lon="-0.81115">
    <ele>43.13</ele>
   </trkpt>
   <trkpt lat="51.461110000000005" lon="-0.81115">
    <ele>43.13</ele>
   </trkpt>
   <trkpt lat="51.46065" lon="-0.81127">
    <ele>43.24</ele>
   </trkpt>
   <trkpt lat="51.45984000000001" lon="-0.8114100000000001">
    <ele>43.93</ele>
   </trkpt>
   <trkpt lat="51.459830000000004" lon="-0.8114100000000001">
    <ele>43.940000000000005</ele>
   </trkpt>
   <trkpt lat="51.45976675213715" lon="-0.8127616872993456">
    <ele>43.24</ele>
   </trkpt>
   <trkpt lat="51.459703488733865" lon="-0.814113370851972">
    <ele>43.03000000000001</ele>
   </trkpt>
   <trkpt lat="51.45964020979023" lon="-0.8154650506569777">
    <ele>42.78</ele>
   </trkpt>
   <trkpt lat="51.459576915306336" lon="-0.8168167267134612">
    <ele>42.830000000000005</ele>
   </trkpt>
   <trkpt lat="51.45951360528224" lon="-0.8181683990205207">
    <ele>43.120000000000005</ele>
   </trkpt>
   <trkpt lat="51.459450279718034" lon="-0.8195200675772548">
    <ele>43.85000000000001</ele>
   </trkpt>
   <trkpt lat="51.4593869386138" lon="-0.8208717323827619">
    <ele>44.18</ele>
   </trkpt>
   <trkpt lat="51.4593235819696" lon="-0.8222233934361408">
    <ele>44.6</ele>
   </trkpt>
   <trkpt lat="51.45926020978552" lon="-0.8235750507364896">
    <ele>46.00000000000001</ele>
   </trkpt>
   <trkpt lat="51.45919682206165" lon="-0.824926704282907">
    <ele>46.48</ele>
   </trkpt>
   <trkpt lat="51.45913341879805" lon="-0.8262783540744918">
    <ele>46.53</ele>
   </trkpt>
   <trkpt lat="51.459070000000004" lon="-0.8276300000000001">
    <ele>47.75</ele>
   </trkpt>
   <trkpt lat="51.45830500044391" lon="-0.8274424905711874">
    <ele>47.59</ele>
   </trkpt>
   <trkpt lat="51.45754000058874" lon="-0.827254987427742">
    <ele>47.86000000000001</ele>
   </trkpt>
   <trkpt lat="51.45677500043457" lon="-0.8270674905692833">
    <ele>48.17</ele>
   </trkpt>
   <trkpt lat="51.456010000000006" lon="-0.8268800000000001">
    <ele>48.17</ele>
   </trkpt>
   <trkpt lat="51.45573" lon="-0.8267800000000001">
    <ele>48.34</ele>
   </trkpt>
   <trkpt lat="51.45548" lon="-0.82667">
    <ele>48.32</ele>
   </trkpt>
   <trkpt lat="51.455090000000006" lon="-0.8264">
    <ele>47.71</ele>
   </trkpt>
   <trkpt lat="51.45483" lon="-0.82625">
    <ele>47.06</ele>
   </trkpt>
   <trkpt lat="51.45459" lon="-0.8261700000000001">
    <ele>47.06</ele>
   </trkpt>
   <trkpt lat="51.454080000000005" lon="-0.8260900000000001">
    <ele>44.72</ele>
   </trkpt>
   <trkpt lat="51.45369" lon="-0.82606">
    <ele>43.65</ele>
   </trkpt>
   <trkpt lat="51.453520000000005" lon="-0.82601">
    <ele>42.54</ele>
   </trkpt>
   <trkpt lat="51.453250000000004" lon="-0.82589">
    <ele>41.7</ele>
   </trkpt>
   <trkpt lat="51.453" lon="-0.8257200000000001">
    <ele>41.230000000000004</ele>
   </trkpt>
   <trkpt lat="51.453250000000004" lon="-0.82589">
    <ele>42.24000000000001</ele>
   </trkpt>
   <trkpt lat="51.453520000000005" lon="-0.82601">
    <ele>42.54</ele>
   </trkpt>
   <trkpt lat="51.45369" lon="-0.82606">
    <ele>43.65</ele>
   </trkpt>
   <trkpt lat="51.454080000000005" lon="-0.8260900000000001">
    <ele>44.72</ele>
   </trkpt>
   <trkpt lat="51.45369" lon="-0.82606">
    <ele>43.65</ele>
   </trkpt>
   <trkpt lat="51.453520000000005" lon="-0.82601">
    <ele>42.54</ele>
   </trkpt>
   <trkpt lat="51.453250000000004" lon="-0.82589">
    <ele>41.7</ele>
   </trkpt>
   <trkpt lat="51.4525122320234" lon="-0.8253532639527252">
    <ele>40.190000000000005</ele>
   </trkpt>
   <trkpt lat="51.45177446159637" lon="-0.8248165452529841">
    <ele>39.52</ele>
   </trkpt>
   <trkpt lat="51.45103668871903" lon="-0.824279843899815">
    <ele>39.5</ele>
   </trkpt>
   <trkpt lat="51.45029891339156" lon="-0.8237431598922569">
    <ele>40.080000000000005</ele>
   </trkpt>
   <trkpt lat="51.44956113561406" lon="-0.8232064932293482">
    <ele>40.449999999999996</ele>
   </trkpt>
   <trkpt lat="51.4488233553867" lon="-0.8226698439101282">
    <ele>41.13</ele>
   </trkpt>
   <trkpt lat="51.44808557270962" lon="-0.8221332119336354">
    <ele>44.4</ele>
   </trkpt>
   <trkpt lat="51.447347787582956" lon="-0.8215965972989089">
    <ele>48.0</ele>
   </trkpt>
   <trkpt lat="51.44661000000001" lon="-0.82106">
    <ele>49.49</ele>
   </trkpt>
   <trkpt lat="51.44599000267342" lon="-0.8205999812432362">
    <ele>49.49</ele>
   </trkpt>
   <trkpt lat="51.44537000354674" lon="-0.8201399749781889">
    <ele>48.43</ele>
   </trkpt>
   <trkpt lat="51.44475000262005" lon="-0.8196799812042782">
    <ele>45.410000000000004</ele>
   </trkpt>
   <trkpt lat="51.44413" lon="-0.8192200000000001">
    <ele>43.61</ele>
   </trkpt>
   <trkpt lat="51.44353" lon="-0.8187800000000001">
    <ele>43.61</ele>
   </trkpt>
   <trkpt lat="51.44307500058949" lon="-0.8184349966258004">
    <ele>44.13</ele>
   </trkpt>
   <trkpt lat="51.442620000000005" lon="-0.8180900000000001">
    <ele>44.34</ele>
   </trkpt>
   <trkpt lat="51.44201666814234" lon="-0.8176633220085732">
    <ele>44.550000000000004</ele>
   </trkpt>
   <trkpt lat="51.441413334735984" lon="-0.8172366552904591">
    <ele>45.71</ele>
   </trkpt>
   <trkpt lat="51.440810000000006" lon="-0.81681">
    <ele>47.95</ele>
   </trkpt>
   <trkpt lat="51.4408" lon="-0.8168000000000001">
    <ele>47.980000000000004</ele>
   </trkpt>
   <trkpt lat="51.440310000000004" lon="-0.81644">
    <ele>52.11</ele>
   </trkpt>
   <trkpt lat="51.4401" lon="-0.8163900000000001">
    <ele>52.64000000000001</ele>
   </trkpt>
   <trkpt lat="51.43947000000001" lon="-0.81635">
    <ele>54.77</ele>
   </trkpt>
   <trkpt lat="51.439130000000006" lon="-0.8162900000000001">
    <ele>55.330000000000005</ele>
   </trkpt>
   <trkpt lat="51.43882000000001" lon="-0.8162900000000001">
    <ele>55.25000000000001</ele>
   </trkpt>
   <trkpt lat="51.43869" lon="-0.8163400000000001">
    <ele>55.25000000000001</ele>
   </trkpt>
   <trkpt lat="51.43858" lon="-0.81647">
    <ele>55.25000000000001</ele>
   </trkpt>
   <trkpt lat="51.438340000000004" lon="-0.8169700000000001">
    <ele>54.82000000000001</ele>
   </trkpt>
   <trkpt lat="51.43796667337762" lon="-0.817860014614552">
    <ele>53.69</ele>
   </trkpt>
   <trkpt lat="51.43759334001657" lon="-0.8187500146804192">
    <ele>52.77</ele>
   </trkpt>
   <trkpt lat="51.43722" lon="-0.81964">
    <ele>51.660000000000004</ele>
   </trkpt>
   <trkpt lat="51.437110000000004" lon="-0.8198300000000001">
    <ele>51.59</ele>
   </trkpt>
   <trkpt lat="51.436890000000005" lon="-0.8200500000000001">
    <ele>51.68</ele>
   </trkpt>
   <trkpt lat="51.43636500055207" lon="-0.8203450032882974">
    <ele>52.35000000000001</ele>
   </trkpt>
   <trkpt lat="51.435840000000006" lon="-0.82064">
    <ele>53.540000000000006</ele>
   </trkpt>
   <trkpt lat="51.43510666784845" lon="-0.8210133453217823">
    <ele>54.86000000000001</ele>
   </trkpt>
   <trkpt lat="51.4343733345111" lon="-0.8213866786569204">
    <ele>56.580000000000005</ele>
   </trkpt>
   <trkpt lat="51.433640000000004" lon="-0.82176">
    <ele>57.970000000000006</ele>
   </trkpt>
   <trkpt lat="51.43319500001059" lon="-0.8219600020198642">
    <ele>58.220000000000006</ele>
   </trkpt>
   <trkpt lat="51.432750000000006" lon="-0.8221600000000001">
    <ele>58.080000000000005</ele>
   </trkpt>
   <trkpt lat="51.43253000000001" lon="-0.8222200000000001">
    <ele>58.02</ele>
   </trkpt>
   <trkpt lat="51.43235000000001" lon="-0.82218">
    <ele>58.010000000000005</ele>
   </trkpt>
   <trkpt lat="51.43233000000001" lon="-0.82215">
    <ele>57.77</ele>
   </trkpt>
   <trkpt lat="51.432280000000006" lon="-0.8221400000000001">
    <ele>57.77</ele>
   </trkpt>
   <trkpt lat="51.432230000000004" lon="-0.8222100000000001">
    <ele>57.59</ele>
   </trkpt>
   <trkpt lat="51.43211" lon="-0.8223">
    <ele>57.59</ele>
   </trkpt>
   <trkpt lat="51.43146000022069" lon="-0.8225050029033558">
    <ele>55.550000000000004</ele>
   </trkpt>
   <trkpt lat="51.43081" lon="-0.82271">
    <ele>54.39000000000001</ele>
   </trkpt>
   <trkpt lat="51.42998000000001" lon="-0.8231">
    <ele>53.45</ele>
   </trkpt>
   <trkpt lat="51.42955500033781" lon="-0.8233600023877259">
    <ele>53.45</ele>
   </trkpt>
   <trkpt lat="51.42913" lon="-0.82362">
    <ele>53.03000000000001</ele>
   </trkpt>
   <trkpt lat="51.428670000000004" lon="-0.8237800000000001">
    <ele>52.620000000000005</ele>
   </trkpt>
   <trkpt lat="51.42812000000001" lon="-0.8239500000000001">
    <ele>51.410000000000004</ele>
   </trkpt>
   <trkpt lat="51.42749000009814" lon="-0.8240850018568948">
    <ele>50.99000000000001</ele>
   </trkpt>
   <trkpt lat="51.426860000000005" lon="-0.8242200000000001">
    <ele>53.18000000000001</ele>
   </trkpt>
   <trkpt lat="51.426279999882375" lon="-0.8241249987686387">
    <ele>56.06</ele>
   </trkpt>
   <trkpt lat="51.425700000000006" lon="-0.82403">
    <ele>57.53</ele>
   </trkpt>
   <trkpt lat="51.42512000000001" lon="-0.8239700000000001">
    <ele>56.940000000000005</ele>
   </trkpt>
   <trkpt lat="51.424665000042665" lon="-0.8238999993063918">
    <ele>54.82000000000001</ele>
   </trkpt>
   <trkpt lat="51.42421" lon="-0.8238300000000001">
    <ele>53.77</ele>
   </trkpt>
   <trkpt lat="51.42398000000001" lon="-0.82384">
    <ele>53.660000000000004</ele>
   </trkpt>
   <trkpt lat="51.42385" lon="-0.8238300000000001">
    <ele>53.720000000000006</ele>
   </trkpt>
   <trkpt lat="51.423770000000005" lon="-0.82379">
    <ele>53.95</ele>
   </trkpt>
   <trkpt lat="51.42374" lon="-0.82374">
    <ele>53.95</ele>
   </trkpt>
   <trkpt lat="51.42362000000001" lon="-0.8237000000000001">
    <ele>54.040000000000006</ele>
   </trkpt>
   <trkpt lat="51.423570000000005" lon="-0.82374">
    <ele>54.040000000000006</ele>
   </trkpt>
   <trkpt lat="51.42352" lon="-0.8238300000000001">
    <ele>54.02</ele>
   </trkpt>
   <trkpt lat="51.42351000000001" lon="-0.82393">
    <ele>54.02</ele>
   </trkpt>
   <trkpt lat="51.42354" lon="-0.82406">
    <ele>53.88</ele>
   </trkpt>
   <trkpt lat="51.423570000000005" lon="-0.8241100000000001">
    <ele>53.88</ele>
   </trkpt>
   <trkpt lat="51.42362000000001" lon="-0.8244600000000001">
    <ele>53.28</ele>
   </trkpt>
   <trkpt lat="51.42362000000001" lon="-0.82537">
    <ele>52.53000000000001</ele>
   </trkpt>
   <trkpt lat="51.42360000000001" lon="-0.82581">
    <ele>51.980000000000004</ele>
   </trkpt>
   <trkpt lat="51.42358" lon="-0.82593">
    <ele>51.980000000000004</ele>
   </trkpt>
   <trkpt lat="51.42352" lon="-0.82608">
    <ele>51.980000000000004</ele>
   </trkpt>
   <trkpt lat="51.42338" lon="-0.82632">
    <ele>51.29</ele>
   </trkpt>
   <trkpt lat="51.423320000000004" lon="-0.82647">
    <ele>51.29</ele>
   </trkpt>
   <trkpt lat="51.42317000276358" lon="-0.8272800028073197">
    <ele>50.63</ele>
   </trkpt>
   <trkpt lat="51.42302" lon="-0.8280900000000001">
    <ele>49.56</ele>
   </trkpt>
   <trkpt lat="51.42302" lon="-0.8281200000000001">
    <ele>49.550000000000004</ele>
   </trkpt>
   <trkpt lat="51.422845003544595" lon="-0.8290250031532513">
    <ele>49.940000000000005</ele>
   </trkpt>
   <trkpt lat="51.422670000000004" lon="-0.8299300000000001">
    <ele>50.38</ele>
   </trkpt>
   <trkpt lat="51.42250000000001" lon="-0.83057">
    <ele>50.620000000000005</ele>
   </trkpt>
   <trkpt lat="51.42230000000001" lon="-0.8310000000000001">
    <ele>51.0</ele>
   </trkpt>
   <trkpt lat="51.42211" lon="-0.83135">
    <ele>51.760000000000005</ele>
   </trkpt>
   <trkpt lat="51.42186" lon="-0.83167">
    <ele>52.690000000000005</ele>
   </trkpt>
   <trkpt lat="51.421690000000005" lon="-0.8322">
    <ele>52.71000000000001</ele>
   </trkpt>
   <trkpt lat="51.421580000000006" lon="-0.8328300000000001">
    <ele>52.7</ele>
   </trkpt>
   <trkpt lat="51.42161" lon="-0.83311">
    <ele>52.71000000000001</ele>
   </trkpt>
   <trkpt lat="51.421440000000004" lon="-0.8332200000000001">
    <ele>53.43000000000001</ele>
   </trkpt>
   <trkpt lat="51.42145000000001" lon="-0.8333">
    <ele>53.43000000000001</ele>
   </trkpt>
   <trkpt lat="51.421220000000005" lon="-0.83335">
    <ele>54.040000000000006</ele>
   </trkpt>
   <trkpt lat="51.42116000000001" lon="-0.8334100000000001">
    <ele>54.49</ele>
   </trkpt>
   <trkpt lat="51.420280000000005" lon="-0.83325">
    <ele>56.28</ele>
   </trkpt>
   <trkpt lat="51.42024000000001" lon="-0.8338300000000001">
    <ele>56.580000000000005</ele>
   </trkpt>
   <trkpt lat="51.42024000000001" lon="-0.83384">
    <ele>56.59</ele>
   </trkpt>
   <trkpt lat="51.42022000000001" lon="-0.83435">
    <ele>56.71</ele>
   </trkpt>
   <trkpt lat="51.420260000000006" lon="-0.83462">
    <ele>56.64</ele>
   </trkpt>
   <trkpt lat="51.42043000200117" lon="-0.8353149971953634">
    <ele>55.470000000000006</ele>
   </trkpt>
   <trkpt lat="51.42060000000001" lon="-0.83601">
    <ele>55.45</ele>
   </trkpt>
   <trkpt lat="51.42074" lon="-0.8369300000000001">
    <ele>55.39</ele>
   </trkpt>
   <trkpt lat="51.420820000000006" lon="-0.8380700000000001">
    <ele>56.14</ele>
   </trkpt>
   <trkpt lat="51.42087" lon="-0.83813">
    <ele>56.18000000000001</ele>
   </trkpt>
  </trkseg>
 </trk>
</gpx>
