<?xml version="1.0" encoding="UTF-8"?>
<gpx creator="StravaGPX" version="1.1" xmlns="http://www.topografix.com/GPX/1/1" xmlns:xsi="http://www.w3.org/2001/XMLSchema-instance" xsi:schemaLocation="http://www.topografix.com/GPX/1/1 http://www.topografix.com/GPX/1/1/gpx.xsd">
 <metadata>
  <name>A WCC  Evening  Gravel v6</name>
  <author>
   <name>Andy Gundry</name>
   <link href="https://www.strava.com/athletes/25556211"/>
  </author>
  <copyright author="OpenStreetMap contributors">
   <year>2020</year>
   <license>https://www.openstreetmap.org/copyright</license>
  </copyright>
  <link href="https://www.strava.com/routes/3502670141225400302"/>
 </metadata>
 <trk>
  <name>A WCC  Evening  Gravel v6</name>
  <link href="https://www.strava.com/routes/3502670141225400302"/>
  <type>gravel_biking</type>
  <trkseg>
   <trkpt lat="51.420910000000006" lon="-0.83828">
    <ele>56.1</ele>
   </trkpt>
   <trkpt lat="51.42103000242552" lon="-0.8390399978037817">
    <ele>55.690000000000005</ele>
   </trkpt>
   <trkpt lat="51.421150000000004" lon="-0.8398000000000001">
    <ele>55.38</ele>
   </trkpt>
   <trkpt lat="51.421040000000005" lon="-0.83986">
    <ele>55.36000000000001</ele>
   </trkpt>
   <trkpt lat="51.42103" lon="-0.8398800000000001">
    <ele>55.36000000000001</ele>
   </trkpt>
   <trkpt lat="51.421150000000004" lon="-0.8404900000000001">
    <ele>55.31</ele>
   </trkpt>
   <trkpt lat="51.4211" lon="-0.84052">
    <ele>55.370000000000005</ele>
   </trkpt>
   <trkpt lat="51.42108" lon="-0.84067">
    <ele>55.38</ele>
   </trkpt>
   <trkpt lat="51.420860000000005" lon="-0.8407500000000001">
    <ele>55.7</ele>
   </trkpt>
   <trkpt lat="51.420384999852146" lon="-0.8408150006982165">
    <ele>57.34</ele>
   </trkpt>
   <trkpt lat="51.41991" lon="-0.8408800000000001">
    <ele>58.31000000000001</ele>
   </trkpt>
   <trkpt lat="51.41987" lon="-0.8408800000000001">
    <ele>58.31000000000001</ele>
   </trkpt>
   <trkpt lat="51.419720000000005" lon="-0.84084">
    <ele>59.370000000000005</ele>
   </trkpt>
   <trkpt lat="51.419560000000004" lon="-0.8407300000000001">
    <ele>59.88</ele>
   </trkpt>
   <trkpt lat="51.419500000000006" lon="-0.8410000000000001">
    <ele>59.77</ele>
   </trkpt>
   <trkpt lat="51.41962" lon="-0.8411000000000001">
    <ele>59.57</ele>
   </trkpt>
   <trkpt lat="51.4196" lon="-0.84118">
    <ele>59.4</ele>
   </trkpt>
   <trkpt lat="51.419630000000005" lon="-0.84135">
    <ele>59.190000000000005</ele>
   </trkpt>
   <trkpt lat="51.420010000000005" lon="-0.84216">
    <ele>57.550000000000004</ele>
   </trkpt>
   <trkpt lat="51.4202" lon="-0.8425">
    <ele>56.900000000000006</ele>
   </trkpt>
   <trkpt lat="51.420625001651594" lon="-0.8431099944262077">
    <ele>56.480000000000004</ele>
   </trkpt>
   <trkpt lat="51.42105" lon="-0.84372">
    <ele>55.86000000000001</ele>
   </trkpt>
   <trkpt lat="51.421420000000005" lon="-0.8443">
    <ele>55.470000000000006</ele>
   </trkpt>
   <trkpt lat="51.421820000000004" lon="-0.84516">
    <ele>55.040000000000006</ele>
   </trkpt>
   <trkpt lat="51.422230000000006" lon="-0.8461200000000001">
    <ele>53.68000000000001</ele>
   </trkpt>
   <trkpt lat="51.42233" lon="-0.84643">
    <ele>53.540000000000006</ele>
   </trkpt>
   <trkpt lat="51.42264" lon="-0.8476800000000001">
    <ele>50.870000000000005</ele>
   </trkpt>
   <trkpt lat="51.422760000000004" lon="-0.8476400000000001">
    <ele>51.27</ele>
   </trkpt>
   <trkpt lat="51.422900000000006" lon="-0.84845">
    <ele>48.150000000000006</ele>
   </trkpt>
   <trkpt lat="51.422760000000004" lon="-0.8476400000000001">
    <ele>51.27</ele>
   </trkpt>
   <trkpt lat="51.42264" lon="-0.8476800000000001">
    <ele>50.870000000000005</ele>
   </trkpt>
   <trkpt lat="51.42287" lon="-0.8490500000000001">
    <ele>45.27</ele>
   </trkpt>
   <trkpt lat="51.42309" lon="-0.8500900000000001">
    <ele>43.45</ele>
   </trkpt>
   <trkpt lat="51.42311" lon="-0.8503000000000001">
    <ele>43.45</ele>
   </trkpt>
   <trkpt lat="51.42306000000001" lon="-0.8505">
    <ele>43.45</ele>
   </trkpt>
   <trkpt lat="51.42284" lon="-0.8511000000000001">
    <ele>43.370000000000005</ele>
   </trkpt>
   <trkpt lat="51.42278" lon="-0.85143">
    <ele>43.54</ele>
   </trkpt>
   <trkpt lat="51.42280000306605" lon="-0.8522799993074156">
    <ele>44.7</ele>
   </trkpt>
   <trkpt lat="51.42282" lon="-0.85313">
    <ele>46.470000000000006</ele>
   </trkpt>
   <trkpt lat="51.4228" lon="-0.8538600000000001">
    <ele>47.75</ele>
   </trkpt>
   <trkpt lat="51.422830000000005" lon="-0.85421">
    <ele>48.45</ele>
   </trkpt>
   <trkpt lat="51.422830000000005" lon="-0.8542200000000001">
    <ele>48.45</ele>
   </trkpt>
   <trkpt lat="51.42271" lon="-0.85433">
    <ele>48.84</ele>
   </trkpt>
   <trkpt lat="51.422610000000006" lon="-0.8544">
    <ele>48.84</ele>
   </trkpt>
   <trkpt lat="51.422430000000006" lon="-0.8544700000000001">
    <ele>49.35</ele>
   </trkpt>
   <trkpt lat="51.422070000000005" lon="-0.8545200000000001">
    <ele>49.67</ele>
   </trkpt>
   <trkpt lat="51.421580000000006" lon="-0.8545200000000001">
    <ele>49.92</ele>
   </trkpt>
   <trkpt lat="51.42132" lon="-0.8544700000000001">
    <ele>49.92</ele>
   </trkpt>
   <trkpt lat="51.42108" lon="-0.8545">
    <ele>49.690000000000005</ele>
   </trkpt>
   <trkpt lat="51.42034" lon="-0.85465">
    <ele>47.68000000000001</ele>
   </trkpt>
   <trkpt lat="51.42025" lon="-0.85465">
    <ele>47.940000000000005</ele>
   </trkpt>
   <trkpt lat="51.41955" lon="-0.8544700000000001">
    <ele>46.910000000000004</ele>
   </trkpt>
   <trkpt lat="51.41933" lon="-0.85445">
    <ele>47.24</ele>
   </trkpt>
   <trkpt lat="51.41921000000001" lon="-0.85445">
    <ele>47.330000000000005</ele>
   </trkpt>
   <trkpt lat="51.41902" lon="-0.8545">
    <ele>47.730000000000004</ele>
   </trkpt>
   <trkpt lat="51.419445004166604" lon="-0.8554899907876555">
    <ele>48.330000000000005</ele>
   </trkpt>
   <trkpt lat="51.41987" lon="-0.85648">
    <ele>50.49000000000001</ele>
   </trkpt>
   <trkpt lat="51.4203462944114" lon="-0.8577011609157991">
    <ele>53.470000000000006</ele>
   </trkpt>
   <trkpt lat="51.42082257613449" lon="-0.8589223472829229">
    <ele>54.99</ele>
   </trkpt>
   <trkpt lat="51.42129884516882" lon="-0.8601435591016579">
    <ele>55.50000000000001</ele>
   </trkpt>
   <trkpt lat="51.42177510151389" lon="-0.8613647963722905">
    <ele>55.63</ele>
   </trkpt>
   <trkpt lat="51.42225134516922" lon="-0.8625860590951068">
    <ele>55.42</ele>
   </trkpt>
   <trkpt lat="51.42272757613434" lon="-0.863807347270393">
    <ele>53.36000000000001</ele>
   </trkpt>
   <trkpt lat="51.42320379440876" lon="-0.8650286608984354">
    <ele>52.24</ele>
   </trkpt>
   <trkpt lat="51.423680000000004" lon="-0.8662500000000001">
    <ele>53.18000000000001</ele>
   </trkpt>
   <trkpt lat="51.424060000000004" lon="-0.8671800000000001">
    <ele>54.650000000000006</ele>
   </trkpt>
   <trkpt lat="51.42425" lon="-0.8676">
    <ele>55.040000000000006</ele>
   </trkpt>
   <trkpt lat="51.42425" lon="-0.8676200000000001">
    <ele>55.05</ele>
   </trkpt>
   <trkpt lat="51.42371000000001" lon="-0.86821">
    <ele>55.220000000000006</ele>
   </trkpt>
   <trkpt lat="51.42356" lon="-0.8683000000000001">
    <ele>55.300000000000004</ele>
   </trkpt>
   <trkpt lat="51.42269" lon="-0.86858">
    <ele>55.99</ele>
   </trkpt>
   <trkpt lat="51.42215" lon="-0.86867">
    <ele>56.21</ele>
   </trkpt>
   <trkpt lat="51.42184" lon="-0.8688400000000001">
    <ele>56.42</ele>
   </trkpt>
   <trkpt lat="51.42165000000001" lon="-0.86892">
    <ele>56.42</ele>
   </trkpt>
   <trkpt lat="51.42134" lon="-0.8689600000000001">
    <ele>56.92</ele>
   </trkpt>
   <trkpt lat="51.421240000000004" lon="-0.8690100000000001">
    <ele>56.96</ele>
   </trkpt>
   <trkpt lat="51.421020000000006" lon="-0.86909">
    <ele>57.35</ele>
   </trkpt>
   <trkpt lat="51.4202" lon="-0.86955">
    <ele>59.07</ele>
   </trkpt>
   <trkpt lat="51.41982" lon="-0.8697400000000001">
    <ele>59.07</ele>
   </trkpt>
   <trkpt lat="51.41966000000001" lon="-0.86994">
    <ele>61.07000000000001</ele>
   </trkpt>
   <trkpt lat="51.41928500366284" lon="-0.8708600073958616">
    <ele>61.620000000000005</ele>
   </trkpt>
   <trkpt lat="51.418910000000004" lon="-0.8717800000000001">
    <ele>63.03</ele>
   </trkpt>
   <trkpt lat="51.41877" lon="-0.87236">
    <ele>63.38</ele>
   </trkpt>
   <trkpt lat="51.41865000000001" lon="-0.87302">
    <ele>63.61</ele>
   </trkpt>
   <trkpt lat="51.41854000000001" lon="-0.87372">
    <ele>64.17</ele>
   </trkpt>
   <trkpt lat="51.418400000000005" lon="-0.87477">
    <ele>64.23</ele>
   </trkpt>
   <trkpt lat="51.41841" lon="-0.8752800000000001">
    <ele>63.65000000000001</ele>
   </trkpt>
   <trkpt lat="51.41826500616557" lon="-0.8764850039202106">
    <ele>62.64</ele>
   </trkpt>
   <trkpt lat="51.41812" lon="-0.8776900000000001">
    <ele>64.87</ele>
   </trkpt>
   <trkpt lat="51.41808500329214" lon="-0.8785700007335078">
    <ele>64.97</ele>
   </trkpt>
   <trkpt lat="51.41805" lon="-0.8794500000000001">
    <ele>65.01</ele>
   </trkpt>
   <trkpt lat="51.418110000000006" lon="-0.88016">
    <ele>65.39</ele>
   </trkpt>
   <trkpt lat="51.4181" lon="-0.8814200000000001">
    <ele>66.36</ele>
   </trkpt>
   <trkpt lat="51.41808" lon="-0.88231">
    <ele>66.31</ele>
   </trkpt>
   <trkpt lat="51.41801" lon="-0.8825400000000001">
    <ele>65.9</ele>
   </trkpt>
   <trkpt lat="51.41814" lon="-0.8826600000000001">
    <ele>65.25999999999999</ele>
   </trkpt>
   <trkpt lat="51.41841" lon="-0.8828400000000001">
    <ele>64.05000000000001</ele>
   </trkpt>
   <trkpt lat="51.419090000000004" lon="-0.88319">
    <ele>61.58</ele>
   </trkpt>
   <trkpt lat="51.41971000005601" lon="-0.8833599976756181">
    <ele>59.59</ele>
   </trkpt>
   <trkpt lat="51.42033000000001" lon="-0.88353">
    <ele>57.99000000000001</ele>
   </trkpt>
   <trkpt lat="51.420280000000005" lon="-0.88382">
    <ele>58.14</ele>
   </trkpt>
   <trkpt lat="51.420280000000005" lon="-0.8840600000000001">
    <ele>57.550000000000004</ele>
   </trkpt>
   <trkpt lat="51.42054000297853" lon="-0.8848949952897592">
    <ele>56.370000000000005</ele>
   </trkpt>
   <trkpt lat="51.42080000000001" lon="-0.88573">
    <ele>55.57</ele>
   </trkpt>
   <trkpt lat="51.420930000000006" lon="-0.88621">
    <ele>55.14</ele>
   </trkpt>
   <trkpt lat="51.42108500245005" lon="-0.8869649975616122">
    <ele>54.27</ele>
   </trkpt>
   <trkpt lat="51.421240000000004" lon="-0.8877200000000001">
    <ele>54.01</ele>
   </trkpt>
   <trkpt lat="51.42127000000001" lon="-0.8880100000000001">
    <ele>53.970000000000006</ele>
   </trkpt>
   <trkpt lat="51.421260000000004" lon="-0.88807">
    <ele>53.970000000000006</ele>
   </trkpt>
   <trkpt lat="51.421150000000004" lon="-0.8883000000000001">
    <ele>53.970000000000006</ele>
   </trkpt>
   <trkpt lat="51.42105" lon="-0.8884500000000001">
    <ele>54.040000000000006</ele>
   </trkpt>
   <trkpt lat="51.42048667084387" lon="-0.8891533507106492">
    <ele>54.150000000000006</ele>
   </trkpt>
   <trkpt lat="51.41992333747869" lon="-0.8898566840834226">
    <ele>54.52</ele>
   </trkpt>
   <trkpt lat="51.419360000000005" lon="-0.89056">
    <ele>54.78</ele>
   </trkpt>
   <trkpt lat="51.4196" lon="-0.89119">
    <ele>53.94</ele>
   </trkpt>
   <trkpt lat="51.41989" lon="-0.8922300000000001">
    <ele>53.1</ele>
   </trkpt>
   <trkpt lat="51.42004000000001" lon="-0.89258">
    <ele>52.67</ele>
   </trkpt>
   <trkpt lat="51.420010000000005" lon="-0.89275">
    <ele>52.51</ele>
   </trkpt>
   <trkpt lat="51.41939000000001" lon="-0.89358">
    <ele>52.56</ele>
   </trkpt>
   <trkpt lat="51.41881000000001" lon="-0.89451">
    <ele>52.64000000000001</ele>
   </trkpt>
   <trkpt lat="51.418530000000004" lon="-0.89507">
    <ele>52.56</ele>
   </trkpt>
   <trkpt lat="51.418260000000004" lon="-0.89551">
    <ele>52.65</ele>
   </trkpt>
   <trkpt lat="51.41809000000001" lon="-0.8957200000000001">
    <ele>52.59</ele>
   </trkpt>
   <trkpt lat="51.41801" lon="-0.89595">
    <ele>52.43000000000001</ele>
   </trkpt>
   <trkpt lat="51.417880000000004" lon="-0.89675">
    <ele>51.77</ele>
   </trkpt>
   <trkpt lat="51.417730000000006" lon="-0.8973500000000001">
    <ele>51.92</ele>
   </trkpt>
   <trkpt lat="51.417790000000004" lon="-0.89768">
    <ele>51.60000000000001</ele>
   </trkpt>
   <trkpt lat="51.417860000000005" lon="-0.8978200000000001">
    <ele>51.38</ele>
   </trkpt>
   <trkpt lat="51.418380000000006" lon="-0.8982600000000001">
    <ele>50.480000000000004</ele>
   </trkpt>
   <trkpt lat="51.41868" lon="-0.89868">
    <ele>49.510000000000005</ele>
   </trkpt>
   <trkpt lat="51.41897" lon="-0.89924">
    <ele>49.1</ele>
   </trkpt>
   <trkpt lat="51.41902" lon="-0.89951">
    <ele>48.900000000000006</ele>
   </trkpt>
   <trkpt lat="51.41901000000001" lon="-0.89963">
    <ele>48.900000000000006</ele>
   </trkpt>
   <trkpt lat="51.418960000000006" lon="-0.8998">
    <ele>48.5</ele>
   </trkpt>
   <trkpt lat="51.41904" lon="-0.8999">
    <ele>48.5</ele>
   </trkpt>
   <trkpt lat="51.41913" lon="-0.89997">
    <ele>47.830000000000005</ele>
   </trkpt>
   <trkpt lat="51.41930000000001" lon="-0.9000400000000001">
    <ele>47.49</ele>
   </trkpt>
   <trkpt lat="51.419500000000006" lon="-0.90024">
    <ele>47.2</ele>
   </trkpt>
   <trkpt lat="51.419045003393634" lon="-0.9011300088129591">
    <ele>47.550000000000004</ele>
   </trkpt>
   <trkpt lat="51.41859" lon="-0.90202">
    <ele>47.49</ele>
   </trkpt>
   <trkpt lat="51.41808" lon="-0.9025500000000001">
    <ele>46.77</ele>
   </trkpt>
   <trkpt lat="51.41799" lon="-0.90268">
    <ele>46.230000000000004</ele>
   </trkpt>
   <trkpt lat="51.4177" lon="-0.90339">
    <ele>45.21000000000001</ele>
   </trkpt>
   <trkpt lat="51.41751000000001" lon="-0.90397">
    <ele>45.59</ele>
   </trkpt>
   <trkpt lat="51.417410000000004" lon="-0.9043800000000001">
    <ele>46.28</ele>
   </trkpt>
   <trkpt lat="51.41724000000001" lon="-0.90495">
    <ele>46.05</ele>
   </trkpt>
   <trkpt lat="51.416970000000006" lon="-0.90578">
    <ele>45.15</ele>
   </trkpt>
   <trkpt lat="51.416830000000004" lon="-0.9061000000000001">
    <ele>44.71000000000001</ele>
   </trkpt>
   <trkpt lat="51.416630000000005" lon="-0.90663">
    <ele>43.46000000000001</ele>
   </trkpt>
   <trkpt lat="51.416250000000005" lon="-0.9073700000000001">
    <ele>40.910000000000004</ele>
   </trkpt>
   <trkpt lat="51.415855001705005" lon="-0.9079750050013943">
    <ele>42.190000000000005</ele>
   </trkpt>
   <trkpt lat="51.41546" lon="-0.90858">
    <ele>45.160000000000004</ele>
   </trkpt>
   <trkpt lat="51.41534000000001" lon="-0.90868">
    <ele>46.24</ele>
   </trkpt>
   <trkpt lat="51.415290000000006" lon="-0.9087000000000001">
    <ele>46.24</ele>
   </trkpt>
   <trkpt lat="51.41521" lon="-0.90873">
    <ele>46.42</ele>
   </trkpt>
   <trkpt lat="51.414730000000006" lon="-0.9087000000000001">
    <ele>47.66</ele>
   </trkpt>
   <trkpt lat="51.41467" lon="-0.9087200000000001">
    <ele>47.66</ele>
   </trkpt>
   <trkpt lat="51.414390000000004" lon="-0.90863">
    <ele>47.64</ele>
   </trkpt>
   <trkpt lat="51.41434" lon="-0.9088400000000001">
    <ele>47.74</ele>
   </trkpt>
   <trkpt lat="51.41423" lon="-0.90922">
    <ele>47.89</ele>
   </trkpt>
   <trkpt lat="51.41369" lon="-0.91007">
    <ele>48.220000000000006</ele>
   </trkpt>
   <trkpt lat="51.41317" lon="-0.9109700000000001">
    <ele>48.150000000000006</ele>
   </trkpt>
   <trkpt lat="51.412910000000004" lon="-0.9112600000000001">
    <ele>48.13</ele>
   </trkpt>
   <trkpt lat="51.41248" lon="-0.9115800000000001">
    <ele>48.260000000000005</ele>
   </trkpt>
   <trkpt lat="51.41205" lon="-0.912">
    <ele>48.2</ele>
   </trkpt>
   <trkpt lat="51.41194" lon="-0.9120600000000001">
    <ele>48.25</ele>
   </trkpt>
   <trkpt lat="51.411950000000004" lon="-0.91224">
    <ele>48.25</ele>
   </trkpt>
   <trkpt lat="51.41156" lon="-0.91268">
    <ele>48.21</ele>
   </trkpt>
   <trkpt lat="51.411170000000006" lon="-0.9131900000000001">
    <ele>48.17</ele>
   </trkpt>
   <trkpt lat="51.410505003820866" lon="-0.9141300135849204">
    <ele>48.49</ele>
   </trkpt>
   <trkpt lat="51.40984" lon="-0.91507">
    <ele>48.480000000000004</ele>
   </trkpt>
   <trkpt lat="51.409530000000004" lon="-0.9157600000000001">
    <ele>48.35</ele>
   </trkpt>
   <trkpt lat="51.40912" lon="-0.9170200000000001">
    <ele>47.010000000000005</ele>
   </trkpt>
   <trkpt lat="51.40878000385124" lon="-0.9179750071829053">
    <ele>46.75000000000001</ele>
   </trkpt>
   <trkpt lat="51.408440000000006" lon="-0.91893">
    <ele>46.24</ele>
   </trkpt>
   <trkpt lat="51.40807500529333" lon="-0.9200500090743056">
    <ele>45.040000000000006</ele>
   </trkpt>
   <trkpt lat="51.40771" lon="-0.92117">
    <ele>46.25000000000001</ele>
   </trkpt>
   <trkpt lat="51.407450000000004" lon="-0.9219200000000001">
    <ele>46.510000000000005</ele>
   </trkpt>
   <trkpt lat="51.407360000000004" lon="-0.9221100000000001">
    <ele>46.46</ele>
   </trkpt>
   <trkpt lat="51.40715" lon="-0.92273">
    <ele>46.1</ele>
   </trkpt>
   <trkpt lat="51.407050000000005" lon="-0.9229700000000001">
    <ele>45.95</ele>
   </trkpt>
   <trkpt lat="51.40695" lon="-0.92339">
    <ele>45.50000000000001</ele>
   </trkpt>
   <trkpt lat="51.40690000000001" lon="-0.9235500000000001">
    <ele>45.37</ele>
   </trkpt>
   <trkpt lat="51.406380000000006" lon="-0.9229">
    <ele>46.25000000000001</ele>
   </trkpt>
   <trkpt lat="51.406130000000005" lon="-0.9227200000000001">
    <ele>46.3</ele>
   </trkpt>
   <trkpt lat="51.40571500081196" lon="-0.9222749959287652">
    <ele>46.64</ele>
   </trkpt>
   <trkpt lat="51.405300000000004" lon="-0.92183">
    <ele>47.24</ele>
   </trkpt>
   <trkpt lat="51.404776669273595" lon="-0.9212766540038293">
    <ele>47.580000000000005</ele>
   </trkpt>
   <trkpt lat="51.40425333594172" lon="-0.9207233206722246">
    <ele>47.67</ele>
   </trkpt>
   <trkpt lat="51.40373" lon="-0.92017">
    <ele>47.74</ele>
   </trkpt>
   <trkpt lat="51.40345000000001" lon="-0.9199200000000001">
    <ele>47.99</ele>
   </trkpt>
   <trkpt lat="51.403270000000006" lon="-0.9198400000000001">
    <ele>47.75</ele>
   </trkpt>
   <trkpt lat="51.403090000000006" lon="-0.9198000000000001">
    <ele>47.68000000000001</ele>
   </trkpt>
   <trkpt lat="51.40298000000001" lon="-0.91966">
    <ele>47.68000000000001</ele>
   </trkpt>
   <trkpt lat="51.40296000000001" lon="-0.9195800000000001">
    <ele>47.68000000000001</ele>
   </trkpt>
   <trkpt lat="51.40296000000001" lon="-0.9195200000000001">
    <ele>47.68000000000001</ele>
   </trkpt>
   <trkpt lat="51.40296000000001" lon="-0.91954">
    <ele>47.68000000000001</ele>
   </trkpt>
   <trkpt lat="51.40301" lon="-0.9183100000000001">
    <ele>48.0</ele>
   </trkpt>
   <trkpt lat="51.40297" lon="-0.9180100000000001">
    <ele>48.13</ele>
   </trkpt>
   <trkpt lat="51.40303" lon="-0.9177900000000001">
    <ele>48.28</ele>
   </trkpt>
   <trkpt lat="51.40305000000001" lon="-0.91766">
    <ele>48.28</ele>
   </trkpt>
   <trkpt lat="51.403110002677124" lon="-0.9168650012021863">
    <ele>48.67</ele>
   </trkpt>
   <trkpt lat="51.40317" lon="-0.91607">
    <ele>49.17</ele>
   </trkpt>
   <trkpt lat="51.403180000000006" lon="-0.91561">
    <ele>50.050000000000004</ele>
   </trkpt>
   <trkpt lat="51.40316000000001" lon="-0.9148000000000001">
    <ele>52.18</ele>
   </trkpt>
   <trkpt lat="51.40319" lon="-0.9143600000000001">
    <ele>53.27</ele>
   </trkpt>
   <trkpt lat="51.40337" lon="-0.9137000000000001">
    <ele>54.24</ele>
   </trkpt>
   <trkpt lat="51.403490000000005" lon="-0.91334">
    <ele>54.24</ele>
   </trkpt>
   <trkpt lat="51.40370000000001" lon="-0.91229">
    <ele>57.690000000000005</ele>
   </trkpt>
   <trkpt lat="51.40388" lon="-0.9117200000000001">
    <ele>58.38</ele>
   </trkpt>
   <trkpt lat="51.40393" lon="-0.91144">
    <ele>58.38</ele>
   </trkpt>
   <trkpt lat="51.40391" lon="-0.9108700000000001">
    <ele>58.97</ele>
   </trkpt>
   <trkpt lat="51.403960000000005" lon="-0.90958">
    <ele>59.85000000000001</ele>
   </trkpt>
   <trkpt lat="51.40393" lon="-0.90927">
    <ele>59.99</ele>
   </trkpt>
   <trkpt lat="51.4037400033326" lon="-0.9083899965186415">
    <ele>59.52</ele>
   </trkpt>
   <trkpt lat="51.40355" lon="-0.90751">
    <ele>56.870000000000005</ele>
   </trkpt>
   <trkpt lat="51.403470000000006" lon="-0.90705">
    <ele>55.980000000000004</ele>
   </trkpt>
   <trkpt lat="51.403360000000006" lon="-0.9062100000000001">
    <ele>56.480000000000004</ele>
   </trkpt>
   <trkpt lat="51.403310000000005" lon="-0.9060900000000001">
    <ele>56.480000000000004</ele>
   </trkpt>
   <trkpt lat="51.40344" lon="-0.9058700000000001">
    <ele>56.230000000000004</ele>
   </trkpt>
   <trkpt lat="51.403620000000004" lon="-0.9054300000000001">
    <ele>54.080000000000005</ele>
   </trkpt>
   <trkpt lat="51.40381000000001" lon="-0.90473">
    <ele>51.65</ele>
   </trkpt>
   <trkpt lat="51.40388" lon="-0.90439">
    <ele>51.65</ele>
   </trkpt>
   <trkpt lat="51.40388" lon="-0.9043800000000001">
    <ele>51.63</ele>
   </trkpt>
   <trkpt lat="51.404110004300605" lon="-0.9033800048299436">
    <ele>48.1</ele>
   </trkpt>
   <trkpt lat="51.404340000000005" lon="-0.9023800000000001">
    <ele>46.01</ele>
   </trkpt>
   <trkpt lat="51.404300000000006" lon="-0.90236">
    <ele>46.00000000000001</ele>
   </trkpt>
   <trkpt lat="51.40429" lon="-0.90141">
    <ele>44.63</ele>
   </trkpt>
   <trkpt lat="51.404230000000005" lon="-0.9009">
    <ele>44.26</ele>
   </trkpt>
   <trkpt lat="51.40413" lon="-0.9003800000000001">
    <ele>44.25000000000001</ele>
   </trkpt>
   <trkpt lat="51.40404" lon="-0.9000900000000001">
    <ele>44.35</ele>
   </trkpt>
   <trkpt lat="51.40401000000001" lon="-0.8998700000000001">
    <ele>45.01</ele>
   </trkpt>
   <trkpt lat="51.40399000000001" lon="-0.89963">
    <ele>46.36000000000001</ele>
   </trkpt>
   <trkpt lat="51.40393" lon="-0.89829">
    <ele>53.85</ele>
   </trkpt>
   <trkpt lat="51.4038600110621" lon="-0.8971499965607387">
    <ele>57.650000000000006</ele>
   </trkpt>
   <trkpt lat="51.403790011065176" lon="-0.8960099966110816">
    <ele>62.36000000000001</ele>
   </trkpt>
   <trkpt lat="51.40372000000001" lon="-0.89487">
    <ele>64.53999999999999</ele>
   </trkpt>
   <trkpt lat="51.40382" lon="-0.8944200000000001">
    <ele>64.91000000000001</ele>
   </trkpt>
   <trkpt lat="51.404050000000005" lon="-0.89365">
    <ele>66.59</ele>
   </trkpt>
   <trkpt lat="51.40429" lon="-0.89256">
    <ele>71.07000000000001</ele>
   </trkpt>
   <trkpt lat="51.40435" lon="-0.89241">
    <ele>71.07000000000001</ele>
   </trkpt>
   <trkpt lat="51.40444" lon="-0.8923200000000001">
    <ele>71.92000000000002</ele>
   </trkpt>
   <trkpt lat="51.40442" lon="-0.8922000000000001">
    <ele>72.07000000000001</ele>
   </trkpt>
   <trkpt lat="51.404450000000004" lon="-0.89202">
    <ele>72.67000000000002</ele>
   </trkpt>
   <trkpt lat="51.4046" lon="-0.89136">
    <ele>73.89000000000001</ele>
   </trkpt>
   <trkpt lat="51.404740000000004" lon="-0.89046">
    <ele>74.74</ele>
   </trkpt>
   <trkpt lat="51.404740000000004" lon="-0.8904500000000001">
    <ele>74.74</ele>
   </trkpt>
   <trkpt lat="51.404810000000005" lon="-0.8893800000000001">
    <ele>74.51</ele>
   </trkpt>
   <trkpt lat="51.40482" lon="-0.8888900000000001">
    <ele>75.06</ele>
   </trkpt>
   <trkpt lat="51.404755005972234" lon="-0.8877049982724813">
    <ele>77.64</ele>
   </trkpt>
   <trkpt lat="51.40469" lon="-0.8865200000000001">
    <ele>81.16000000000001</ele>
   </trkpt>
   <trkpt lat="51.404680000000006" lon="-0.88602">
    <ele>81.49000000000001</ele>
   </trkpt>
   <trkpt lat="51.40462000828344" lon="-0.8850333307337249">
    <ele>81.88000000000001</ele>
   </trkpt>
   <trkpt lat="51.404560008282786" lon="-0.8840466640563246">
    <ele>82.03</ele>
   </trkpt>
   <trkpt lat="51.404500000000006" lon="-0.8830600000000001">
    <ele>82.03</ele>
   </trkpt>
   <trkpt lat="51.4044" lon="-0.8825400000000001">
    <ele>81.61</ele>
   </trkpt>
   <trkpt lat="51.40437000548129" lon="-0.8814049992642621">
    <ele>82.38000000000001</ele>
   </trkpt>
   <trkpt lat="51.404340000000005" lon="-0.8802700000000001">
    <ele>84.10000000000001</ele>
   </trkpt>
   <trkpt lat="51.40428000000001" lon="-0.87904">
    <ele>84.89</ele>
   </trkpt>
   <trkpt lat="51.40422" lon="-0.8784200000000001">
    <ele>85.14</ele>
   </trkpt>
   <trkpt lat="51.404160009205455" lon="-0.8773799972981279">
    <ele>84.87</ele>
   </trkpt>
   <trkpt lat="51.40410000920699" lon="-0.8763399973250036">
    <ele>84.31</ele>
   </trkpt>
   <trkpt lat="51.40404" lon="-0.8753000000000001">
    <ele>84.10000000000001</ele>
   </trkpt>
   <trkpt lat="51.40450000006021" lon="-0.8752200007989644">
    <ele>85.04</ele>
   </trkpt>
   <trkpt lat="51.40496" lon="-0.87514">
    <ele>85.15</ele>
   </trkpt>
   <trkpt lat="51.405519999836706" lon="-0.8750600010068905">
    <ele>85.04</ele>
   </trkpt>
   <trkpt lat="51.40608" lon="-0.8749800000000001">
    <ele>84.84000000000002</ele>
   </trkpt>
   <trkpt lat="51.406240000000004" lon="-0.8749600000000001">
    <ele>84.84000000000002</ele>
   </trkpt>
   <trkpt lat="51.4061850034382" lon="-0.8740599987850192">
    <ele>85.74000000000001</ele>
   </trkpt>
   <trkpt lat="51.406130000000005" lon="-0.87316">
    <ele>85.67</ele>
   </trkpt>
   <trkpt lat="51.40608000219647" lon="-0.8724349986287289">
    <ele>85.01</ele>
   </trkpt>
   <trkpt lat="51.40603" lon="-0.8717100000000001">
    <ele>84.25</ele>
   </trkpt>
   <trkpt lat="51.405950000000004" lon="-0.8710300000000001">
    <ele>82.95</ele>
   </trkpt>
   <trkpt lat="51.40594" lon="-0.87092">
    <ele>82.16000000000001</ele>
   </trkpt>
   <trkpt lat="51.40597" lon="-0.87077">
    <ele>81.71000000000001</ele>
   </trkpt>
   <trkpt lat="51.405910000000006" lon="-0.8705">
    <ele>79.27000000000001</ele>
   </trkpt>
   <trkpt lat="51.405860000000004" lon="-0.87041">
    <ele>78.61000000000001</ele>
   </trkpt>
   <trkpt lat="51.405770000000004" lon="-0.8703500000000001">
    <ele>78.39</ele>
   </trkpt>
   <trkpt lat="51.405620000000006" lon="-0.8702900000000001">
    <ele>79.29</ele>
   </trkpt>
   <trkpt lat="51.405570000000004" lon="-0.8702300000000001">
    <ele>79.29</ele>
   </trkpt>
   <trkpt lat="51.4055" lon="-0.8699600000000001">
    <ele>82.07000000000001</ele>
   </trkpt>
   <trkpt lat="51.405460000000005" lon="-0.8695200000000001">
    <ele>83.26</ele>
   </trkpt>
   <trkpt lat="51.40547" lon="-0.86914">
    <ele>83.83</ele>
   </trkpt>
   <trkpt lat="51.4055" lon="-0.86904">
    <ele>83.88000000000001</ele>
   </trkpt>
   <trkpt lat="51.40569000000001" lon="-0.8687">
    <ele>83.58</ele>
   </trkpt>
   <trkpt lat="51.405730000000005" lon="-0.8685700000000001">
    <ele>83.55000000000001</ele>
   </trkpt>
   <trkpt lat="51.40581" lon="-0.86806">
    <ele>83.62000000000002</ele>
   </trkpt>
   <trkpt lat="51.4059" lon="-0.8676900000000001">
    <ele>83.19</ele>
   </trkpt>
   <trkpt lat="51.40589000000001" lon="-0.8671300000000001">
    <ele>82.19000000000001</ele>
   </trkpt>
   <trkpt lat="51.405930000000005" lon="-0.86684">
    <ele>80.84</ele>
   </trkpt>
   <trkpt lat="51.40605000000001" lon="-0.8664000000000001">
    <ele>79.31</ele>
   </trkpt>
   <trkpt lat="51.40612" lon="-0.86623">
    <ele>78.65</ele>
   </trkpt>
   <trkpt lat="51.40621" lon="-0.86609">
    <ele>77.46</ele>
   </trkpt>
   <trkpt lat="51.406200000000005" lon="-0.8659100000000001">
    <ele>77.46</ele>
   </trkpt>
   <trkpt lat="51.406240000000004" lon="-0.8657400000000001">
    <ele>76.39</ele>
   </trkpt>
   <trkpt lat="51.40625000000001" lon="-0.86553">
    <ele>75.85</ele>
   </trkpt>
   <trkpt lat="51.406220000000005" lon="-0.8651300000000001">
    <ele>75.4</ele>
   </trkpt>
   <trkpt lat="51.40617" lon="-0.8650100000000001">
    <ele>75.28</ele>
   </trkpt>
   <trkpt lat="51.40616000000001" lon="-0.8647900000000001">
    <ele>74.92</ele>
   </trkpt>
   <trkpt lat="51.40619" lon="-0.86438">
    <ele>73.58</ele>
   </trkpt>
   <trkpt lat="51.40619" lon="-0.86394">
    <ele>72.4</ele>
   </trkpt>
   <trkpt lat="51.406240000000004" lon="-0.86367">
    <ele>70.60000000000001</ele>
   </trkpt>
   <trkpt lat="51.40639" lon="-0.86326">
    <ele>69.62</ele>
   </trkpt>
   <trkpt lat="51.40643000000001" lon="-0.8629600000000001">
    <ele>69.28</ele>
   </trkpt>
   <trkpt lat="51.40628" lon="-0.8625600000000001">
    <ele>69.14</ele>
   </trkpt>
   <trkpt lat="51.40646" lon="-0.86206">
    <ele>68.77000000000001</ele>
   </trkpt>
   <trkpt lat="51.406710000000004" lon="-0.86189">
    <ele>68.78</ele>
   </trkpt>
   <trkpt lat="51.407270000000004" lon="-0.86133">
    <ele>67.76</ele>
   </trkpt>
   <trkpt lat="51.40731" lon="-0.8611800000000001">
    <ele>67.61</ele>
   </trkpt>
   <trkpt lat="51.40726" lon="-0.8610500000000001">
    <ele>67.49000000000001</ele>
   </trkpt>
   <trkpt lat="51.406620000000004" lon="-0.86026">
    <ele>65.93</ele>
   </trkpt>
   <trkpt lat="51.40652000000001" lon="-0.8600300000000001">
    <ele>65.01</ele>
   </trkpt>
   <trkpt lat="51.40646" lon="-0.85979">
    <ele>63.55000000000001</ele>
   </trkpt>
   <trkpt lat="51.406310000000005" lon="-0.8584100000000001">
    <ele>58.18</ele>
   </trkpt>
   <trkpt lat="51.40621" lon="-0.8581000000000001">
    <ele>58.050000000000004</ele>
   </trkpt>
   <trkpt lat="51.406130000000005" lon="-0.85801">
    <ele>58.230000000000004</ele>
   </trkpt>
   <trkpt lat="51.40599" lon="-0.8579600000000001">
    <ele>58.620000000000005</ele>
   </trkpt>
   <trkpt lat="51.40552000039751" lon="-0.8576249964999294">
    <ele>61.6</ele>
   </trkpt>
   <trkpt lat="51.40505" lon="-0.8572900000000001">
    <ele>64.08000000000001</ele>
   </trkpt>
   <trkpt lat="51.404900000000005" lon="-0.85721">
    <ele>64.08000000000001</ele>
   </trkpt>
   <trkpt lat="51.40467" lon="-0.85699">
    <ele>66.02000000000001</ele>
   </trkpt>
   <trkpt lat="51.404520000000005" lon="-0.8567500000000001">
    <ele>67.41000000000001</ele>
   </trkpt>
   <trkpt lat="51.40431" lon="-0.8572500000000001">
    <ele>67.36</ele>
   </trkpt>
   <trkpt lat="51.404140000000005" lon="-0.8580500000000001">
    <ele>67.73</ele>
   </trkpt>
   <trkpt lat="51.404030000000006" lon="-0.8594200000000001">
    <ele>70.64</ele>
   </trkpt>
   <trkpt lat="51.40397" lon="-0.85989">
    <ele>70.21000000000001</ele>
   </trkpt>
   <trkpt lat="51.403890000000004" lon="-0.86023">
    <ele>70.11</ele>
   </trkpt>
   <trkpt lat="51.403780000000005" lon="-0.8606">
    <ele>70.21000000000001</ele>
   </trkpt>
   <trkpt lat="51.40370000000001" lon="-0.8608100000000001">
    <ele>70.49000000000001</ele>
   </trkpt>
   <trkpt lat="51.403690000000005" lon="-0.86082">
    <ele>70.5</ele>
   </trkpt>
   <trkpt lat="51.403490000000005" lon="-0.8613200000000001">
    <ele>71.19</ele>
   </trkpt>
   <trkpt lat="51.4029900109314" lon="-0.8624533581115716">
    <ele>73.78000000000002</ele>
   </trkpt>
   <trkpt lat="51.40249001093246" lon="-0.8635866914420144">
    <ele>75.35</ele>
   </trkpt>
   <trkpt lat="51.401990000000005" lon="-0.86472">
    <ele>74.89000000000001</ele>
   </trkpt>
   <trkpt lat="51.40166000000001" lon="-0.86536">
    <ele>73.68</ele>
   </trkpt>
   <trkpt lat="51.40120333794095" lon="-0.8661000148621201">
    <ele>72.71000000000001</ele>
   </trkpt>
   <trkpt lat="51.400746671221874" lon="-0.8668400149468106">
    <ele>72.29</ele>
   </trkpt>
   <trkpt lat="51.400290000000005" lon="-0.86758">
    <ele>70.93</ele>
   </trkpt>
   <trkpt lat="51.39996500151552" lon="-0.868165004049872">
    <ele>68.02000000000001</ele>
   </trkpt>
   <trkpt lat="51.399640000000005" lon="-0.86875">
    <ele>63.96</ele>
   </trkpt>
   <trkpt lat="51.39932" lon="-0.8696">
    <ele>60.47</ele>
   </trkpt>
   <trkpt lat="51.39922000000001" lon="-0.86994">
    <ele>59.910000000000004</ele>
   </trkpt>
   <trkpt lat="51.399100000000004" lon="-0.8704600000000001">
    <ele>59.550000000000004</ele>
   </trkpt>
   <trkpt lat="51.39888000468105" lon="-0.8715100050980832">
    <ele>59.07</ele>
   </trkpt>
   <trkpt lat="51.39866000000001" lon="-0.8725600000000001">
    <ele>60.260000000000005</ele>
   </trkpt>
   <trkpt lat="51.398560003612175" lon="-0.8734800019120633">
    <ele>63.80000000000001</ele>
   </trkpt>
   <trkpt lat="51.39846000000001" lon="-0.8744000000000001">
    <ele>69.89</ele>
   </trkpt>
   <trkpt lat="51.39833" lon="-0.87494">
    <ele>72.09</ele>
   </trkpt>
   <trkpt lat="51.398210000000006" lon="-0.87538">
    <ele>72.69</ele>
   </trkpt>
   <trkpt lat="51.398030000000006" lon="-0.8757600000000001">
    <ele>72.46000000000001</ele>
   </trkpt>
   <trkpt lat="51.397670000000005" lon="-0.87646">
    <ele>70.28</ele>
   </trkpt>
   <trkpt lat="51.39753" lon="-0.8768400000000001">
    <ele>67.04</ele>
   </trkpt>
   <trkpt lat="51.397330000000004" lon="-0.87775">
    <ele>60.7</ele>
   </trkpt>
   <trkpt lat="51.397110000000005" lon="-0.87846">
    <ele>59.330000000000005</ele>
   </trkpt>
   <trkpt lat="51.397000000000006" lon="-0.8787">
    <ele>58.43</ele>
   </trkpt>
   <trkpt lat="51.39669000000001" lon="-0.8791100000000001">
    <ele>57.650000000000006</ele>
   </trkpt>
   <trkpt lat="51.39660000000001" lon="-0.8792800000000001">
    <ele>57.0</ele>
   </trkpt>
   <trkpt lat="51.396385001796816" lon="-0.8799300030578099">
    <ele>55.980000000000004</ele>
   </trkpt>
   <trkpt lat="51.396170000000005" lon="-0.88058">
    <ele>55.42</ele>
   </trkpt>
   <trkpt lat="51.39591000000001" lon="-0.88036">
    <ele>55.18000000000001</ele>
   </trkpt>
   <trkpt lat="51.395300000000006" lon="-0.87975">
    <ele>54.050000000000004</ele>
   </trkpt>
   <trkpt lat="51.39475" lon="-0.87931">
    <ele>52.88</ele>
   </trkpt>
   <trkpt lat="51.39453" lon="-0.87916">
    <ele>52.4</ele>
   </trkpt>
   <trkpt lat="51.39401" lon="-0.87887">
    <ele>51.59</ele>
   </trkpt>
   <trkpt lat="51.393383334635175" lon="-0.8784733224429003">
    <ele>50.64</ele>
   </trkpt>
   <trkpt lat="51.392756667931295" lon="-0.878076655752857">
    <ele>49.89</ele>
   </trkpt>
   <trkpt lat="51.39213" lon="-0.8776800000000001">
    <ele>50.150000000000006</ele>
   </trkpt>
   <trkpt lat="51.391920000000006" lon="-0.87748">
    <ele>50.32</ele>
   </trkpt>
   <trkpt lat="51.391580000000005" lon="-0.8772500000000001">
    <ele>51.120000000000005</ele>
   </trkpt>
   <trkpt lat="51.39132000000001" lon="-0.87714">
    <ele>52.42</ele>
   </trkpt>
   <trkpt lat="51.39088" lon="-0.87702">
    <ele>55.2</ele>
   </trkpt>
   <trkpt lat="51.39041" lon="-0.87694">
    <ele>56.34</ele>
   </trkpt>
   <trkpt lat="51.390170000000005" lon="-0.87692">
    <ele>56.550000000000004</ele>
   </trkpt>
   <trkpt lat="51.38964000000001" lon="-0.8770100000000001">
    <ele>56.690000000000005</ele>
   </trkpt>
   <trkpt lat="51.389570000000006" lon="-0.8770100000000001">
    <ele>56.7</ele>
   </trkpt>
   <trkpt lat="51.38953000000001" lon="-0.8769800000000001">
    <ele>56.7</ele>
   </trkpt>
   <trkpt lat="51.38949" lon="-0.8771100000000001">
    <ele>56.7</ele>
   </trkpt>
   <trkpt lat="51.38915" lon="-0.8775700000000001">
    <ele>57.410000000000004</ele>
   </trkpt>
   <trkpt lat="51.38888000000001" lon="-0.87809">
    <ele>58.31000000000001</ele>
   </trkpt>
   <trkpt lat="51.388310000000004" lon="-0.8788400000000001">
    <ele>59.64000000000001</ele>
   </trkpt>
   <trkpt lat="51.387755001959974" lon="-0.8795350085490665">
    <ele>61.06</ele>
   </trkpt>
   <trkpt lat="51.38720000000001" lon="-0.8802300000000001">
    <ele>61.61000000000001</ele>
   </trkpt>
   <trkpt lat="51.386695001526135" lon="-0.8808400068009897">
    <ele>60.870000000000005</ele>
   </trkpt>
   <trkpt lat="51.386190000000006" lon="-0.8814500000000001">
    <ele>60.10000000000001</ele>
   </trkpt>
   <trkpt lat="51.38557" lon="-0.88199">
    <ele>58.29</ele>
   </trkpt>
   <trkpt lat="51.38519" lon="-0.88229">
    <ele>56.760000000000005</ele>
   </trkpt>
   <trkpt lat="51.38519" lon="-0.8823000000000001">
    <ele>56.730000000000004</ele>
   </trkpt>
   <trkpt lat="51.384840000000004" lon="-0.88258">
    <ele>55.24</ele>
   </trkpt>
   <trkpt lat="51.384620000000005" lon="-0.88285">
    <ele>54.78</ele>
   </trkpt>
   <trkpt lat="51.384570000000004" lon="-0.88297">
    <ele>54.68000000000001</ele>
   </trkpt>
   <trkpt lat="51.384460000000004" lon="-0.8833300000000001">
    <ele>54.49</ele>
   </trkpt>
   <trkpt lat="51.384370000000004" lon="-0.8832300000000001">
    <ele>54.480000000000004</ele>
   </trkpt>
   <trkpt lat="51.384310000000006" lon="-0.8830800000000001">
    <ele>54.480000000000004</ele>
   </trkpt>
   <trkpt lat="51.38400002608563" lon="-0.8818419664450902">
    <ele>54.580000000000005</ele>
   </trkpt>
   <trkpt lat="51.38369003912662" lon="-0.8806039496612968">
    <ele>54.38</ele>
   </trkpt>
   <trkpt lat="51.383380039123274" lon="-0.8793659496489125">
    <ele>54.49</ele>
   </trkpt>
   <trkpt lat="51.383070026075906" lon="-0.8781279664082298">
    <ele>55.720000000000006</ele>
   </trkpt>
   <trkpt lat="51.382760000000005" lon="-0.8768900000000001">
    <ele>56.75</ele>
   </trkpt>
   <trkpt lat="51.38241000261646" lon="-0.8761099940961617">
    <ele>56.43000000000001</ele>
   </trkpt>
   <trkpt lat="51.38206" lon="-0.87533">
    <ele>56.95</ele>
   </trkpt>
   <trkpt lat="51.38154" lon="-0.87433">
    <ele>57.77</ele>
   </trkpt>
   <trkpt lat="51.381310000000006" lon="-0.8739500000000001">
    <ele>58.1</ele>
   </trkpt>
   <trkpt lat="51.381170000000004" lon="-0.87377">
    <ele>58.150000000000006</ele>
   </trkpt>
   <trkpt lat="51.38092" lon="-0.8734000000000001">
    <ele>58.150000000000006</ele>
   </trkpt>
   <trkpt lat="51.3808" lon="-0.87314">
    <ele>58.35</ele>
   </trkpt>
   <trkpt lat="51.38044000000001" lon="-0.87194">
    <ele>59.04</ele>
   </trkpt>
   <trkpt lat="51.380190000000006" lon="-0.87138">
    <ele>59.870000000000005</ele>
   </trkpt>
   <trkpt lat="51.38004" lon="-0.87092">
    <ele>60.61</ele>
   </trkpt>
   <trkpt lat="51.380010000000006" lon="-0.8706300000000001">
    <ele>61.290000000000006</ele>
   </trkpt>
   <trkpt lat="51.38024000000001" lon="-0.87026">
    <ele>63.54</ele>
   </trkpt>
   <trkpt lat="51.38078500221948" lon="-0.8695250088590605">
    <ele>67.21000000000001</ele>
   </trkpt>
   <trkpt lat="51.381330000000005" lon="-0.8687900000000001">
    <ele>65.75</ele>
   </trkpt>
   <trkpt lat="51.38185000229916" lon="-0.8680600082498681">
    <ele>64.86</ele>
   </trkpt>
   <trkpt lat="51.38237" lon="-0.86733">
    <ele>64.39</ele>
   </trkpt>
   <trkpt lat="51.38276500079148" lon="-0.8669150035201849">
    <ele>64.10000000000001</ele>
   </trkpt>
   <trkpt lat="51.383160000000004" lon="-0.8665">
    <ele>63.32</ele>
   </trkpt>
   <trkpt lat="51.383570000000006" lon="-0.86604">
    <ele>62.42</ele>
   </trkpt>
   <trkpt lat="51.38408500196063" lon="-0.8653750073816955">
    <ele>61.51</ele>
   </trkpt>
   <trkpt lat="51.384600000000006" lon="-0.8647100000000001">
    <ele>61.370000000000005</ele>
   </trkpt>
   <trkpt lat="51.38447000000001" lon="-0.8643400000000001">
    <ele>61.78000000000001</ele>
   </trkpt>
   <trkpt lat="51.38402000000001" lon="-0.86331">
    <ele>62.39000000000001</ele>
   </trkpt>
   <trkpt lat="51.38352602073752" lon="-0.8622059523128716">
    <ele>62.13</ele>
   </trkpt>
   <trkpt lat="51.38303203110119" lon="-0.861101928459213">
    <ele>61.65</ele>
   </trkpt>
   <trkpt lat="51.38253803109135" lon="-0.8599979284385887">
    <ele>62.040000000000006</ele>
   </trkpt>
   <trkpt lat="51.38204402070845" lon="-0.8588939522505634">
    <ele>62.120000000000005</ele>
   </trkpt>
   <trkpt lat="51.381550000000004" lon="-0.85779">
    <ele>62.07000000000001</ele>
   </trkpt>
   <trkpt lat="51.381530000000005" lon="-0.8576600000000001">
    <ele>62.07000000000001</ele>
   </trkpt>
   <trkpt lat="51.381530000000005" lon="-0.85767">
    <ele>62.07000000000001</ele>
   </trkpt>
   <trkpt lat="51.381460000000004" lon="-0.85757">
    <ele>62.07000000000001</ele>
   </trkpt>
   <trkpt lat="51.381022511694404" lon="-0.8566124725203828">
    <ele>62.400000000000006</ele>
   </trkpt>
   <trkpt lat="51.38058501558554" lon="-0.8556549633457496">
    <ele>63.01000000000001</ele>
   </trkpt>
   <trkpt lat="51.38014751167363" lon="-0.8546974724757903">
    <ele>64.12</ele>
   </trkpt>
   <trkpt lat="51.37971" lon="-0.85374">
    <ele>65.47</ele>
   </trkpt>
   <trkpt lat="51.37975" lon="-0.8536300000000001">
    <ele>65.54</ele>
   </trkpt>
   <trkpt lat="51.37971" lon="-0.8535">
    <ele>65.68</ele>
   </trkpt>
   <trkpt lat="51.379650000000005" lon="-0.8534700000000001">
    <ele>65.68</ele>
   </trkpt>
   <trkpt lat="51.3796" lon="-0.85348">
    <ele>65.68</ele>
   </trkpt>
   <trkpt lat="51.37952000000001" lon="-0.85367">
    <ele>65.80000000000001</ele>
   </trkpt>
   <trkpt lat="51.37942" lon="-0.85384">
    <ele>65.77000000000001</ele>
   </trkpt>
   <trkpt lat="51.379290000000005" lon="-0.85401">
    <ele>65.75999999999999</ele>
   </trkpt>
   <trkpt lat="51.37888" lon="-0.85428">
    <ele>65.78</ele>
   </trkpt>
   <trkpt lat="51.3781" lon="-0.8549000000000001">
    <ele>66.61</ele>
   </trkpt>
   <trkpt lat="51.37769000064548" lon="-0.8552950035557775">
    <ele>67.07000000000001</ele>
   </trkpt>
   <trkpt lat="51.377280000000006" lon="-0.8556900000000001">
    <ele>68.15</ele>
   </trkpt>
   <trkpt lat="51.37715000000001" lon="-0.8557300000000001">
    <ele>68.56</ele>
   </trkpt>
   <trkpt lat="51.37713" lon="-0.85555">
    <ele>68.57000000000001</ele>
   </trkpt>
   <trkpt lat="51.377140000000004" lon="-0.8553200000000001">
    <ele>68.61</ele>
   </trkpt>
   <trkpt lat="51.37721000222333" lon="-0.8546000009242767">
    <ele>68.62</ele>
   </trkpt>
   <trkpt lat="51.377280000000006" lon="-0.8538800000000001">
    <ele>68.98</ele>
   </trkpt>
   <trkpt lat="51.37722" lon="-0.85384">
    <ele>68.98</ele>
   </trkpt>
   <trkpt lat="51.376760000000004" lon="-0.85282">
    <ele>71.79</ele>
   </trkpt>
   <trkpt lat="51.376760000000004" lon="-0.8528300000000001">
    <ele>71.77</ele>
   </trkpt>
   <trkpt lat="51.37664" lon="-0.85255">
    <ele>72.77</ele>
   </trkpt>
   <trkpt lat="51.376110000000004" lon="-0.8515900000000001">
    <ele>77.75</ele>
   </trkpt>
   <trkpt lat="51.375600000000006" lon="-0.85087">
    <ele>83.07000000000001</ele>
   </trkpt>
   <trkpt lat="51.37557" lon="-0.8508000000000001">
    <ele>83.07000000000001</ele>
   </trkpt>
   <trkpt lat="51.37557" lon="-0.8508100000000001">
    <ele>83.05000000000001</ele>
   </trkpt>
   <trkpt lat="51.375310000000006" lon="-0.85011">
    <ele>85.22</ele>
   </trkpt>
   <trkpt lat="51.375260000000004" lon="-0.8498100000000001">
    <ele>85.32000000000001</ele>
   </trkpt>
   <trkpt lat="51.375350000000005" lon="-0.8486400000000001">
    <ele>82.03</ele>
   </trkpt>
   <trkpt lat="51.375460000000004" lon="-0.8479500000000001">
    <ele>78.71</ele>
   </trkpt>
   <trkpt lat="51.37547000000001" lon="-0.8479200000000001">
    <ele>78.58000000000001</ele>
   </trkpt>
   <trkpt lat="51.37554" lon="-0.8475">
    <ele>76.51</ele>
   </trkpt>
   <trkpt lat="51.37556000000001" lon="-0.84728">
    <ele>75.78</ele>
   </trkpt>
   <trkpt lat="51.37552" lon="-0.84713">
    <ele>75.37</ele>
   </trkpt>
   <trkpt lat="51.37545" lon="-0.8469800000000001">
    <ele>74.84</ele>
   </trkpt>
   <trkpt lat="51.375400000000006" lon="-0.84682">
    <ele>74.59</ele>
   </trkpt>
   <trkpt lat="51.375150000000005" lon="-0.8465">
    <ele>75.09</ele>
   </trkpt>
   <trkpt lat="51.37471000000001" lon="-0.8459800000000001">
    <ele>75.63</ele>
   </trkpt>
   <trkpt lat="51.374520000000004" lon="-0.8458000000000001">
    <ele>75.49</ele>
   </trkpt>
   <trkpt lat="51.37411" lon="-0.8456400000000001">
    <ele>75.38</ele>
   </trkpt>
   <trkpt lat="51.373870000000004" lon="-0.8455">
    <ele>76.16000000000001</ele>
   </trkpt>
   <trkpt lat="51.37346" lon="-0.8455400000000001">
    <ele>78.13000000000001</ele>
   </trkpt>
   <trkpt lat="51.37319" lon="-0.8456300000000001">
    <ele>80.01</ele>
   </trkpt>
   <trkpt lat="51.37317" lon="-0.8456400000000001">
    <ele>80.08000000000001</ele>
   </trkpt>
   <trkpt lat="51.37286" lon="-0.84574">
    <ele>81.7</ele>
   </trkpt>
   <trkpt lat="51.37261" lon="-0.8459000000000001">
    <ele>83.81</ele>
   </trkpt>
   <trkpt lat="51.37245000000001" lon="-0.84606">
    <ele>84.23000000000002</ele>
   </trkpt>
   <trkpt lat="51.37236000000001" lon="-0.8462600000000001">
    <ele>84.81</ele>
   </trkpt>
   <trkpt lat="51.372220000000006" lon="-0.84711">
    <ele>87.12</ele>
   </trkpt>
   <trkpt lat="51.372080000000004" lon="-0.84735">
    <ele>88.9</ele>
   </trkpt>
   <trkpt lat="51.37183" lon="-0.84752">
    <ele>92.19000000000001</ele>
   </trkpt>
   <trkpt lat="51.37171000000001" lon="-0.84769">
    <ele>93.23</ele>
   </trkpt>
   <trkpt lat="51.371570000000006" lon="-0.8479300000000001">
    <ele>95.59</ele>
   </trkpt>
   <trkpt lat="51.37133000000001" lon="-0.8482500000000001">
    <ele>99.86</ele>
   </trkpt>
   <trkpt lat="51.37071000004548" lon="-0.8482550000673397">
    <ele>101.15</ele>
   </trkpt>
   <trkpt lat="51.370090000000005" lon="-0.84826">
    <ele>101.86</ele>
   </trkpt>
   <trkpt lat="51.36945000000001" lon="-0.84855">
    <ele>101.8</ele>
   </trkpt>
   <trkpt lat="51.36919" lon="-0.8487300000000001">
    <ele>101.37</ele>
   </trkpt>
   <trkpt lat="51.36887" lon="-0.84889">
    <ele>99.94000000000001</ele>
   </trkpt>
   <trkpt lat="51.36825" lon="-0.84901">
    <ele>94.42</ele>
   </trkpt>
   <trkpt lat="51.3675766680019" lon="-0.8494000114457957">
    <ele>93.02000000000001</ele>
   </trkpt>
   <trkpt lat="51.36690333470909" lon="-0.8497900114221153">
    <ele>95.49000000000001</ele>
   </trkpt>
   <trkpt lat="51.36623" lon="-0.85018">
    <ele>98.65</ele>
   </trkpt>
   <trkpt lat="51.36601" lon="-0.85028">
    <ele>99.39</ele>
   </trkpt>
   <trkpt lat="51.366020000000006" lon="-0.8502700000000001">
    <ele>99.39</ele>
   </trkpt>
   <trkpt lat="51.36582000000001" lon="-0.8503600000000001">
    <ele>100.08</ele>
   </trkpt>
   <trkpt lat="51.365770000000005" lon="-0.8500800000000001">
    <ele>100.56</ele>
   </trkpt>
   <trkpt lat="51.36571000000001" lon="-0.8494700000000001">
    <ele>101.39</ele>
   </trkpt>
   <trkpt lat="51.36574" lon="-0.84896">
    <ele>102.01</ele>
   </trkpt>
   <trkpt lat="51.366080000000004" lon="-0.84784">
    <ele>101.76</ele>
   </trkpt>
   <trkpt lat="51.36636500237907" lon="-0.8471050043683293">
    <ele>100.44</ele>
   </trkpt>
   <trkpt lat="51.36665000000001" lon="-0.8463700000000001">
    <ele>100.10000000000001</ele>
   </trkpt>
   <trkpt lat="51.366780000000006" lon="-0.8459300000000001">
    <ele>100.84000000000002</ele>
   </trkpt>
   <trkpt lat="51.366980000000005" lon="-0.84506">
    <ele>101.54</ele>
   </trkpt>
   <trkpt lat="51.36724" lon="-0.8437100000000001">
    <ele>102.03</ele>
   </trkpt>
   <trkpt lat="51.36726" lon="-0.8434">
    <ele>102.12</ele>
   </trkpt>
   <trkpt lat="51.36721000000001" lon="-0.8431500000000001">
    <ele>102.17</ele>
   </trkpt>
   <trkpt lat="51.36726" lon="-0.8431000000000001">
    <ele>102.07000000000001</ele>
   </trkpt>
   <trkpt lat="51.36730000000001" lon="-0.84296">
    <ele>101.81000000000002</ele>
   </trkpt>
   <trkpt lat="51.36730000000001" lon="-0.8428100000000001">
    <ele>101.81000000000002</ele>
   </trkpt>
   <trkpt lat="51.36733334532088" lon="-0.8416233350199451">
    <ele>101.58</ele>
   </trkpt>
   <trkpt lat="51.36736667865538" lon="-0.8404366683119668">
    <ele>100.11</ele>
   </trkpt>
   <trkpt lat="51.3674" lon="-0.83925">
    <ele>96.98</ele>
   </trkpt>
   <trkpt lat="51.3674" lon="-0.8392600000000001">
    <ele>97.03</ele>
   </trkpt>
   <trkpt lat="51.36741000000001" lon="-0.83877">
    <ele>95.30000000000001</ele>
   </trkpt>
   <trkpt lat="51.36739000000001" lon="-0.8379300000000001">
    <ele>88.93</ele>
   </trkpt>
   <trkpt lat="51.36733" lon="-0.83735">
    <ele>87.13000000000001</ele>
   </trkpt>
   <trkpt lat="51.36739000000001" lon="-0.83706">
    <ele>87.03000000000002</ele>
   </trkpt>
   <trkpt lat="51.36733" lon="-0.83596">
    <ele>86.75</ele>
   </trkpt>
   <trkpt lat="51.36722" lon="-0.83481">
    <ele>86.37</ele>
   </trkpt>
   <trkpt lat="51.36721000000001" lon="-0.83481">
    <ele>86.41</ele>
   </trkpt>
   <trkpt lat="51.36807" lon="-0.8345800000000001">
    <ele>83.21000000000001</ele>
   </trkpt>
   <trkpt lat="51.368460000000006" lon="-0.8344">
    <ele>82.41000000000001</ele>
   </trkpt>
   <trkpt lat="51.368700000000004" lon="-0.8343200000000001">
    <ele>82.13000000000001</ele>
   </trkpt>
   <trkpt lat="51.36939" lon="-0.83418">
    <ele>81.36</ele>
   </trkpt>
   <trkpt lat="51.36977" lon="-0.83401">
    <ele>81.35000000000001</ele>
   </trkpt>
   <trkpt lat="51.37030000000001" lon="-0.83394">
    <ele>78.99000000000001</ele>
   </trkpt>
   <trkpt lat="51.37031" lon="-0.83318">
    <ele>80.99000000000001</ele>
   </trkpt>
   <trkpt lat="51.37031" lon="-0.8332">
    <ele>80.97</ele>
   </trkpt>
   <trkpt lat="51.37032000000001" lon="-0.8327600000000001">
    <ele>81.60000000000001</ele>
   </trkpt>
   <trkpt lat="51.370340000000006" lon="-0.83262">
    <ele>81.63000000000001</ele>
   </trkpt>
   <trkpt lat="51.370360003403995" lon="-0.8317250006180312">
    <ele>80.95</ele>
   </trkpt>
   <trkpt lat="51.370380000000004" lon="-0.8308300000000001">
    <ele>81.17</ele>
   </trkpt>
   <trkpt lat="51.37042802966245" lon="-0.8295100055170483">
    <ele>79.04</ele>
   </trkpt>
   <trkpt lat="51.370476044494076" lon="-0.8281900082652282">
    <ele>74.64000000000001</ele>
   </trkpt>
   <trkpt lat="51.37052404449482" lon="-0.8268700082453843">
    <ele>73.33</ele>
   </trkpt>
   <trkpt lat="51.37057202966466" lon="-0.825550005458361">
    <ele>73.38</ele>
   </trkpt>
   <trkpt lat="51.37062" lon="-0.82423">
    <ele>71.02</ele>
   </trkpt>
   <trkpt lat="51.371456002707106" lon="-0.8246279709362092">
    <ele>72.32000000000001</ele>
   </trkpt>
   <trkpt lat="51.37229200406607" lon="-0.8250259564059064">
    <ele>71.46000000000001</ele>
   </trkpt>
   <trkpt lat="51.37312800407682" lon="-0.825423956410034">
    <ele>70.83</ele>
   </trkpt>
   <trkpt lat="51.373964002739235" lon="-0.8258219709495342">
    <ele>70.37</ele>
   </trkpt>
   <trkpt lat="51.37480000000001" lon="-0.8262200000000001">
    <ele>69.4</ele>
   </trkpt>
   <trkpt lat="51.37550000059379" lon="-0.8265849944327924">
    <ele>66.30000000000001</ele>
   </trkpt>
   <trkpt lat="51.376200000000004" lon="-0.8269500000000001">
    <ele>63.67</ele>
   </trkpt>
   <trkpt lat="51.37651" lon="-0.8271400000000001">
    <ele>63.03</ele>
   </trkpt>
   <trkpt lat="51.37691" lon="-0.8274400000000001">
    <ele>63.84</ele>
   </trkpt>
   <trkpt lat="51.37733000000001" lon="-0.8278800000000001">
    <ele>66.68</ele>
   </trkpt>
   <trkpt lat="51.377410000000005" lon="-0.82776">
    <ele>67.52000000000001</ele>
   </trkpt>
   <trkpt lat="51.37785" lon="-0.8278500000000001">
    <ele>68.32000000000001</ele>
   </trkpt>
   <trkpt lat="51.37837999994238" lon="-0.827949998823236">
    <ele>67.8</ele>
   </trkpt>
   <trkpt lat="51.378910000000005" lon="-0.8280500000000001">
    <ele>67.21000000000001</ele>
   </trkpt>
   <trkpt lat="51.37953" lon="-0.8282">
    <ele>66.04</ele>
   </trkpt>
   <trkpt lat="51.37982" lon="-0.82823">
    <ele>66.87</ele>
   </trkpt>
   <trkpt lat="51.38011000751917" lon="-0.8269000084656527">
    <ele>69.63000000000001</ele>
   </trkpt>
   <trkpt lat="51.3804" lon="-0.82557">
    <ele>67.93</ele>
   </trkpt>
   <trkpt lat="51.38067" lon="-0.82567">
    <ele>67.75</ele>
   </trkpt>
   <trkpt lat="51.380970000000005" lon="-0.8258000000000001">
    <ele>67.37</ele>
   </trkpt>
   <trkpt lat="51.381280000000004" lon="-0.8258800000000001">
    <ele>66.9</ele>
   </trkpt>
   <trkpt lat="51.38177500000376" lon="-0.8260399982355534">
    <ele>66.52000000000001</ele>
   </trkpt>
   <trkpt lat="51.382270000000005" lon="-0.8262">
    <ele>66.39</ele>
   </trkpt>
   <trkpt lat="51.382810000000006" lon="-0.82645">
    <ele>66.03</ele>
   </trkpt>
   <trkpt lat="51.3831750037004" lon="-0.8273849924922679">
    <ele>65.64</ele>
   </trkpt>
   <trkpt lat="51.38354" lon="-0.8283200000000001">
    <ele>65.14999999999999</ele>
   </trkpt>
   <trkpt lat="51.38432800000776" lon="-0.8282860023422791">
    <ele>62.82</ele>
   </trkpt>
   <trkpt lat="51.385116000005674" lon="-0.8282520035137493">
    <ele>59.160000000000004</ele>
   </trkpt>
   <trkpt lat="51.38590399999374" lon="-0.8282180035143373">
    <ele>59.89000000000001</ele>
   </trkpt>
   <trkpt lat="51.386691999971966" lon="-0.8281840023439696">
    <ele>62.76000000000001</ele>
   </trkpt>
   <trkpt lat="51.387480000000004" lon="-0.82815">
    <ele>63.69000000000001</ele>
   </trkpt>
   <trkpt lat="51.38835" lon="-0.82818">
    <ele>62.5</ele>
   </trkpt>
   <trkpt lat="51.38897000000001" lon="-0.8282200000000001">
    <ele>61.02</ele>
   </trkpt>
   <trkpt lat="51.388960000000004" lon="-0.8282200000000001">
    <ele>61.02</ele>
   </trkpt>
   <trkpt lat="51.389390000000006" lon="-0.8282">
    <ele>60.510000000000005</ele>
   </trkpt>
   <trkpt lat="51.39009" lon="-0.8282100000000001">
    <ele>58.49000000000001</ele>
   </trkpt>
   <trkpt lat="51.39017500652599" lon="-0.8294499974506852">
    <ele>58.72</ele>
   </trkpt>
   <trkpt lat="51.390260000000005" lon="-0.83069">
    <ele>56.330000000000005</ele>
   </trkpt>
   <trkpt lat="51.39038000000001" lon="-0.83142">
    <ele>56.21</ele>
   </trkpt>
   <trkpt lat="51.39086" lon="-0.8324400000000001">
    <ele>58.35</ele>
   </trkpt>
   <trkpt lat="51.39144" lon="-0.83279">
    <ele>59.5</ele>
   </trkpt>
   <trkpt lat="51.39221800231641" lon="-0.8331599748258922">
    <ele>59.86</ele>
   </trkpt>
   <trkpt lat="51.392996003467886" lon="-0.8335299622348391">
    <ele>59.46000000000001</ele>
   </trkpt>
   <trkpt lat="51.393774003454325" lon="-0.8338999622276004">
    <ele>59.14</ele>
   </trkpt>
   <trkpt lat="51.394552002275695" lon="-0.8342699748049356">
    <ele>58.97</ele>
   </trkpt>
   <trkpt lat="51.39533" lon="-0.83464">
    <ele>58.53</ele>
   </trkpt>
   <trkpt lat="51.39608500070591" lon="-0.8348724884929036">
    <ele>58.14</ele>
   </trkpt>
   <trkpt lat="51.39684000095182" lon="-0.8351049846601631">
    <ele>57.410000000000004</ele>
   </trkpt>
   <trkpt lat="51.39759500073772" lon="-0.8353374885022343">
    <ele>56.050000000000004</ele>
   </trkpt>
   <trkpt lat="51.39835000000001" lon="-0.83557">
    <ele>55.2</ele>
   </trkpt>
   <trkpt lat="51.398340000000005" lon="-0.83557">
    <ele>55.2</ele>
   </trkpt>
   <trkpt lat="51.39871" lon="-0.83567">
    <ele>54.830000000000005</ele>
   </trkpt>
   <trkpt lat="51.399060000000006" lon="-0.83584">
    <ele>54.46</ele>
   </trkpt>
   <trkpt lat="51.398920000000004" lon="-0.8368800000000001">
    <ele>53.7</ele>
   </trkpt>
   <trkpt lat="51.39888000713632" lon="-0.8381750011103667">
    <ele>55.32</ele>
   </trkpt>
   <trkpt lat="51.39884000000001" lon="-0.83947">
    <ele>55.95</ele>
   </trkpt>
   <trkpt lat="51.39949000000001" lon="-0.83964">
    <ele>56.06</ele>
   </trkpt>
   <trkpt lat="51.399480000000004" lon="-0.8396300000000001">
    <ele>56.06</ele>
   </trkpt>
   <trkpt lat="51.399530000000006" lon="-0.83964">
    <ele>56.13</ele>
   </trkpt>
   <trkpt lat="51.39976000000001" lon="-0.8396300000000001">
    <ele>56.13</ele>
   </trkpt>
   <trkpt lat="51.40023000000001" lon="-0.83957">
    <ele>56.42</ele>
   </trkpt>
   <trkpt lat="51.401" lon="-0.8392000000000001">
    <ele>56.080000000000005</ele>
   </trkpt>
   <trkpt lat="51.40102" lon="-0.8391900000000001">
    <ele>56.07</ele>
   </trkpt>
   <trkpt lat="51.4012" lon="-0.83913">
    <ele>56.07</ele>
   </trkpt>
   <trkpt lat="51.401390000000006" lon="-0.83911">
    <ele>55.77</ele>
   </trkpt>
   <trkpt lat="51.40176" lon="-0.83913">
    <ele>55.46</ele>
   </trkpt>
   <trkpt lat="51.401970000000006" lon="-0.83918">
    <ele>55.43000000000001</ele>
   </trkpt>
   <trkpt lat="51.40214" lon="-0.8393">
    <ele>55.46</ele>
   </trkpt>
   <trkpt lat="51.402240000000006" lon="-0.83942">
    <ele>55.510000000000005</ele>
   </trkpt>
   <trkpt lat="51.40231000000001" lon="-0.83955">
    <ele>55.510000000000005</ele>
   </trkpt>
   <trkpt lat="51.402530000000006" lon="-0.8401700000000001">
    <ele>55.89</ele>
   </trkpt>
   <trkpt lat="51.40303" lon="-0.8397800000000001">
    <ele>54.85</ele>
   </trkpt>
   <trkpt lat="51.403310000000005" lon="-0.83952">
    <ele>53.95</ele>
   </trkpt>
   <trkpt lat="51.40341" lon="-0.83947">
    <ele>53.56</ele>
   </trkpt>
   <trkpt lat="51.403490000000005" lon="-0.83933">
    <ele>52.94</ele>
   </trkpt>
   <trkpt lat="51.40382" lon="-0.8389300000000001">
    <ele>51.2</ele>
   </trkpt>
   <trkpt lat="51.40411" lon="-0.8384600000000001">
    <ele>50.43</ele>
   </trkpt>
   <trkpt lat="51.40422" lon="-0.8383900000000001">
    <ele>50.29</ele>
   </trkpt>
   <trkpt lat="51.40426" lon="-0.8384">
    <ele>50.29</ele>
   </trkpt>
   <trkpt lat="51.404300000000006" lon="-0.83838">
    <ele>50.29</ele>
   </trkpt>
   <trkpt lat="51.40433" lon="-0.8383200000000001">
    <ele>50.06000000000001</ele>
   </trkpt>
   <trkpt lat="51.40447" lon="-0.83825">
    <ele>50.06000000000001</ele>
   </trkpt>
   <trkpt lat="51.40457000000001" lon="-0.83813">
    <ele>50.0</ele>
   </trkpt>
   <trkpt lat="51.40451" lon="-0.83818">
    <ele>50.0</ele>
   </trkpt>
   <trkpt lat="51.404320000000006" lon="-0.83816">
    <ele>50.11</ele>
   </trkpt>
   <trkpt lat="51.40426" lon="-0.83811">
    <ele>50.230000000000004</ele>
   </trkpt>
   <trkpt lat="51.404210000000006" lon="-0.83813">
    <ele>50.230000000000004</ele>
   </trkpt>
   <trkpt lat="51.40408000000001" lon="-0.8384">
    <ele>50.440000000000005</ele>
   </trkpt>
   <trkpt lat="51.403980000000004" lon="-0.83867">
    <ele>50.61</ele>
   </trkpt>
   <trkpt lat="51.40411" lon="-0.8384600000000001">
    <ele>50.43</ele>
   </trkpt>
   <trkpt lat="51.40422" lon="-0.8383900000000001">
    <ele>50.29</ele>
   </trkpt>
   <trkpt lat="51.40426" lon="-0.8384">
    <ele>50.29</ele>
   </trkpt>
   <trkpt lat="51.404300000000006" lon="-0.83838">
    <ele>50.29</ele>
   </trkpt>
   <trkpt lat="51.40433" lon="-0.8383200000000001">
    <ele>50.06000000000001</ele>
   </trkpt>
   <trkpt lat="51.40447" lon="-0.83825">
    <ele>50.06000000000001</ele>
   </trkpt>
   <trkpt lat="51.40457000000001" lon="-0.83813">
    <ele>50.0</ele>
   </trkpt>
   <trkpt lat="51.40498" lon="-0.8378200000000001">
    <ele>50.11</ele>
   </trkpt>
   <trkpt lat="51.4052" lon="-0.8377300000000001">
    <ele>50.260000000000005</ele>
   </trkpt>
   <trkpt lat="51.40588" lon="-0.8375400000000001">
    <ele>52.18</ele>
   </trkpt>
   <trkpt lat="51.40648" lon="-0.83747">
    <ele>55.66</ele>
   </trkpt>
   <trkpt lat="51.407000000000004" lon="-0.83742">
    <ele>58.02</ele>
   </trkpt>
   <trkpt lat="51.40729" lon="-0.8373200000000001">
    <ele>60.11</ele>
   </trkpt>
   <trkpt lat="51.407410000000006" lon="-0.8373100000000001">
    <ele>60.11</ele>
   </trkpt>
   <trkpt lat="51.407450000000004" lon="-0.8373600000000001">
    <ele>60.59</ele>
   </trkpt>
   <trkpt lat="51.407520000000005" lon="-0.83738">
    <ele>60.59</ele>
   </trkpt>
   <trkpt lat="51.407560000000004" lon="-0.8373600000000001">
    <ele>60.83</ele>
   </trkpt>
   <trkpt lat="51.40778" lon="-0.8375100000000001">
    <ele>61.33</ele>
   </trkpt>
   <trkpt lat="51.407990000000005" lon="-0.83767">
    <ele>61.4</ele>
   </trkpt>
   <trkpt lat="51.408100000000005" lon="-0.83774">
    <ele>61.35</ele>
   </trkpt>
   <trkpt lat="51.40814" lon="-0.8378800000000001">
    <ele>61.35</ele>
   </trkpt>
   <trkpt lat="51.40836" lon="-0.8382100000000001">
    <ele>60.9</ele>
   </trkpt>
   <trkpt lat="51.408590000000004" lon="-0.8386300000000001">
    <ele>60.78000000000001</ele>
   </trkpt>
   <trkpt lat="51.40867" lon="-0.83879">
    <ele>60.81</ele>
   </trkpt>
   <trkpt lat="51.40891000178967" lon="-0.8394399965668426">
    <ele>60.76</ele>
   </trkpt>
   <trkpt lat="51.409150000000004" lon="-0.8400900000000001">
    <ele>60.35000000000001</ele>
   </trkpt>
   <trkpt lat="51.409290000000006" lon="-0.8403400000000001">
    <ele>60.050000000000004</ele>
   </trkpt>
   <trkpt lat="51.40975500215211" lon="-0.8410449928869467">
    <ele>59.34</ele>
   </trkpt>
   <trkpt lat="51.41022" lon="-0.8417500000000001">
    <ele>58.56000000000001</ele>
   </trkpt>
   <trkpt lat="51.4104" lon="-0.8419700000000001">
    <ele>58.56000000000001</ele>
   </trkpt>
   <trkpt lat="51.41049" lon="-0.84206">
    <ele>58.510000000000005</ele>
   </trkpt>
   <trkpt lat="51.410700000000006" lon="-0.8421200000000001">
    <ele>58.43</ele>
   </trkpt>
   <trkpt lat="51.41142000000001" lon="-0.8424200000000001">
    <ele>58.35</ele>
   </trkpt>
   <trkpt lat="51.412090000000006" lon="-0.8425800000000001">
    <ele>57.82</ele>
   </trkpt>
   <trkpt lat="51.41237" lon="-0.8426">
    <ele>57.660000000000004</ele>
   </trkpt>
   <trkpt lat="51.412530000000004" lon="-0.8425800000000001">
    <ele>57.720000000000006</ele>
   </trkpt>
   <trkpt lat="51.41282" lon="-0.8424900000000001">
    <ele>58.160000000000004</ele>
   </trkpt>
   <trkpt lat="51.4132" lon="-0.84223">
    <ele>59.04</ele>
   </trkpt>
   <trkpt lat="51.413430000000005" lon="-0.8419800000000001">
    <ele>59.800000000000004</ele>
   </trkpt>
   <trkpt lat="51.413590000000006" lon="-0.84186">
    <ele>60.07000000000001</ele>
   </trkpt>
   <trkpt lat="51.41371" lon="-0.8418200000000001">
    <ele>60.18</ele>
   </trkpt>
   <trkpt lat="51.41384000000001" lon="-0.8418500000000001">
    <ele>60.35000000000001</ele>
   </trkpt>
   <trkpt lat="51.41395000000001" lon="-0.84196">
    <ele>60.67</ele>
   </trkpt>
   <trkpt lat="51.41424000000001" lon="-0.84252">
    <ele>61.63</ele>
   </trkpt>
   <trkpt lat="51.41452000148706" lon="-0.8430999965632795">
    <ele>62.800000000000004</ele>
   </trkpt>
   <trkpt lat="51.41480000000001" lon="-0.8436800000000001">
    <ele>63.11</ele>
   </trkpt>
   <trkpt lat="51.415110000000006" lon="-0.8443900000000001">
    <ele>63.08000000000001</ele>
   </trkpt>
   <trkpt lat="51.41539" lon="-0.8441500000000001">
    <ele>63.34</ele>
   </trkpt>
   <trkpt lat="51.41564" lon="-0.8438500000000001">
    <ele>64.49000000000001</ele>
   </trkpt>
   <trkpt lat="51.41608" lon="-0.84338">
    <ele>67.0</ele>
   </trkpt>
   <trkpt lat="51.416360000000005" lon="-0.8432000000000001">
    <ele>67.8</ele>
   </trkpt>
   <trkpt lat="51.41659000000001" lon="-0.84291">
    <ele>68.65</ele>
   </trkpt>
   <trkpt lat="51.416700000000006" lon="-0.8427000000000001">
    <ele>68.71000000000001</ele>
   </trkpt>
   <trkpt lat="51.41677000000001" lon="-0.8425">
    <ele>68.76</ele>
   </trkpt>
   <trkpt lat="51.41691" lon="-0.8417800000000001">
    <ele>68.71000000000001</ele>
   </trkpt>
   <trkpt lat="51.417" lon="-0.84123">
    <ele>68.63000000000001</ele>
   </trkpt>
   <trkpt lat="51.41707" lon="-0.84013">
    <ele>67.84</ele>
   </trkpt>
   <trkpt lat="51.41715000000001" lon="-0.83991">
    <ele>67.03</ele>
   </trkpt>
   <trkpt lat="51.41738" lon="-0.83962">
    <ele>66.06</ele>
   </trkpt>
   <trkpt lat="51.41731000000001" lon="-0.8393">
    <ele>66.22</ele>
   </trkpt>
   <trkpt lat="51.417320000000004" lon="-0.8390500000000001">
    <ele>66.18</ele>
   </trkpt>
   <trkpt lat="51.41743" lon="-0.83906">
    <ele>65.17</ele>
   </trkpt>
   <trkpt lat="51.41756" lon="-0.8391000000000001">
    <ele>65.17</ele>
   </trkpt>
   <trkpt lat="51.41785" lon="-0.83925">
    <ele>63.83000000000001</ele>
   </trkpt>
   <trkpt lat="51.418380000000006" lon="-0.83962">
    <ele>62.65000000000001</ele>
   </trkpt>
   <trkpt lat="51.41856000000001" lon="-0.8398100000000001">
    <ele>61.980000000000004</ele>
   </trkpt>
   <trkpt lat="51.418780000000005" lon="-0.8401000000000001">
    <ele>61.33</ele>
   </trkpt>
   <trkpt lat="51.419230000000006" lon="-0.8407100000000001">
    <ele>60.33</ele>
   </trkpt>
   <trkpt lat="51.4194" lon="-0.8409200000000001">
    <ele>59.77</ele>
   </trkpt>
   <trkpt lat="51.419500000000006" lon="-0.8410000000000001">
    <ele>59.77</ele>
   </trkpt>
   <trkpt lat="51.419560000000004" lon="-0.8407300000000001">
    <ele>59.88</ele>
   </trkpt>
   <trkpt lat="51.419720000000005" lon="-0.84084">
    <ele>59.370000000000005</ele>
   </trkpt>
   <trkpt lat="51.41987" lon="-0.8408800000000001">
    <ele>58.31000000000001</ele>
   </trkpt>
   <trkpt lat="51.41991" lon="-0.8408800000000001">
    <ele>58.31000000000001</ele>
   </trkpt>
   <trkpt lat="51.4203850001838" lon="-0.8408150006528322">
    <ele>56.300000000000004</ele>
   </trkpt>
   <trkpt lat="51.420860000000005" lon="-0.8407500000000001">
    <ele>55.7</ele>
   </trkpt>
   <trkpt lat="51.42108" lon="-0.84067">
    <ele>55.38</ele>
   </trkpt>
   <trkpt lat="51.4211" lon="-0.84052">
    <ele>55.31</ele>
   </trkpt>
   <trkpt lat="51.421150000000004" lon="-0.8404900000000001">
    <ele>55.31</ele>
   </trkpt>
   <trkpt lat="51.42103" lon="-0.8398800000000001">
    <ele>55.36000000000001</ele>
   </trkpt>
   <trkpt lat="51.421040000000005" lon="-0.83986">
    <ele>55.36000000000001</ele>
   </trkpt>
   <trkpt lat="51.421150000000004" lon="-0.8398000000000001">
    <ele>55.38</ele>
   </trkpt>
   <trkpt lat="51.42098000000001" lon="-0.83867">
    <ele>55.900000000000006</ele>
   </trkpt>
  </trkseg>
 </trk>
</gpx>
