<?xml version="1.0" encoding="UTF-8"?>
<gpx creator="StravaGPX" version="1.1" xmlns="http://www.topografix.com/GPX/1/1" xmlns:xsi="http://www.w3.org/2001/XMLSchema-instance" xsi:schemaLocation="http://www.topografix.com/GPX/1/1 http://www.topografix.com/GPX/1/1/gpx.xsd">
 <metadata>
  <name>Wednesday evening gravel v4</name>
  <desc>Edited to remove the muddy climb.</desc>
  <author>
   <name>Andy Gundry</name>
   <link href="https://www.strava.com/athletes/25556211"/>
  </author>
  <copyright author="OpenStreetMap contributors">
   <year>2020</year>
   <license>https://www.openstreetmap.org/copyright</license>
  </copyright>
  <link href="https://www.strava.com/routes/3496631114271164258"/>
 </metadata>
 <trk>
  <name>Wednesday evening gravel v4</name>
  <desc>Edited to remove the muddy climb.</desc>
  <link href="https://www.strava.com/routes/3496631114271164258"/>
  <type>cycling</type>
  <trkseg>
   <trkpt lat="51.420500000000004" lon="-0.83559">
    <ele>55.46</ele>
   </trkpt>
   <trkpt lat="51.420260000000006" lon="-0.83462">
    <ele>56.64</ele>
   </trkpt>
   <trkpt lat="51.42022000000001" lon="-0.83435">
    <ele>56.71</ele>
   </trkpt>
   <trkpt lat="51.42022000000001" lon="-0.83413">
    <ele>56.7</ele>
   </trkpt>
   <trkpt lat="51.420280000000005" lon="-0.8333200000000001">
    <ele>56.28</ele>
   </trkpt>
   <trkpt lat="51.42027" lon="-0.83291">
    <ele>56.2</ele>
   </trkpt>
   <trkpt lat="51.420120000000004" lon="-0.83298">
    <ele>56.2</ele>
   </trkpt>
   <trkpt lat="51.42005" lon="-0.8331500000000001">
    <ele>56.790000000000006</ele>
   </trkpt>
   <trkpt lat="51.419990000000006" lon="-0.8332100000000001">
    <ele>56.790000000000006</ele>
   </trkpt>
   <trkpt lat="51.41986000000001" lon="-0.83352">
    <ele>57.77</ele>
   </trkpt>
   <trkpt lat="51.419740000000004" lon="-0.8336600000000001">
    <ele>58.06000000000001</ele>
   </trkpt>
   <trkpt lat="51.419560000000004" lon="-0.83381">
    <ele>58.84</ele>
   </trkpt>
   <trkpt lat="51.41931" lon="-0.83391">
    <ele>59.36</ele>
   </trkpt>
   <trkpt lat="51.41902" lon="-0.83408">
    <ele>59.60000000000001</ele>
   </trkpt>
   <trkpt lat="51.418760000000006" lon="-0.83418">
    <ele>61.18000000000001</ele>
   </trkpt>
   <trkpt lat="51.418580000000006" lon="-0.83435">
    <ele>61.84</ele>
   </trkpt>
   <trkpt lat="51.418400000000005" lon="-0.83445">
    <ele>62.14000000000001</ele>
   </trkpt>
   <trkpt lat="51.41825000000001" lon="-0.8344900000000001">
    <ele>63.27</ele>
   </trkpt>
   <trkpt lat="51.41817" lon="-0.8344600000000001">
    <ele>63.27</ele>
   </trkpt>
   <trkpt lat="51.418110000000006" lon="-0.8344">
    <ele>63.38</ele>
   </trkpt>
   <trkpt lat="51.418020000000006" lon="-0.83435">
    <ele>63.38</ele>
   </trkpt>
   <trkpt lat="51.41794" lon="-0.83425">
    <ele>63.97</ele>
   </trkpt>
   <trkpt lat="51.41776" lon="-0.83418">
    <ele>64.89999999999999</ele>
   </trkpt>
   <trkpt lat="51.41767" lon="-0.83418">
    <ele>64.89999999999999</ele>
   </trkpt>
   <trkpt lat="51.41742000000001" lon="-0.8340500000000001">
    <ele>65.31</ele>
   </trkpt>
   <trkpt lat="51.417190000000005" lon="-0.8338000000000001">
    <ele>65.9</ele>
   </trkpt>
   <trkpt lat="51.41714" lon="-0.83394">
    <ele>66.24000000000001</ele>
   </trkpt>
   <trkpt lat="51.416810000000005" lon="-0.8336600000000001">
    <ele>66.4</ele>
   </trkpt>
   <trkpt lat="51.41662" lon="-0.83367">
    <ele>66.54</ele>
   </trkpt>
   <trkpt lat="51.41586" lon="-0.83386">
    <ele>68.55</ele>
   </trkpt>
   <trkpt lat="51.41572000000001" lon="-0.83401">
    <ele>68.55</ele>
   </trkpt>
   <trkpt lat="51.415360001465366" lon="-0.8346050047531068">
    <ele>70.74000000000001</ele>
   </trkpt>
   <trkpt lat="51.415000000000006" lon="-0.8352">
    <ele>73.25000000000001</ele>
   </trkpt>
   <trkpt lat="51.414930000000005" lon="-0.8352100000000001">
    <ele>73.47000000000001</ele>
   </trkpt>
   <trkpt lat="51.414840000000005" lon="-0.8350400000000001">
    <ele>73.74</ele>
   </trkpt>
   <trkpt lat="51.41443" lon="-0.8346100000000001">
    <ele>74.29</ele>
   </trkpt>
   <trkpt lat="51.413920000000005" lon="-0.8341500000000001">
    <ele>73.91</ele>
   </trkpt>
   <trkpt lat="51.413180000000004" lon="-0.8334400000000001">
    <ele>72.56</ele>
   </trkpt>
   <trkpt lat="51.41345500245137" lon="-0.8326850044695254">
    <ele>70.45000000000002</ele>
   </trkpt>
   <trkpt lat="51.41373" lon="-0.8319300000000001">
    <ele>68.3</ele>
   </trkpt>
   <trkpt lat="51.413905002624006" lon="-0.8311400031648832">
    <ele>64.93</ele>
   </trkpt>
   <trkpt lat="51.414080000000006" lon="-0.83035">
    <ele>62.75</ele>
   </trkpt>
   <trkpt lat="51.41413000000001" lon="-0.83006">
    <ele>62.37</ele>
   </trkpt>
   <trkpt lat="51.41409" lon="-0.82989">
    <ele>62.120000000000005</ele>
   </trkpt>
   <trkpt lat="51.41405" lon="-0.82981">
    <ele>62.120000000000005</ele>
   </trkpt>
   <trkpt lat="51.413540000000005" lon="-0.82969">
    <ele>63.88</ele>
   </trkpt>
   <trkpt lat="51.412870000000005" lon="-0.8297500000000001">
    <ele>65.94</ele>
   </trkpt>
   <trkpt lat="51.41241" lon="-0.8297000000000001">
    <ele>67.36</ele>
   </trkpt>
   <trkpt lat="51.41228" lon="-0.8296600000000001">
    <ele>67.61</ele>
   </trkpt>
   <trkpt lat="51.41212" lon="-0.82952">
    <ele>67.67</ele>
   </trkpt>
   <trkpt lat="51.41207000000001" lon="-0.8294300000000001">
    <ele>67.7</ele>
   </trkpt>
   <trkpt lat="51.41199" lon="-0.82935">
    <ele>67.7</ele>
   </trkpt>
   <trkpt lat="51.41187000000001" lon="-0.8293800000000001">
    <ele>67.83</ele>
   </trkpt>
   <trkpt lat="51.411570000000005" lon="-0.8295600000000001">
    <ele>68.47</ele>
   </trkpt>
   <trkpt lat="51.41152" lon="-0.8296100000000001">
    <ele>68.47</ele>
   </trkpt>
   <trkpt lat="51.41125" lon="-0.8301700000000001">
    <ele>68.92</ele>
   </trkpt>
   <trkpt lat="51.410830000000004" lon="-0.83118">
    <ele>70.15</ele>
   </trkpt>
   <trkpt lat="51.410430000000005" lon="-0.8321700000000001">
    <ele>70.96000000000001</ele>
   </trkpt>
   <trkpt lat="51.41033" lon="-0.8324900000000001">
    <ele>71.21000000000001</ele>
   </trkpt>
   <trkpt lat="51.41024" lon="-0.8331000000000001">
    <ele>71.41</ele>
   </trkpt>
   <trkpt lat="51.41013" lon="-0.8334900000000001">
    <ele>71.24000000000001</ele>
   </trkpt>
   <trkpt lat="51.40981000000001" lon="-0.83425">
    <ele>70.46000000000001</ele>
   </trkpt>
   <trkpt lat="51.40966" lon="-0.83452">
    <ele>69.93</ele>
   </trkpt>
   <trkpt lat="51.40932" lon="-0.83503">
    <ele>68.76</ele>
   </trkpt>
   <trkpt lat="51.409130000000005" lon="-0.8352400000000001">
    <ele>68.4</ele>
   </trkpt>
   <trkpt lat="51.40876" lon="-0.83557">
    <ele>67.12</ele>
   </trkpt>
   <trkpt lat="51.408240000000006" lon="-0.83608">
    <ele>64.37</ele>
   </trkpt>
   <trkpt lat="51.40814" lon="-0.83613">
    <ele>64.13000000000001</ele>
   </trkpt>
   <trkpt lat="51.407790000000006" lon="-0.83672">
    <ele>62.24</ele>
   </trkpt>
   <trkpt lat="51.40753" lon="-0.8370200000000001">
    <ele>61.21000000000001</ele>
   </trkpt>
   <trkpt lat="51.40748000000001" lon="-0.83701">
    <ele>61.21000000000001</ele>
   </trkpt>
   <trkpt lat="51.40742" lon="-0.83706">
    <ele>61.21000000000001</ele>
   </trkpt>
   <trkpt lat="51.40739000000001" lon="-0.8371500000000001">
    <ele>60.93000000000001</ele>
   </trkpt>
   <trkpt lat="51.40701000000001" lon="-0.83738">
    <ele>58.36</ele>
   </trkpt>
   <trkpt lat="51.40686" lon="-0.8374300000000001">
    <ele>57.480000000000004</ele>
   </trkpt>
   <trkpt lat="51.4063699999903" lon="-0.8374850005918861">
    <ele>54.99</ele>
   </trkpt>
   <trkpt lat="51.40588" lon="-0.8375400000000001">
    <ele>52.18</ele>
   </trkpt>
   <trkpt lat="51.4052" lon="-0.8377300000000001">
    <ele>50.260000000000005</ele>
   </trkpt>
   <trkpt lat="51.40498" lon="-0.8378200000000001">
    <ele>50.11</ele>
   </trkpt>
   <trkpt lat="51.40451" lon="-0.83818">
    <ele>50.04</ele>
   </trkpt>
   <trkpt lat="51.404320000000006" lon="-0.83816">
    <ele>50.17</ele>
   </trkpt>
   <trkpt lat="51.40426" lon="-0.83811">
    <ele>50.230000000000004</ele>
   </trkpt>
   <trkpt lat="51.404210000000006" lon="-0.83813">
    <ele>50.330000000000005</ele>
   </trkpt>
   <trkpt lat="51.403980000000004" lon="-0.83867">
    <ele>50.61</ele>
   </trkpt>
   <trkpt lat="51.40382" lon="-0.8389300000000001">
    <ele>51.2</ele>
   </trkpt>
   <trkpt lat="51.403490000000005" lon="-0.83933">
    <ele>52.94</ele>
   </trkpt>
   <trkpt lat="51.40341" lon="-0.83947">
    <ele>53.56</ele>
   </trkpt>
   <trkpt lat="51.403310000000005" lon="-0.83952">
    <ele>53.95</ele>
   </trkpt>
   <trkpt lat="51.40303" lon="-0.8397800000000001">
    <ele>55.03</ele>
   </trkpt>
   <trkpt lat="51.402530000000006" lon="-0.8401700000000001">
    <ele>55.89</ele>
   </trkpt>
   <trkpt lat="51.40231000000001" lon="-0.83955">
    <ele>55.510000000000005</ele>
   </trkpt>
   <trkpt lat="51.402240000000006" lon="-0.83942">
    <ele>55.46</ele>
   </trkpt>
   <trkpt lat="51.40214" lon="-0.8393">
    <ele>55.46</ele>
   </trkpt>
   <trkpt lat="51.401970000000006" lon="-0.83918">
    <ele>55.43000000000001</ele>
   </trkpt>
   <trkpt lat="51.40176" lon="-0.83913">
    <ele>55.46</ele>
   </trkpt>
   <trkpt lat="51.401390000000006" lon="-0.83911">
    <ele>55.77</ele>
   </trkpt>
   <trkpt lat="51.4012" lon="-0.83913">
    <ele>56.050000000000004</ele>
   </trkpt>
   <trkpt lat="51.401050000000005" lon="-0.83918">
    <ele>56.050000000000004</ele>
   </trkpt>
   <trkpt lat="51.401030000000006" lon="-0.83918">
    <ele>56.050000000000004</ele>
   </trkpt>
   <trkpt lat="51.40023000000001" lon="-0.83957">
    <ele>56.42</ele>
   </trkpt>
   <trkpt lat="51.39976000000001" lon="-0.8396300000000001">
    <ele>56.220000000000006</ele>
   </trkpt>
   <trkpt lat="51.39952" lon="-0.83964">
    <ele>56.080000000000005</ele>
   </trkpt>
   <trkpt lat="51.39884000000001" lon="-0.83947">
    <ele>55.93000000000001</ele>
   </trkpt>
   <trkpt lat="51.39888000713494" lon="-0.8381750011545868">
    <ele>54.720000000000006</ele>
   </trkpt>
   <trkpt lat="51.398920000000004" lon="-0.8368800000000001">
    <ele>53.730000000000004</ele>
   </trkpt>
   <trkpt lat="51.399060000000006" lon="-0.83584">
    <ele>54.46</ele>
   </trkpt>
   <trkpt lat="51.39871" lon="-0.83567">
    <ele>54.830000000000005</ele>
   </trkpt>
   <trkpt lat="51.39786500085036" lon="-0.8354124857308226">
    <ele>55.650000000000006</ele>
   </trkpt>
   <trkpt lat="51.39702000113641" lon="-0.8351549809756518">
    <ele>56.6</ele>
   </trkpt>
   <trkpt lat="51.39617500085818" lon="-0.8348974857338545">
    <ele>57.92</ele>
   </trkpt>
   <trkpt lat="51.39533" lon="-0.83464">
    <ele>58.42000000000001</ele>
   </trkpt>
   <trkpt lat="51.39455200234381" lon="-0.8342699748373298">
    <ele>58.870000000000005</ele>
   </trkpt>
   <trkpt lat="51.39377400352244" lon="-0.8338999622599932">
    <ele>59.10000000000001</ele>
   </trkpt>
   <trkpt lat="51.39299600353599" lon="-0.8335299622672305">
    <ele>59.39</ele>
   </trkpt>
   <trkpt lat="51.39221800238453" lon="-0.8331599748582824">
    <ele>59.9</ele>
   </trkpt>
   <trkpt lat="51.39144" lon="-0.83279">
    <ele>59.64000000000001</ele>
   </trkpt>
   <trkpt lat="51.39086" lon="-0.8324400000000001">
    <ele>58.5</ele>
   </trkpt>
   <trkpt lat="51.39038000000001" lon="-0.83142">
    <ele>56.27</ele>
   </trkpt>
   <trkpt lat="51.390260000000005" lon="-0.83069">
    <ele>56.46</ele>
   </trkpt>
   <trkpt lat="51.39017500655967" lon="-0.8294499979421394">
    <ele>58.910000000000004</ele>
   </trkpt>
   <trkpt lat="51.39009" lon="-0.8282100000000001">
    <ele>58.580000000000005</ele>
   </trkpt>
   <trkpt lat="51.389390000000006" lon="-0.8282">
    <ele>59.300000000000004</ele>
   </trkpt>
   <trkpt lat="51.388980000000004" lon="-0.8282200000000001">
    <ele>61.07000000000001</ele>
   </trkpt>
   <trkpt lat="51.38835" lon="-0.82818">
    <ele>62.56</ele>
   </trkpt>
   <trkpt lat="51.387480000000004" lon="-0.82815">
    <ele>63.46</ele>
   </trkpt>
   <trkpt lat="51.38669200003161" lon="-0.8281840023413967">
    <ele>62.06</ele>
   </trkpt>
   <trkpt lat="51.385904000053365" lon="-0.8282180035117643">
    <ele>59.93</ele>
   </trkpt>
   <trkpt lat="51.385116000065295" lon="-0.8282520035111763">
    <ele>59.28000000000001</ele>
   </trkpt>
   <trkpt lat="51.38432800006739" lon="-0.8282860023397063">
    <ele>62.79</ele>
   </trkpt>
   <trkpt lat="51.38354" lon="-0.8283200000000001">
    <ele>65.10000000000001</ele>
   </trkpt>
   <trkpt lat="51.38317500374007" lon="-0.8273849925938799">
    <ele>65.68</ele>
   </trkpt>
   <trkpt lat="51.382810000000006" lon="-0.82645">
    <ele>65.97</ele>
   </trkpt>
   <trkpt lat="51.382270000000005" lon="-0.8262">
    <ele>66.48</ele>
   </trkpt>
   <trkpt lat="51.38177500021413" lon="-0.8260399983035487">
    <ele>66.55000000000001</ele>
   </trkpt>
   <trkpt lat="51.381280000000004" lon="-0.8258800000000001">
    <ele>66.99000000000001</ele>
   </trkpt>
   <trkpt lat="51.380970000000005" lon="-0.8258000000000001">
    <ele>67.43</ele>
   </trkpt>
   <trkpt lat="51.38067" lon="-0.82567">
    <ele>67.73</ele>
   </trkpt>
   <trkpt lat="51.3804" lon="-0.82557">
    <ele>67.92</ele>
   </trkpt>
   <trkpt lat="51.38011000753615" lon="-0.8269000083877418">
    <ele>68.93</ele>
   </trkpt>
   <trkpt lat="51.37982" lon="-0.82823">
    <ele>66.94</ele>
   </trkpt>
   <trkpt lat="51.37970000000001" lon="-0.82947">
    <ele>62.71</ele>
   </trkpt>
   <trkpt lat="51.379630000000006" lon="-0.8300500000000001">
    <ele>62.730000000000004</ele>
   </trkpt>
   <trkpt lat="51.37957" lon="-0.83028">
    <ele>63.160000000000004</ele>
   </trkpt>
   <trkpt lat="51.37942" lon="-0.8306000000000001">
    <ele>63.95</ele>
   </trkpt>
   <trkpt lat="51.37937" lon="-0.8306600000000001">
    <ele>64.06</ele>
   </trkpt>
   <trkpt lat="51.37937" lon="-0.83074">
    <ele>64.06</ele>
   </trkpt>
   <trkpt lat="51.37939" lon="-0.8307800000000001">
    <ele>64.21000000000001</ele>
   </trkpt>
   <trkpt lat="51.37937" lon="-0.83091">
    <ele>64.52000000000001</ele>
   </trkpt>
   <trkpt lat="51.379090000000005" lon="-0.83115">
    <ele>64.52000000000001</ele>
   </trkpt>
   <trkpt lat="51.37863" lon="-0.8312600000000001">
    <ele>64.32000000000001</ele>
   </trkpt>
   <trkpt lat="51.377775000203435" lon="-0.8315250049793241">
    <ele>64.52000000000001</ele>
   </trkpt>
   <trkpt lat="51.376920000000005" lon="-0.83179">
    <ele>64.41000000000001</ele>
   </trkpt>
   <trkpt lat="51.37634500015779" lon="-0.8319600021250438">
    <ele>65.30000000000001</ele>
   </trkpt>
   <trkpt lat="51.37577" lon="-0.83213">
    <ele>67.03</ele>
   </trkpt>
   <trkpt lat="51.375460000000004" lon="-0.8322700000000001">
    <ele>68.65</ele>
   </trkpt>
   <trkpt lat="51.374606001120796" lon="-0.8325280192547909">
    <ele>70.36</ele>
   </trkpt>
   <trkpt lat="51.37375200167495" lon="-0.8327860288834089">
    <ele>71.76</ele>
   </trkpt>
   <trkpt lat="51.372898001662534" lon="-0.8330440288865008">
    <ele>72.73</ele>
   </trkpt>
   <trkpt lat="51.37204400108357" lon="-0.8333020192647133">
    <ele>75.42</ele>
   </trkpt>
   <trkpt lat="51.371190000000006" lon="-0.8335600000000001">
    <ele>76.14</ele>
   </trkpt>
   <trkpt lat="51.37104" lon="-0.83369">
    <ele>76.63</ele>
   </trkpt>
   <trkpt lat="51.37095000000001" lon="-0.8337000000000001">
    <ele>76.80000000000001</ele>
   </trkpt>
   <trkpt lat="51.37030000000001" lon="-0.83394">
    <ele>78.65</ele>
   </trkpt>
   <trkpt lat="51.36977" lon="-0.83401">
    <ele>80.93</ele>
   </trkpt>
   <trkpt lat="51.36939" lon="-0.83418">
    <ele>81.12</ele>
   </trkpt>
   <trkpt lat="51.368700000000004" lon="-0.8343200000000001">
    <ele>81.98</ele>
   </trkpt>
   <trkpt lat="51.368460000000006" lon="-0.8344">
    <ele>82.21000000000001</ele>
   </trkpt>
   <trkpt lat="51.36807" lon="-0.8345800000000001">
    <ele>83.18</ele>
   </trkpt>
   <trkpt lat="51.36722" lon="-0.83481">
    <ele>86.05</ele>
   </trkpt>
   <trkpt lat="51.36715" lon="-0.83403">
    <ele>90.01</ele>
   </trkpt>
   <trkpt lat="51.36715" lon="-0.83355">
    <ele>89.97000000000001</ele>
   </trkpt>
   <trkpt lat="51.366630001412126" lon="-0.8329599932215729">
    <ele>89.86000000000001</ele>
   </trkpt>
   <trkpt lat="51.366110000000006" lon="-0.83237">
    <ele>87.93</ele>
   </trkpt>
   <trkpt lat="51.365700000000004" lon="-0.83181">
    <ele>87.25</ele>
   </trkpt>
   <trkpt lat="51.36556" lon="-0.83172">
    <ele>86.96000000000001</ele>
   </trkpt>
   <trkpt lat="51.364990000000006" lon="-0.8312100000000001">
    <ele>87.9</ele>
   </trkpt>
   <trkpt lat="51.36446500001448" lon="-0.8312900009190382">
    <ele>88.99000000000001</ele>
   </trkpt>
   <trkpt lat="51.36394000000001" lon="-0.83137">
    <ele>92.30000000000001</ele>
   </trkpt>
   <trkpt lat="51.36307000000001" lon="-0.8316600000000001">
    <ele>98.85000000000001</ele>
   </trkpt>
   <trkpt lat="51.362230000000004" lon="-0.83208">
    <ele>100.97</ele>
   </trkpt>
   <trkpt lat="51.361880000000006" lon="-0.8323100000000001">
    <ele>97.24000000000001</ele>
   </trkpt>
   <trkpt lat="51.36189" lon="-0.8323">
    <ele>97.07000000000001</ele>
   </trkpt>
   <trkpt lat="51.36177000000001" lon="-0.83252">
    <ele>95.79</ele>
   </trkpt>
   <trkpt lat="51.36171" lon="-0.8327100000000001">
    <ele>95.79</ele>
   </trkpt>
   <trkpt lat="51.36169" lon="-0.83301">
    <ele>91.09</ele>
   </trkpt>
   <trkpt lat="51.36151" lon="-0.83374">
    <ele>87.07000000000001</ele>
   </trkpt>
   <trkpt lat="51.36141000000001" lon="-0.83391">
    <ele>86.51</ele>
   </trkpt>
   <trkpt lat="51.36106" lon="-0.8343200000000001">
    <ele>86.05</ele>
   </trkpt>
   <trkpt lat="51.36074000000001" lon="-0.8348300000000001">
    <ele>88.03000000000002</ele>
   </trkpt>
   <trkpt lat="51.360670000000006" lon="-0.83498">
    <ele>88.03000000000002</ele>
   </trkpt>
   <trkpt lat="51.360640000000004" lon="-0.83518">
    <ele>87.32000000000001</ele>
   </trkpt>
   <trkpt lat="51.36064000356341" lon="-0.8360950002432939">
    <ele>85.22</ele>
   </trkpt>
   <trkpt lat="51.360640000000004" lon="-0.83701">
    <ele>82.14</ele>
   </trkpt>
   <trkpt lat="51.36072000000001" lon="-0.83747">
    <ele>80.17</ele>
   </trkpt>
   <trkpt lat="51.360670000000006" lon="-0.83762">
    <ele>79.23</ele>
   </trkpt>
   <trkpt lat="51.360380000000006" lon="-0.83794">
    <ele>77.00000000000001</ele>
   </trkpt>
   <trkpt lat="51.35972" lon="-0.8383700000000001">
    <ele>72.83</ele>
   </trkpt>
   <trkpt lat="51.35949" lon="-0.8383700000000001">
    <ele>72.06</ele>
   </trkpt>
   <trkpt lat="51.35887" lon="-0.8384">
    <ele>68.24000000000001</ele>
   </trkpt>
   <trkpt lat="51.35803000000001" lon="-0.8387500000000001">
    <ele>63.12000000000001</ele>
   </trkpt>
   <trkpt lat="51.35814000360617" lon="-0.839669997821147">
    <ele>62.18000000000001</ele>
   </trkpt>
   <trkpt lat="51.358250000000005" lon="-0.8405900000000001">
    <ele>60.730000000000004</ele>
   </trkpt>
   <trkpt lat="51.35835000244572" lon="-0.841344998499134">
    <ele>59.88</ele>
   </trkpt>
   <trkpt lat="51.358450000000005" lon="-0.8421000000000001">
    <ele>59.480000000000004</ele>
   </trkpt>
   <trkpt lat="51.35856500523393" lon="-0.8432049975804533">
    <ele>58.79</ele>
   </trkpt>
   <trkpt lat="51.35868000000001" lon="-0.8443100000000001">
    <ele>58.79</ele>
   </trkpt>
   <trkpt lat="51.35844" lon="-0.8444100000000001">
    <ele>58.150000000000006</ele>
   </trkpt>
   <trkpt lat="51.35842" lon="-0.84445">
    <ele>57.89</ele>
   </trkpt>
   <trkpt lat="51.358410000000006" lon="-0.8446800000000001">
    <ele>57.580000000000005</ele>
   </trkpt>
   <trkpt lat="51.35817" lon="-0.84582">
    <ele>56.5</ele>
   </trkpt>
   <trkpt lat="51.35810334213693" lon="-0.8468366695514855">
    <ele>55.580000000000005</ele>
   </trkpt>
   <trkpt lat="51.35803667547513" lon="-0.847853336143903">
    <ele>56.230000000000004</ele>
   </trkpt>
   <trkpt lat="51.35797" lon="-0.8488700000000001">
    <ele>55.63</ele>
   </trkpt>
   <trkpt lat="51.35817000914154" lon="-0.8499066575792916">
    <ele>54.81</ele>
   </trkpt>
   <trkpt lat="51.35837000913487" lon="-0.8509433242111949">
    <ele>54.540000000000006</ele>
   </trkpt>
   <trkpt lat="51.35857000000001" lon="-0.8519800000000001">
    <ele>54.150000000000006</ele>
   </trkpt>
   <trkpt lat="51.35811751053736" lon="-0.8528875268508794">
    <ele>53.89000000000001</ele>
   </trkpt>
   <trkpt lat="51.357665014063834" lon="-0.853795035772474">
    <ele>55.17</ele>
   </trkpt>
   <trkpt lat="51.35721251057968" lon="-0.8547025267651503">
    <ele>50.64</ele>
   </trkpt>
   <trkpt lat="51.35676" lon="-0.8556100000000001">
    <ele>52.31</ele>
   </trkpt>
   <trkpt lat="51.35691001132267" lon="-0.8567633257748883">
    <ele>54.55</ele>
   </trkpt>
   <trkpt lat="51.35706001132203" lon="-0.857916659103103">
    <ele>54.830000000000005</ele>
   </trkpt>
   <trkpt lat="51.35721" lon="-0.8590700000000001">
    <ele>52.67</ele>
   </trkpt>
   <trkpt lat="51.35650000030841" lon="-0.8593850049326789">
    <ele>49.730000000000004</ele>
   </trkpt>
   <trkpt lat="51.355790000000006" lon="-0.8597">
    <ele>50.03</ele>
   </trkpt>
   <trkpt lat="51.35536500060125" lon="-0.8592899960861827">
    <ele>47.82</ele>
   </trkpt>
   <trkpt lat="51.354940000000006" lon="-0.8588800000000001">
    <ele>48.480000000000004</ele>
   </trkpt>
   <trkpt lat="51.354650008285205" lon="-0.8578933208346073">
    <ele>48.07</ele>
   </trkpt>
   <trkpt lat="51.35436000828296" lon="-0.8569066541604979">
    <ele>47.96</ele>
   </trkpt>
   <trkpt lat="51.35407000000001" lon="-0.8559200000000001">
    <ele>49.120000000000005</ele>
   </trkpt>
   <trkpt lat="51.35414335017586" lon="-0.8545133378744113">
    <ele>50.410000000000004</ele>
   </trkpt>
   <trkpt lat="51.35421668350727" lon="-0.8531066712450548">
    <ele>51.17000000000001</ele>
   </trkpt>
   <trkpt lat="51.354290000000006" lon="-0.8517000000000001">
    <ele>50.56</ele>
   </trkpt>
   <trkpt lat="51.35389001086705" lon="-0.8505699802593936">
    <ele>52.09</ele>
   </trkpt>
   <trkpt lat="51.35349001086381" lon="-0.8494399802505811">
    <ele>50.02</ele>
   </trkpt>
   <trkpt lat="51.35309" lon="-0.8483100000000001">
    <ele>52.15</ele>
   </trkpt>
   <trkpt lat="51.35286334608138" lon="-0.847086654605412">
    <ele>52.50000000000001</ele>
   </trkpt>
   <trkpt lat="51.35263667942264" lon="-0.8458633213150397">
    <ele>52.27</ele>
   </trkpt>
   <trkpt lat="51.352410000000006" lon="-0.8446400000000001">
    <ele>52.620000000000005</ele>
   </trkpt>
   <trkpt lat="51.352410003447766" lon="-0.8437400001391427">
    <ele>52.690000000000005</ele>
   </trkpt>
   <trkpt lat="51.352410000000006" lon="-0.84284">
    <ele>52.78000000000001</ele>
   </trkpt>
   <trkpt lat="51.35192000000001" lon="-0.84196">
    <ele>53.58</ele>
   </trkpt>
   <trkpt lat="51.351440000265306" lon="-0.841724997552895">
    <ele>53.89000000000001</ele>
   </trkpt>
   <trkpt lat="51.35096000000001" lon="-0.8414900000000001">
    <ele>53.96</ele>
   </trkpt>
   <trkpt lat="51.350315002649296" lon="-0.8422800111295424">
    <ele>53.14000000000001</ele>
   </trkpt>
   <trkpt lat="51.34967" lon="-0.8430700000000001">
    <ele>54.45</ele>
   </trkpt>
   <trkpt lat="51.34947000179272" lon="-0.8424199971443973">
    <ele>54.49</ele>
   </trkpt>
   <trkpt lat="51.349270000000004" lon="-0.84177">
    <ele>54.78</ele>
   </trkpt>
   <trkpt lat="51.348690000000005" lon="-0.84164">
    <ele>55.07000000000001</ele>
   </trkpt>
   <trkpt lat="51.34788" lon="-0.84191">
    <ele>55.870000000000005</ele>
   </trkpt>
   <trkpt lat="51.347230000105085" lon="-0.8421250030799684">
    <ele>56.28</ele>
   </trkpt>
   <trkpt lat="51.34658" lon="-0.8423400000000001">
    <ele>56.74</ele>
   </trkpt>
   <trkpt lat="51.34606" lon="-0.8430300000000001">
    <ele>56.720000000000006</ele>
   </trkpt>
   <trkpt lat="51.34561000000001" lon="-0.8434200000000001">
    <ele>57.040000000000006</ele>
   </trkpt>
   <trkpt lat="51.34544" lon="-0.8434">
    <ele>57.28</ele>
   </trkpt>
   <trkpt lat="51.345000000000006" lon="-0.84328">
    <ele>57.7</ele>
   </trkpt>
   <trkpt lat="51.34476" lon="-0.84318">
    <ele>58.010000000000005</ele>
   </trkpt>
   <trkpt lat="51.34461" lon="-0.8431500000000001">
    <ele>58.49000000000001</ele>
   </trkpt>
   <trkpt lat="51.34447" lon="-0.8431700000000001">
    <ele>58.49000000000001</ele>
   </trkpt>
   <trkpt lat="51.344350000000006" lon="-0.8432400000000001">
    <ele>59.25</ele>
   </trkpt>
   <trkpt lat="51.34429" lon="-0.8430000000000001">
    <ele>59.410000000000004</ele>
   </trkpt>
   <trkpt lat="51.34413000000001" lon="-0.8425900000000001">
    <ele>59.980000000000004</ele>
   </trkpt>
   <trkpt lat="51.34416" lon="-0.8428100000000001">
    <ele>59.980000000000004</ele>
   </trkpt>
   <trkpt lat="51.344280000000005" lon="-0.8432000000000001">
    <ele>59.65</ele>
   </trkpt>
   <trkpt lat="51.344080000000005" lon="-0.8433200000000001">
    <ele>59.580000000000005</ele>
   </trkpt>
   <trkpt lat="51.34394" lon="-0.8433100000000001">
    <ele>59.68</ele>
   </trkpt>
   <trkpt lat="51.34331" lon="-0.8434200000000001">
    <ele>60.7</ele>
   </trkpt>
   <trkpt lat="51.34286500019372" lon="-0.8435500012266384">
    <ele>61.26</ele>
   </trkpt>
   <trkpt lat="51.342420000000004" lon="-0.8436800000000001">
    <ele>62.470000000000006</ele>
   </trkpt>
   <trkpt lat="51.342110000000005" lon="-0.84386">
    <ele>63.26000000000001</ele>
   </trkpt>
   <trkpt lat="51.341715000671684" lon="-0.8442250030489759">
    <ele>65.03</ele>
   </trkpt>
   <trkpt lat="51.34132" lon="-0.8445900000000001">
    <ele>66.21000000000001</ele>
   </trkpt>
   <trkpt lat="51.341" lon="-0.84513">
    <ele>67.36</ele>
   </trkpt>
   <trkpt lat="51.340770000000006" lon="-0.8452700000000001">
    <ele>67.60000000000001</ele>
   </trkpt>
   <trkpt lat="51.34067" lon="-0.84574">
    <ele>67.71000000000001</ele>
   </trkpt>
   <trkpt lat="51.3406" lon="-0.8457600000000001">
    <ele>67.82000000000001</ele>
   </trkpt>
   <trkpt lat="51.34056" lon="-0.8458500000000001">
    <ele>67.82000000000001</ele>
   </trkpt>
   <trkpt lat="51.340340000000005" lon="-0.8458700000000001">
    <ele>68.15</ele>
   </trkpt>
   <trkpt lat="51.339920000000006" lon="-0.84599">
    <ele>69.07000000000001</ele>
   </trkpt>
   <trkpt lat="51.339670000000005" lon="-0.8460300000000001">
    <ele>70.41</ele>
   </trkpt>
   <trkpt lat="51.33937" lon="-0.84596">
    <ele>72.13</ele>
   </trkpt>
   <trkpt lat="51.33905000000001" lon="-0.84599">
    <ele>73.11000000000001</ele>
   </trkpt>
   <trkpt lat="51.33874" lon="-0.84604">
    <ele>73.84</ele>
   </trkpt>
   <trkpt lat="51.338060000000006" lon="-0.84618">
    <ele>76.33000000000001</ele>
   </trkpt>
   <trkpt lat="51.33789" lon="-0.84618">
    <ele>76.61000000000001</ele>
   </trkpt>
   <trkpt lat="51.33767" lon="-0.8461400000000001">
    <ele>77.31</ele>
   </trkpt>
   <trkpt lat="51.3374" lon="-0.84599">
    <ele>78.52000000000001</ele>
   </trkpt>
   <trkpt lat="51.33717000000001" lon="-0.84579">
    <ele>79.85000000000001</ele>
   </trkpt>
   <trkpt lat="51.33702" lon="-0.8455900000000001">
    <ele>79.85000000000001</ele>
   </trkpt>
   <trkpt lat="51.336920000000006" lon="-0.8454200000000001">
    <ele>80.53999999999999</ele>
   </trkpt>
   <trkpt lat="51.336670000000005" lon="-0.84472">
    <ele>81.63000000000001</ele>
   </trkpt>
   <trkpt lat="51.33662" lon="-0.8447100000000001">
    <ele>81.9</ele>
   </trkpt>
   <trkpt lat="51.336600000000004" lon="-0.84469">
    <ele>81.9</ele>
   </trkpt>
   <trkpt lat="51.336580000000005" lon="-0.8445800000000001">
    <ele>81.9</ele>
   </trkpt>
   <trkpt lat="51.33639" lon="-0.84452">
    <ele>82.66000000000001</ele>
   </trkpt>
   <trkpt lat="51.335980000000006" lon="-0.8445">
    <ele>84.47</ele>
   </trkpt>
   <trkpt lat="51.335910000000005" lon="-0.8444400000000001">
    <ele>84.92</ele>
   </trkpt>
   <trkpt lat="51.335770000000004" lon="-0.8443700000000001">
    <ele>86.28</ele>
   </trkpt>
   <trkpt lat="51.33523" lon="-0.8440200000000001">
    <ele>88.36</ele>
   </trkpt>
   <trkpt lat="51.33514" lon="-0.8444">
    <ele>88.84</ele>
   </trkpt>
   <trkpt lat="51.33509" lon="-0.84452">
    <ele>89.06000000000002</ele>
   </trkpt>
   <trkpt lat="51.335040000000006" lon="-0.8445800000000001">
    <ele>89.06000000000002</ele>
   </trkpt>
   <trkpt lat="51.33454999991517" lon="-0.8444999991266622">
    <ele>89.60000000000001</ele>
   </trkpt>
   <trkpt lat="51.33406" lon="-0.8444200000000001">
    <ele>90.06</ele>
   </trkpt>
   <trkpt lat="51.333670000000005" lon="-0.8443100000000001">
    <ele>90.72000000000001</ele>
   </trkpt>
   <trkpt lat="51.333670000000005" lon="-0.8443">
    <ele>90.53000000000002</ele>
   </trkpt>
   <trkpt lat="51.333000000000006" lon="-0.84416">
    <ele>92.78</ele>
   </trkpt>
   <trkpt lat="51.33257000038588" lon="-0.8444100022749906">
    <ele>94.76</ele>
   </trkpt>
   <trkpt lat="51.33214" lon="-0.8446600000000001">
    <ele>95.55000000000001</ele>
   </trkpt>
   <trkpt lat="51.332135004428956" lon="-0.8456800001544769">
    <ele>95.09</ele>
   </trkpt>
   <trkpt lat="51.33213000000001" lon="-0.8467000000000001">
    <ele>94.17</ele>
   </trkpt>
   <trkpt lat="51.3317950028466" lon="-0.8475150059087933">
    <ele>91.91</ele>
   </trkpt>
   <trkpt lat="51.33146000000001" lon="-0.84833">
    <ele>92.97000000000001</ele>
   </trkpt>
   <trkpt lat="51.3316" lon="-0.84974">
    <ele>93.31</ele>
   </trkpt>
   <trkpt lat="51.332060000000006" lon="-0.85028">
    <ele>91.49</ele>
   </trkpt>
   <trkpt lat="51.33212" lon="-0.8507300000000001">
    <ele>90.23</ele>
   </trkpt>
   <trkpt lat="51.33182000000001" lon="-0.85079">
    <ele>91.31</ele>
   </trkpt>
   <trkpt lat="51.33166000000001" lon="-0.8508800000000001">
    <ele>91.00000000000001</ele>
   </trkpt>
   <trkpt lat="51.331480000000006" lon="-0.85118">
    <ele>91.07000000000001</ele>
   </trkpt>
   <trkpt lat="51.330890000000004" lon="-0.8515900000000001">
    <ele>93.75000000000001</ele>
   </trkpt>
   <trkpt lat="51.33030000048502" lon="-0.8519250043064173">
    <ele>93.89</ele>
   </trkpt>
   <trkpt lat="51.329710000000006" lon="-0.85226">
    <ele>93.48</ele>
   </trkpt>
   <trkpt lat="51.32956" lon="-0.8524">
    <ele>93.91000000000001</ele>
   </trkpt>
   <trkpt lat="51.329510000000006" lon="-0.85257">
    <ele>94.17</ele>
   </trkpt>
   <trkpt lat="51.329460000000005" lon="-0.85262">
    <ele>94.21</ele>
   </trkpt>
   <trkpt lat="51.32925" lon="-0.85257">
    <ele>92.96</ele>
   </trkpt>
   <trkpt lat="51.328610000000005" lon="-0.8530200000000001">
    <ele>83.01</ele>
   </trkpt>
   <trkpt lat="51.328590000000005" lon="-0.8530300000000001">
    <ele>83.03</ele>
   </trkpt>
   <trkpt lat="51.32817000000001" lon="-0.85323">
    <ele>86.41</ele>
   </trkpt>
   <trkpt lat="51.32802" lon="-0.8534700000000001">
    <ele>89.52</ele>
   </trkpt>
   <trkpt lat="51.32752000028398" lon="-0.8537600032049296">
    <ele>92.89000000000001</ele>
   </trkpt>
   <trkpt lat="51.327020000000005" lon="-0.8540500000000001">
    <ele>92.06</ele>
   </trkpt>
   <trkpt lat="51.32784" lon="-0.85357">
    <ele>91.69000000000001</ele>
   </trkpt>
   <trkpt lat="51.327020000000005" lon="-0.8540500000000001">
    <ele>92.06</ele>
   </trkpt>
   <trkpt lat="51.32714000000001" lon="-0.85457">
    <ele>92.68</ele>
   </trkpt>
   <trkpt lat="51.327200000000005" lon="-0.85474">
    <ele>93.97000000000001</ele>
   </trkpt>
   <trkpt lat="51.32735" lon="-0.85484">
    <ele>94.76</ele>
   </trkpt>
   <trkpt lat="51.327400000000004" lon="-0.85496">
    <ele>95.46000000000001</ele>
   </trkpt>
   <trkpt lat="51.327450000000006" lon="-0.85594">
    <ele>94.78</ele>
   </trkpt>
   <trkpt lat="51.327400000000004" lon="-0.85638">
    <ele>93.34</ele>
   </trkpt>
   <trkpt lat="51.32734000000001" lon="-0.85762">
    <ele>87.31000000000002</ele>
   </trkpt>
   <trkpt lat="51.327420000000004" lon="-0.8578300000000001">
    <ele>87.55</ele>
   </trkpt>
   <trkpt lat="51.32741000000001" lon="-0.85782">
    <ele>87.55</ele>
   </trkpt>
   <trkpt lat="51.327510000000004" lon="-0.8580300000000001">
    <ele>88.44</ele>
   </trkpt>
   <trkpt lat="51.32762" lon="-0.85806">
    <ele>89.21000000000001</ele>
   </trkpt>
   <trkpt lat="51.32771" lon="-0.8580300000000001">
    <ele>90.87</ele>
   </trkpt>
   <trkpt lat="51.328180000568636" lon="-0.8577050032487962">
    <ele>92.56</ele>
   </trkpt>
   <trkpt lat="51.32865" lon="-0.85738">
    <ele>92.39000000000001</ele>
   </trkpt>
   <trkpt lat="51.32864000000001" lon="-0.85738">
    <ele>92.44000000000001</ele>
   </trkpt>
   <trkpt lat="51.32875000000001" lon="-0.8573400000000001">
    <ele>92.99</ele>
   </trkpt>
   <trkpt lat="51.32897334809413" lon="-0.8586566538406328">
    <ele>94.46</ele>
   </trkpt>
   <trkpt lat="51.32919668142748" lon="-0.8599733205070723">
    <ele>94.59</ele>
   </trkpt>
   <trkpt lat="51.329420000000006" lon="-0.8612900000000001">
    <ele>93.27000000000001</ele>
   </trkpt>
   <trkpt lat="51.329613343259304" lon="-0.8623699908630494">
    <ele>93.37</ele>
   </trkpt>
   <trkpt lat="51.32980667658738" lon="-0.863449990833465">
    <ele>92.98</ele>
   </trkpt>
   <trkpt lat="51.330000000000005" lon="-0.86453">
    <ele>89.45</ele>
   </trkpt>
   <trkpt lat="51.330130000000004" lon="-0.8652500000000001">
    <ele>89.03000000000002</ele>
   </trkpt>
   <trkpt lat="51.33015" lon="-0.86558">
    <ele>89.25000000000001</ele>
   </trkpt>
   <trkpt lat="51.330110000000005" lon="-0.86567">
    <ele>89.25000000000001</ele>
   </trkpt>
   <trkpt lat="51.329385001170394" lon="-0.8661850081133127">
    <ele>91.80000000000001</ele>
   </trkpt>
   <trkpt lat="51.328660000000006" lon="-0.8667">
    <ele>92.86000000000001</ele>
   </trkpt>
   <trkpt lat="51.328945002447874" lon="-0.8674499954784607">
    <ele>93.26</ele>
   </trkpt>
   <trkpt lat="51.32923" lon="-0.8682000000000001">
    <ele>94.43</ele>
   </trkpt>
   <trkpt lat="51.32929000000001" lon="-0.86845">
    <ele>95.07</ele>
   </trkpt>
   <trkpt lat="51.329480000000004" lon="-0.86897">
    <ele>96.04</ele>
   </trkpt>
   <trkpt lat="51.32952" lon="-0.86904">
    <ele>96.04</ele>
   </trkpt>
   <trkpt lat="51.329730000000005" lon="-0.8695200000000001">
    <ele>95.34</ele>
   </trkpt>
   <trkpt lat="51.32984000345877" lon="-0.8704249975985393">
    <ele>93.47000000000001</ele>
   </trkpt>
   <trkpt lat="51.329950000000004" lon="-0.87133">
    <ele>93.55000000000001</ele>
   </trkpt>
   <trkpt lat="51.33008500640541" lon="-0.8725549965467442">
    <ele>93.97000000000001</ele>
   </trkpt>
   <trkpt lat="51.330220000000004" lon="-0.8737800000000001">
    <ele>95.36000000000001</ele>
   </trkpt>
   <trkpt lat="51.33023000000001" lon="-0.8739800000000001">
    <ele>95.12</ele>
   </trkpt>
   <trkpt lat="51.330380000000005" lon="-0.8751200000000001">
    <ele>94.25000000000001</ele>
   </trkpt>
   <trkpt lat="51.330580000000005" lon="-0.87604">
    <ele>93.09</ele>
   </trkpt>
   <trkpt lat="51.33073" lon="-0.87692">
    <ele>92.86000000000001</ele>
   </trkpt>
   <trkpt lat="51.330870000000004" lon="-0.8780300000000001">
    <ele>92.88</ele>
   </trkpt>
   <trkpt lat="51.331010000000006" lon="-0.8794500000000001">
    <ele>92.83000000000001</ele>
   </trkpt>
   <trkpt lat="51.331130009388914" lon="-0.8804999945196115">
    <ele>92.08000000000001</ele>
   </trkpt>
   <trkpt lat="51.331250009390736" lon="-0.8815499945354286">
    <ele>90.38</ele>
   </trkpt>
   <trkpt lat="51.33137000000001" lon="-0.8826">
    <ele>91.13</ele>
   </trkpt>
   <trkpt lat="51.331450000000004" lon="-0.8830100000000001">
    <ele>91.69000000000001</ele>
   </trkpt>
   <trkpt lat="51.331860000000006" lon="-0.8842300000000001">
    <ele>91.74</ele>
   </trkpt>
   <trkpt lat="51.332100000000004" lon="-0.8848">
    <ele>91.62</ele>
   </trkpt>
   <trkpt lat="51.332420000000006" lon="-0.88541">
    <ele>91.58000000000001</ele>
   </trkpt>
   <trkpt lat="51.3326900023001" lon="-0.886124996117096">
    <ele>92.41000000000001</ele>
   </trkpt>
   <trkpt lat="51.33296000000001" lon="-0.8868400000000001">
    <ele>92.69000000000001</ele>
   </trkpt>
   <trkpt lat="51.333090000000006" lon="-0.8872800000000001">
    <ele>92.62</ele>
   </trkpt>
   <trkpt lat="51.33343000000001" lon="-0.8886000000000001">
    <ele>93.23</ele>
   </trkpt>
   <trkpt lat="51.33364" lon="-0.8890500000000001">
    <ele>93.30000000000001</ele>
   </trkpt>
   <trkpt lat="51.33394500238891" lon="-0.8897999949965248">
    <ele>93.01</ele>
   </trkpt>
   <trkpt lat="51.334250000000004" lon="-0.8905500000000001">
    <ele>91.86000000000001</ele>
   </trkpt>
   <trkpt lat="51.33433" lon="-0.8908200000000001">
    <ele>91.81</ele>
   </trkpt>
   <trkpt lat="51.33442" lon="-0.89163">
    <ele>92.47000000000001</ele>
   </trkpt>
   <trkpt lat="51.33449" lon="-0.8918900000000001">
    <ele>92.82000000000001</ele>
   </trkpt>
   <trkpt lat="51.334590000000006" lon="-0.8921600000000001">
    <ele>92.95</ele>
   </trkpt>
   <trkpt lat="51.334740000000004" lon="-0.89236">
    <ele>92.93</ele>
   </trkpt>
   <trkpt lat="51.33511000000001" lon="-0.8927200000000001">
    <ele>92.69000000000001</ele>
   </trkpt>
   <trkpt lat="51.335280000000004" lon="-0.8929900000000001">
    <ele>92.43</ele>
   </trkpt>
   <trkpt lat="51.33538500301701" lon="-0.8938349978824983">
    <ele>92.15</ele>
   </trkpt>
   <trkpt lat="51.33549000000001" lon="-0.89468">
    <ele>91.67</ele>
   </trkpt>
   <trkpt lat="51.33552" lon="-0.89553">
    <ele>91.56</ele>
   </trkpt>
   <trkpt lat="51.335510000000006" lon="-0.8959">
    <ele>91.38</ele>
   </trkpt>
   <trkpt lat="51.335570000000004" lon="-0.89617">
    <ele>91.23</ele>
   </trkpt>
   <trkpt lat="51.33574" lon="-0.89646">
    <ele>90.93</ele>
   </trkpt>
   <trkpt lat="51.335890000000006" lon="-0.89697">
    <ele>90.89000000000001</ele>
   </trkpt>
   <trkpt lat="51.336130000000004" lon="-0.89768">
    <ele>91.25000000000001</ele>
   </trkpt>
   <trkpt lat="51.336355003020834" lon="-0.8985299956208465">
    <ele>90.88</ele>
   </trkpt>
   <trkpt lat="51.336580000000005" lon="-0.8993800000000001">
    <ele>89.87</ele>
   </trkpt>
   <trkpt lat="51.336890000000004" lon="-0.90036">
    <ele>88.33</ele>
   </trkpt>
   <trkpt lat="51.33704" lon="-0.90095">
    <ele>87.44</ele>
   </trkpt>
   <trkpt lat="51.337210000000006" lon="-0.90146">
    <ele>86.08</ele>
   </trkpt>
   <trkpt lat="51.33733" lon="-0.90212">
    <ele>83.21000000000001</ele>
   </trkpt>
   <trkpt lat="51.33746000000001" lon="-0.9031600000000001">
    <ele>81.72</ele>
   </trkpt>
   <trkpt lat="51.33771" lon="-0.90446">
    <ele>83.35000000000001</ele>
   </trkpt>
   <trkpt lat="51.337810000000005" lon="-0.90485">
    <ele>82.25</ele>
   </trkpt>
   <trkpt lat="51.33798" lon="-0.90534">
    <ele>82.31</ele>
   </trkpt>
   <trkpt lat="51.33814" lon="-0.9056500000000001">
    <ele>83.26</ele>
   </trkpt>
   <trkpt lat="51.33865" lon="-0.90641">
    <ele>84.66000000000001</ele>
   </trkpt>
   <trkpt lat="51.338860000000004" lon="-0.90678">
    <ele>84.79</ele>
   </trkpt>
   <trkpt lat="51.33897" lon="-0.9070100000000001">
    <ele>84.91000000000001</ele>
   </trkpt>
   <trkpt lat="51.33917" lon="-0.9075500000000001">
    <ele>85.13000000000001</ele>
   </trkpt>
   <trkpt lat="51.339600000000004" lon="-0.90778">
    <ele>84.59000000000002</ele>
   </trkpt>
   <trkpt lat="51.339940000000006" lon="-0.9080900000000001">
    <ele>83.80000000000001</ele>
   </trkpt>
   <trkpt lat="51.340560001108194" lon="-0.908584993356411">
    <ele>81.34</ele>
   </trkpt>
   <trkpt lat="51.34118" lon="-0.9090800000000001">
    <ele>78.45</ele>
   </trkpt>
   <trkpt lat="51.34118" lon="-0.90907">
    <ele>78.47000000000001</ele>
   </trkpt>
   <trkpt lat="51.34125" lon="-0.90912">
    <ele>78.47000000000001</ele>
   </trkpt>
   <trkpt lat="51.34210500005449" lon="-0.9091899986969394">
    <ele>75.58000000000001</ele>
   </trkpt>
   <trkpt lat="51.342960000000005" lon="-0.9092600000000001">
    <ele>72.94</ele>
   </trkpt>
   <trkpt lat="51.343090000000004" lon="-0.90922">
    <ele>72.31</ele>
   </trkpt>
   <trkpt lat="51.34324" lon="-0.90924">
    <ele>71.51</ele>
   </trkpt>
   <trkpt lat="51.343944999998435" lon="-0.9092449999230744">
    <ele>69.77000000000001</ele>
   </trkpt>
   <trkpt lat="51.34465" lon="-0.9092500000000001">
    <ele>68.0</ele>
   </trkpt>
   <trkpt lat="51.34519499988907" lon="-0.9092400001209652">
    <ele>66.72</ele>
   </trkpt>
   <trkpt lat="51.345740000000006" lon="-0.9092300000000001">
    <ele>65.95</ele>
   </trkpt>
   <trkpt lat="51.345672515735444" lon="-0.9103400048832123">
    <ele>65.97</ele>
   </trkpt>
   <trkpt lat="51.34560502098142" lon="-0.911450006497062">
    <ele>66.16000000000001</ele>
   </trkpt>
   <trkpt lat="51.34553751573799" lon="-0.9125600048410589">
    <ele>66.18</ele>
   </trkpt>
   <trkpt lat="51.345470000000006" lon="-0.9136700000000001">
    <ele>66.32000000000001</ele>
   </trkpt>
   <trkpt lat="51.34619000000001" lon="-0.9137400000000001">
    <ele>64.39</ele>
   </trkpt>
   <trkpt lat="51.346520000000005" lon="-0.91427">
    <ele>64.0</ele>
   </trkpt>
   <trkpt lat="51.34653" lon="-0.9142800000000001">
    <ele>64.0</ele>
   </trkpt>
   <trkpt lat="51.346870001315516" lon="-0.9148349958893318">
    <ele>63.84</ele>
   </trkpt>
   <trkpt lat="51.347210000000004" lon="-0.91539">
    <ele>63.74</ele>
   </trkpt>
   <trkpt lat="51.34734" lon="-0.9155300000000001">
    <ele>63.76000000000001</ele>
   </trkpt>
   <trkpt lat="51.34740000000001" lon="-0.9157600000000001">
    <ele>63.86</ele>
   </trkpt>
   <trkpt lat="51.34819500330158" lon="-0.9152500265571499">
    <ele>63.17</ele>
   </trkpt>
   <trkpt lat="51.34899000438902" lon="-0.9147400354187046">
    <ele>62.6</ele>
   </trkpt>
   <trkpt lat="51.34978500326217" lon="-0.9142300265835965">
    <ele>61.09</ele>
   </trkpt>
   <trkpt lat="51.35058" lon="-0.9137200000000001">
    <ele>58.79</ele>
   </trkpt>
   <trkpt lat="51.35136500094442" lon="-0.9132350083445524">
    <ele>57.1</ele>
   </trkpt>
   <trkpt lat="51.35215" lon="-0.9127500000000001">
    <ele>55.93000000000001</ele>
   </trkpt>
   <trkpt lat="51.352270000000004" lon="-0.9126500000000001">
    <ele>55.93000000000001</ele>
   </trkpt>
   <trkpt lat="51.3528450006707" lon="-0.9122650048052137">
    <ele>54.150000000000006</ele>
   </trkpt>
   <trkpt lat="51.35342000000001" lon="-0.91188">
    <ele>53.160000000000004</ele>
   </trkpt>
   <trkpt lat="51.35396" lon="-0.9115400000000001">
    <ele>52.26</ele>
   </trkpt>
   <trkpt lat="51.35457" lon="-0.91112">
    <ele>50.690000000000005</ele>
   </trkpt>
   <trkpt lat="51.355200001895184" lon="-0.9106466796941811">
    <ele>49.88</ele>
   </trkpt>
   <trkpt lat="51.35583000188316" lon="-0.9101733463701034">
    <ele>49.050000000000004</ele>
   </trkpt>
   <trkpt lat="51.356460000000006" lon="-0.9097000000000001">
    <ele>48.440000000000005</ele>
   </trkpt>
   <trkpt lat="51.35647" lon="-0.90968">
    <ele>48.440000000000005</ele>
   </trkpt>
   <trkpt lat="51.35707000168748" lon="-0.9092266785889205">
    <ele>48.34</ele>
   </trkpt>
   <trkpt lat="51.357670001625564" lon="-0.9087733453025733">
    <ele>48.27</ele>
   </trkpt>
   <trkpt lat="51.358270000000005" lon="-0.9083200000000001">
    <ele>48.13</ele>
   </trkpt>
   <trkpt lat="51.35898" lon="-0.9077500000000001">
    <ele>47.790000000000006</ele>
   </trkpt>
   <trkpt lat="51.35907" lon="-0.90763">
    <ele>47.75</ele>
   </trkpt>
   <trkpt lat="51.35913000000001" lon="-0.9075000000000001">
    <ele>47.75</ele>
   </trkpt>
   <trkpt lat="51.35947" lon="-0.90736">
    <ele>47.36000000000001</ele>
   </trkpt>
   <trkpt lat="51.35967" lon="-0.9072100000000001">
    <ele>47.510000000000005</ele>
   </trkpt>
   <trkpt lat="51.36008" lon="-0.9065300000000001">
    <ele>47.2</ele>
   </trkpt>
   <trkpt lat="51.360350000000004" lon="-0.9063100000000001">
    <ele>47.28</ele>
   </trkpt>
   <trkpt lat="51.360440000000004" lon="-0.9062100000000001">
    <ele>47.28</ele>
   </trkpt>
   <trkpt lat="51.36066" lon="-0.9057400000000001">
    <ele>47.46</ele>
   </trkpt>
   <trkpt lat="51.36110836171885" lon="-0.9045850565373981">
    <ele>48.120000000000005</ele>
   </trkpt>
   <trkpt lat="51.361556712082816" lon="-0.9034300904632414">
    <ele>48.96</ele>
   </trkpt>
   <trkpt lat="51.36200505109153" lon="-0.9022751017772972">
    <ele>49.49</ele>
   </trkpt>
   <trkpt lat="51.36245337874456" lon="-0.9011200904793327">
    <ele>49.900000000000006</ele>
   </trkpt>
   <trkpt lat="51.362901695041515" lon="-0.8999650565691154">
    <ele>49.68</ele>
   </trkpt>
   <trkpt lat="51.363350000000004" lon="-0.8988100000000001">
    <ele>50.75</ele>
   </trkpt>
   <trkpt lat="51.3637500056182" lon="-0.8976600100743237">
    <ele>50.010000000000005</ele>
   </trkpt>
   <trkpt lat="51.36415" lon="-0.89651">
    <ele>50.81</ele>
   </trkpt>
   <trkpt lat="51.36430000000001" lon="-0.89612">
    <ele>50.77</ele>
   </trkpt>
   <trkpt lat="51.36455" lon="-0.89553">
    <ele>50.910000000000004</ele>
   </trkpt>
   <trkpt lat="51.3646" lon="-0.89536">
    <ele>51.25</ele>
   </trkpt>
   <trkpt lat="51.36459000000001" lon="-0.89509">
    <ele>51.39</ele>
   </trkpt>
   <trkpt lat="51.36442" lon="-0.89458">
    <ele>51.480000000000004</ele>
   </trkpt>
   <trkpt lat="51.364340000000006" lon="-0.89429">
    <ele>51.58</ele>
   </trkpt>
   <trkpt lat="51.364340000000006" lon="-0.8941300000000001">
    <ele>51.68</ele>
   </trkpt>
   <trkpt lat="51.364380000000004" lon="-0.89397">
    <ele>51.870000000000005</ele>
   </trkpt>
   <trkpt lat="51.36457000000001" lon="-0.89341">
    <ele>52.03000000000001</ele>
   </trkpt>
   <trkpt lat="51.364720000000005" lon="-0.8927700000000001">
    <ele>52.300000000000004</ele>
   </trkpt>
   <trkpt lat="51.364810000000006" lon="-0.89212">
    <ele>52.6</ele>
   </trkpt>
   <trkpt lat="51.364850000000004" lon="-0.89158">
    <ele>53.03000000000001</ele>
   </trkpt>
   <trkpt lat="51.36487" lon="-0.89119">
    <ele>53.13</ele>
   </trkpt>
   <trkpt lat="51.36495000000001" lon="-0.8908200000000001">
    <ele>53.540000000000006</ele>
   </trkpt>
   <trkpt lat="51.36547500119781" lon="-0.8902950059939141">
    <ele>53.730000000000004</ele>
   </trkpt>
   <trkpt lat="51.36600000000001" lon="-0.8897700000000001">
    <ele>53.31</ele>
   </trkpt>
   <trkpt lat="51.36657" lon="-0.88936">
    <ele>53.22</ele>
   </trkpt>
   <trkpt lat="51.36703000000001" lon="-0.88907">
    <ele>53.50000000000001</ele>
   </trkpt>
   <trkpt lat="51.367160000000005" lon="-0.88887">
    <ele>53.6</ele>
   </trkpt>
   <trkpt lat="51.36742" lon="-0.88804">
    <ele>54.040000000000006</ele>
   </trkpt>
   <trkpt lat="51.36773" lon="-0.8873800000000001">
    <ele>54.220000000000006</ele>
   </trkpt>
   <trkpt lat="51.3682" lon="-0.88663">
    <ele>54.690000000000005</ele>
   </trkpt>
   <trkpt lat="51.368550000000006" lon="-0.8861600000000001">
    <ele>54.790000000000006</ele>
   </trkpt>
   <trkpt lat="51.368640000000006" lon="-0.88602">
    <ele>54.790000000000006</ele>
   </trkpt>
   <trkpt lat="51.368700000000004" lon="-0.88585">
    <ele>54.8</ele>
   </trkpt>
   <trkpt lat="51.368930000000006" lon="-0.88551">
    <ele>54.86000000000001</ele>
   </trkpt>
   <trkpt lat="51.36923" lon="-0.8852300000000001">
    <ele>54.910000000000004</ele>
   </trkpt>
   <trkpt lat="51.369910000000004" lon="-0.8846700000000001">
    <ele>54.95</ele>
   </trkpt>
   <trkpt lat="51.37013" lon="-0.8844500000000001">
    <ele>55.290000000000006</ele>
   </trkpt>
   <trkpt lat="51.37047000127392" lon="-0.8839150038849553">
    <ele>56.470000000000006</ele>
   </trkpt>
   <trkpt lat="51.370810000000006" lon="-0.88338">
    <ele>57.27</ele>
   </trkpt>
   <trkpt lat="51.37115000000001" lon="-0.8828">
    <ele>58.46</ele>
   </trkpt>
   <trkpt lat="51.371230000000004" lon="-0.8827">
    <ele>58.46</ele>
   </trkpt>
   <trkpt lat="51.371230000000004" lon="-0.8827100000000001">
    <ele>58.440000000000005</ele>
   </trkpt>
   <trkpt lat="51.37147" lon="-0.8825500000000001">
    <ele>58.67000000000001</ele>
   </trkpt>
   <trkpt lat="51.371610000000004" lon="-0.8825400000000001">
    <ele>59.21000000000001</ele>
   </trkpt>
   <trkpt lat="51.37174" lon="-0.8824000000000001">
    <ele>59.21000000000001</ele>
   </trkpt>
   <trkpt lat="51.37196" lon="-0.8820600000000001">
    <ele>59.47</ele>
   </trkpt>
   <trkpt lat="51.37225" lon="-0.8815100000000001">
    <ele>60.45</ele>
   </trkpt>
   <trkpt lat="51.37254" lon="-0.88109">
    <ele>60.49</ele>
   </trkpt>
   <trkpt lat="51.3727" lon="-0.88092">
    <ele>60.31</ele>
   </trkpt>
   <trkpt lat="51.373000000000005" lon="-0.88036">
    <ele>60.35000000000001</ele>
   </trkpt>
   <trkpt lat="51.37313" lon="-0.88002">
    <ele>60.510000000000005</ele>
   </trkpt>
   <trkpt lat="51.37313" lon="-0.8800300000000001">
    <ele>60.510000000000005</ele>
   </trkpt>
   <trkpt lat="51.37321000000001" lon="-0.8798400000000001">
    <ele>60.620000000000005</ele>
   </trkpt>
   <trkpt lat="51.37337" lon="-0.8796">
    <ele>60.99</ele>
   </trkpt>
   <trkpt lat="51.37368000000001" lon="-0.87936">
    <ele>61.53000000000001</ele>
   </trkpt>
   <trkpt lat="51.37384" lon="-0.8791800000000001">
    <ele>61.53000000000001</ele>
   </trkpt>
   <trkpt lat="51.37398" lon="-0.87894">
    <ele>62.120000000000005</ele>
   </trkpt>
   <trkpt lat="51.374210000000005" lon="-0.87787">
    <ele>62.72000000000001</ele>
   </trkpt>
   <trkpt lat="51.374385002138155" lon="-0.8771650026024936">
    <ele>63.07</ele>
   </trkpt>
   <trkpt lat="51.37456" lon="-0.87646">
    <ele>63.12000000000001</ele>
   </trkpt>
   <trkpt lat="51.374785003441495" lon="-0.8755650042693114">
    <ele>63.1</ele>
   </trkpt>
   <trkpt lat="51.37501" lon="-0.8746700000000001">
    <ele>64.09</ele>
   </trkpt>
   <trkpt lat="51.3753" lon="-0.8737100000000001">
    <ele>65.14</ele>
   </trkpt>
   <trkpt lat="51.37539" lon="-0.8737400000000001">
    <ele>64.64</ele>
   </trkpt>
   <trkpt lat="51.375500012122686" lon="-0.8725466723793472">
    <ele>62.58000000000001</ele>
   </trkpt>
   <trkpt lat="51.375610012124774" lon="-0.8713533390235618">
    <ele>61.43000000000001</ele>
   </trkpt>
   <trkpt lat="51.37572" lon="-0.87016">
    <ele>61.43000000000001</ele>
   </trkpt>
   <trkpt lat="51.375780000000006" lon="-0.8701800000000001">
    <ele>61.4</ele>
   </trkpt>
   <trkpt lat="51.37621000000001" lon="-0.8704200000000001">
    <ele>60.93000000000001</ele>
   </trkpt>
   <trkpt lat="51.37623000000001" lon="-0.87031">
    <ele>60.93000000000001</ele>
   </trkpt>
   <trkpt lat="51.376310000000004" lon="-0.87031">
    <ele>60.59</ele>
   </trkpt>
   <trkpt lat="51.37635" lon="-0.87036">
    <ele>60.59</ele>
   </trkpt>
   <trkpt lat="51.376560000000005" lon="-0.87036">
    <ele>60.260000000000005</ele>
   </trkpt>
   <trkpt lat="51.3766" lon="-0.87041">
    <ele>60.260000000000005</ele>
   </trkpt>
   <trkpt lat="51.37661000000001" lon="-0.87053">
    <ele>59.99</ele>
   </trkpt>
   <trkpt lat="51.37679000000001" lon="-0.8707">
    <ele>59.93</ele>
   </trkpt>
   <trkpt lat="51.37688000000001" lon="-0.8707400000000001">
    <ele>59.93</ele>
   </trkpt>
   <trkpt lat="51.377010000000006" lon="-0.8710100000000001">
    <ele>60.0</ele>
   </trkpt>
   <trkpt lat="51.37716" lon="-0.87116">
    <ele>59.82000000000001</ele>
   </trkpt>
   <trkpt lat="51.377320000000005" lon="-0.87119">
    <ele>59.24000000000001</ele>
   </trkpt>
   <trkpt lat="51.377500000000005" lon="-0.87104">
    <ele>58.980000000000004</ele>
   </trkpt>
   <trkpt lat="51.37755000000001" lon="-0.8708">
    <ele>58.93</ele>
   </trkpt>
   <trkpt lat="51.37765" lon="-0.8706300000000001">
    <ele>59.010000000000005</ele>
   </trkpt>
   <trkpt lat="51.37776" lon="-0.87031">
    <ele>59.67000000000001</ele>
   </trkpt>
   <trkpt lat="51.377860000000005" lon="-0.8702300000000001">
    <ele>60.0</ele>
   </trkpt>
   <trkpt lat="51.37801" lon="-0.87016">
    <ele>60.28000000000001</ele>
   </trkpt>
   <trkpt lat="51.3783" lon="-0.8701800000000001">
    <ele>60.38</ele>
   </trkpt>
   <trkpt lat="51.378490000000006" lon="-0.8700200000000001">
    <ele>60.45</ele>
   </trkpt>
   <trkpt lat="51.378510000000006" lon="-0.86987">
    <ele>60.64000000000001</ele>
   </trkpt>
   <trkpt lat="51.378640000000004" lon="-0.8694000000000001">
    <ele>61.160000000000004</ele>
   </trkpt>
   <trkpt lat="51.37883" lon="-0.8689800000000001">
    <ele>63.13</ele>
   </trkpt>
   <trkpt lat="51.378910000000005" lon="-0.8690100000000001">
    <ele>63.26000000000001</ele>
   </trkpt>
   <trkpt lat="51.378980000000006" lon="-0.8691800000000001">
    <ele>62.75</ele>
   </trkpt>
   <trkpt lat="51.37915" lon="-0.86933">
    <ele>62.45</ele>
   </trkpt>
   <trkpt lat="51.379310000000004" lon="-0.86938">
    <ele>62.410000000000004</ele>
   </trkpt>
   <trkpt lat="51.37948" lon="-0.86948">
    <ele>62.38</ele>
   </trkpt>
   <trkpt lat="51.379630000000006" lon="-0.86965">
    <ele>62.410000000000004</ele>
   </trkpt>
   <trkpt lat="51.37970000000001" lon="-0.86977">
    <ele>62.550000000000004</ele>
   </trkpt>
   <trkpt lat="51.37991" lon="-0.8703000000000001">
    <ele>61.970000000000006</ele>
   </trkpt>
   <trkpt lat="51.380010000000006" lon="-0.8706300000000001">
    <ele>61.31</ele>
   </trkpt>
   <trkpt lat="51.38024000000001" lon="-0.87026">
    <ele>63.51000000000001</ele>
   </trkpt>
   <trkpt lat="51.38078500221948" lon="-0.8695250088590605">
    <ele>67.46000000000001</ele>
   </trkpt>
   <trkpt lat="51.381330000000005" lon="-0.8687900000000001">
    <ele>65.77000000000001</ele>
   </trkpt>
   <trkpt lat="51.38185000229916" lon="-0.8680600082498681">
    <ele>65.2</ele>
   </trkpt>
   <trkpt lat="51.38237" lon="-0.86733">
    <ele>64.41000000000001</ele>
   </trkpt>
   <trkpt lat="51.38276500079148" lon="-0.8669150035201849">
    <ele>64.07000000000001</ele>
   </trkpt>
   <trkpt lat="51.383160000000004" lon="-0.8665">
    <ele>63.28</ele>
   </trkpt>
   <trkpt lat="51.383570000000006" lon="-0.86604">
    <ele>62.43000000000001</ele>
   </trkpt>
   <trkpt lat="51.38408500196063" lon="-0.8653750073816955">
    <ele>61.370000000000005</ele>
   </trkpt>
   <trkpt lat="51.384600000000006" lon="-0.8647100000000001">
    <ele>61.33</ele>
   </trkpt>
   <trkpt lat="51.38429000000001" lon="-0.86392">
    <ele>62.07000000000001</ele>
   </trkpt>
   <trkpt lat="51.38394" lon="-0.86314">
    <ele>62.32000000000001</ele>
   </trkpt>
   <trkpt lat="51.384390001247496" lon="-0.8626250049279696">
    <ele>61.31</ele>
   </trkpt>
   <trkpt lat="51.384840000000004" lon="-0.86211">
    <ele>61.1</ele>
   </trkpt>
   <trkpt lat="51.38506" lon="-0.86172">
    <ele>60.620000000000005</ele>
   </trkpt>
   <trkpt lat="51.38520500211831" lon="-0.8610100023810013">
    <ele>60.160000000000004</ele>
   </trkpt>
   <trkpt lat="51.38535" lon="-0.8603000000000001">
    <ele>59.580000000000005</ele>
   </trkpt>
   <trkpt lat="51.38532000000001" lon="-0.85994">
    <ele>59.230000000000004</ele>
   </trkpt>
   <trkpt lat="51.385450000000006" lon="-0.8598600000000001">
    <ele>58.910000000000004</ele>
   </trkpt>
   <trkpt lat="51.385560000000005" lon="-0.8596900000000001">
    <ele>58.910000000000004</ele>
   </trkpt>
   <trkpt lat="51.38564" lon="-0.8594700000000001">
    <ele>58.53</ele>
   </trkpt>
   <trkpt lat="51.38579000000001" lon="-0.8585900000000001">
    <ele>58.160000000000004</ele>
   </trkpt>
   <trkpt lat="51.38597000000001" lon="-0.8586900000000001">
    <ele>58.120000000000005</ele>
   </trkpt>
   <trkpt lat="51.38665000039049" lon="-0.8589099967905055">
    <ele>57.690000000000005</ele>
   </trkpt>
   <trkpt lat="51.387330000000006" lon="-0.8591300000000001">
    <ele>57.77</ele>
   </trkpt>
   <trkpt lat="51.38745" lon="-0.85923">
    <ele>57.68</ele>
   </trkpt>
   <trkpt lat="51.387510000000006" lon="-0.85933">
    <ele>57.68</ele>
   </trkpt>
   <trkpt lat="51.38758000000001" lon="-0.8593000000000001">
    <ele>57.68</ele>
   </trkpt>
   <trkpt lat="51.38781" lon="-0.8593400000000001">
    <ele>57.690000000000005</ele>
   </trkpt>
   <trkpt lat="51.38829500011332" lon="-0.8594899984155414">
    <ele>57.620000000000005</ele>
   </trkpt>
   <trkpt lat="51.388780000000004" lon="-0.8596400000000001">
    <ele>57.400000000000006</ele>
   </trkpt>
   <trkpt lat="51.389230000000005" lon="-0.8598000000000001">
    <ele>57.260000000000005</ele>
   </trkpt>
   <trkpt lat="51.38996" lon="-0.86011">
    <ele>56.790000000000006</ele>
   </trkpt>
   <trkpt lat="51.390660000000004" lon="-0.86016">
    <ele>56.120000000000005</ele>
   </trkpt>
   <trkpt lat="51.390750000000004" lon="-0.86014">
    <ele>56.120000000000005</ele>
   </trkpt>
   <trkpt lat="51.39101" lon="-0.8601300000000001">
    <ele>55.85</ele>
   </trkpt>
   <trkpt lat="51.391885000025205" lon="-0.8599450035635685">
    <ele>54.98</ele>
   </trkpt>
   <trkpt lat="51.39276" lon="-0.8597600000000001">
    <ele>54.88</ele>
   </trkpt>
   <trkpt lat="51.392810000000004" lon="-0.85977">
    <ele>54.88</ele>
   </trkpt>
   <trkpt lat="51.39284000000001" lon="-0.85987">
    <ele>54.92</ele>
   </trkpt>
   <trkpt lat="51.392900000000004" lon="-0.8598800000000001">
    <ele>54.92</ele>
   </trkpt>
   <trkpt lat="51.39311000000001" lon="-0.8600300000000001">
    <ele>54.900000000000006</ele>
   </trkpt>
   <trkpt lat="51.39362000034512" lon="-0.8602399977238115">
    <ele>55.650000000000006</ele>
   </trkpt>
   <trkpt lat="51.394130000000004" lon="-0.86045">
    <ele>57.09</ele>
   </trkpt>
   <trkpt lat="51.394380000000005" lon="-0.8604100000000001">
    <ele>57.35</ele>
   </trkpt>
   <trkpt lat="51.394265002113066" lon="-0.8596999980181487">
    <ele>56.82</ele>
   </trkpt>
   <trkpt lat="51.39415" lon="-0.85899">
    <ele>56.660000000000004</ele>
   </trkpt>
   <trkpt lat="51.39412" lon="-0.8587">
    <ele>56.24</ele>
   </trkpt>
   <trkpt lat="51.39415" lon="-0.8576">
    <ele>56.13</ele>
   </trkpt>
   <trkpt lat="51.394200000000005" lon="-0.8567400000000001">
    <ele>56.03</ele>
   </trkpt>
   <trkpt lat="51.394310000000004" lon="-0.85596">
    <ele>56.760000000000005</ele>
   </trkpt>
   <trkpt lat="51.394400000000005" lon="-0.85562">
    <ele>57.260000000000005</ele>
   </trkpt>
   <trkpt lat="51.39455" lon="-0.8554">
    <ele>57.52</ele>
   </trkpt>
   <trkpt lat="51.394920000000006" lon="-0.85499">
    <ele>58.260000000000005</ele>
   </trkpt>
   <trkpt lat="51.39515" lon="-0.8548100000000001">
    <ele>58.870000000000005</ele>
   </trkpt>
   <trkpt lat="51.395300000000006" lon="-0.8545800000000001">
    <ele>59.04</ele>
   </trkpt>
   <trkpt lat="51.39547" lon="-0.85416">
    <ele>60.07000000000001</ele>
   </trkpt>
   <trkpt lat="51.395680000000006" lon="-0.85316">
    <ele>61.410000000000004</ele>
   </trkpt>
   <trkpt lat="51.39578" lon="-0.8528600000000001">
    <ele>62.080000000000005</ele>
   </trkpt>
   <trkpt lat="51.39585" lon="-0.8525">
    <ele>62.54</ele>
   </trkpt>
   <trkpt lat="51.396240000000006" lon="-0.8529300000000001">
    <ele>62.94000000000001</ele>
   </trkpt>
   <trkpt lat="51.3967" lon="-0.85348">
    <ele>63.56</ele>
   </trkpt>
   <trkpt lat="51.397130000000004" lon="-0.8538300000000001">
    <ele>65.02000000000001</ele>
   </trkpt>
   <trkpt lat="51.39725000000001" lon="-0.8538600000000001">
    <ele>64.89999999999999</ele>
   </trkpt>
   <trkpt lat="51.397310000000004" lon="-0.85384">
    <ele>64.89999999999999</ele>
   </trkpt>
   <trkpt lat="51.39772000000001" lon="-0.8534700000000001">
    <ele>64.35000000000001</ele>
   </trkpt>
   <trkpt lat="51.39784" lon="-0.8534">
    <ele>64.16000000000001</ele>
   </trkpt>
   <trkpt lat="51.397920000000006" lon="-0.85338">
    <ele>64.16000000000001</ele>
   </trkpt>
   <trkpt lat="51.39802" lon="-0.85338">
    <ele>63.94000000000001</ele>
   </trkpt>
   <trkpt lat="51.39869" lon="-0.85357">
    <ele>62.36000000000001</ele>
   </trkpt>
   <trkpt lat="51.39885" lon="-0.8536400000000001">
    <ele>61.99</ele>
   </trkpt>
   <trkpt lat="51.399010000000004" lon="-0.8536400000000001">
    <ele>61.45</ele>
   </trkpt>
   <trkpt lat="51.399300000000004" lon="-0.8536">
    <ele>60.800000000000004</ele>
   </trkpt>
   <trkpt lat="51.3999" lon="-0.85345">
    <ele>58.480000000000004</ele>
   </trkpt>
   <trkpt lat="51.400490000000005" lon="-0.85313">
    <ele>56.24</ele>
   </trkpt>
   <trkpt lat="51.40061000000001" lon="-0.8530800000000001">
    <ele>55.93000000000001</ele>
   </trkpt>
   <trkpt lat="51.40084" lon="-0.85289">
    <ele>55.61000000000001</ele>
   </trkpt>
   <trkpt lat="51.401" lon="-0.85279">
    <ele>55.620000000000005</ele>
   </trkpt>
   <trkpt lat="51.4012" lon="-0.85272">
    <ele>55.540000000000006</ele>
   </trkpt>
   <trkpt lat="51.401320000000005" lon="-0.85272">
    <ele>55.540000000000006</ele>
   </trkpt>
   <trkpt lat="51.402080000000005" lon="-0.8529100000000001">
    <ele>55.09</ele>
   </trkpt>
   <trkpt lat="51.402480000000004" lon="-0.8528800000000001">
    <ele>54.89</ele>
   </trkpt>
   <trkpt lat="51.40328" lon="-0.85289">
    <ele>59.120000000000005</ele>
   </trkpt>
   <trkpt lat="51.40366" lon="-0.85294">
    <ele>61.24</ele>
   </trkpt>
   <trkpt lat="51.40391" lon="-0.85301">
    <ele>61.24</ele>
   </trkpt>
   <trkpt lat="51.404210000000006" lon="-0.85323">
    <ele>63.43</ele>
   </trkpt>
   <trkpt lat="51.40457000000001" lon="-0.8535300000000001">
    <ele>64.93</ele>
   </trkpt>
   <trkpt lat="51.40507000101175" lon="-0.8540199946328776">
    <ele>64.82000000000001</ele>
   </trkpt>
   <trkpt lat="51.405570000000004" lon="-0.8545100000000001">
    <ele>64.66000000000001</ele>
   </trkpt>
   <trkpt lat="51.40594667347572" lon="-0.8536166813402174">
    <ele>61.99</ele>
   </trkpt>
   <trkpt lat="51.40632334016066" lon="-0.8527233479637327">
    <ele>58.82</ele>
   </trkpt>
   <trkpt lat="51.4067" lon="-0.8518300000000001">
    <ele>57.09</ele>
   </trkpt>
   <trkpt lat="51.407160000000005" lon="-0.85089">
    <ele>55.580000000000005</ele>
   </trkpt>
   <trkpt lat="51.40715" lon="-0.85089">
    <ele>55.59</ele>
   </trkpt>
   <trkpt lat="51.40749000207807" lon="-0.8502050049287748">
    <ele>54.290000000000006</ele>
   </trkpt>
   <trkpt lat="51.407830000000004" lon="-0.84952">
    <ele>51.940000000000005</ele>
   </trkpt>
   <trkpt lat="51.407880000000006" lon="-0.8494400000000001">
    <ele>51.940000000000005</ele>
   </trkpt>
   <trkpt lat="51.408030000000004" lon="-0.84891">
    <ele>50.28</ele>
   </trkpt>
   <trkpt lat="51.40818500263402" lon="-0.8481300024150064">
    <ele>48.43</ele>
   </trkpt>
   <trkpt lat="51.40834" lon="-0.84735">
    <ele>48.32</ele>
   </trkpt>
   <trkpt lat="51.40854500196075" lon="-0.8466850027243233">
    <ele>49.03</ele>
   </trkpt>
   <trkpt lat="51.408750000000005" lon="-0.8460200000000001">
    <ele>51.39</ele>
   </trkpt>
   <trkpt lat="51.4089" lon="-0.8455900000000001">
    <ele>52.230000000000004</ele>
   </trkpt>
   <trkpt lat="51.409060000000004" lon="-0.84523">
    <ele>52.65</ele>
   </trkpt>
   <trkpt lat="51.40927000000001" lon="-0.84486">
    <ele>53.33</ele>
   </trkpt>
   <trkpt lat="51.40937" lon="-0.84469">
    <ele>53.33</ele>
   </trkpt>
   <trkpt lat="51.409710000000004" lon="-0.84423">
    <ele>54.13</ele>
   </trkpt>
   <trkpt lat="51.410030000000006" lon="-0.8437300000000001">
    <ele>55.35</ele>
   </trkpt>
   <trkpt lat="51.41037500149064" lon="-0.8431550041987828">
    <ele>56.59</ele>
   </trkpt>
   <trkpt lat="51.410720000000005" lon="-0.8425800000000001">
    <ele>57.78</ele>
   </trkpt>
   <trkpt lat="51.410900000000005" lon="-0.8422200000000001">
    <ele>58.260000000000005</ele>
   </trkpt>
   <trkpt lat="51.41142000000001" lon="-0.8424200000000001">
    <ele>58.35</ele>
   </trkpt>
   <trkpt lat="51.412090000000006" lon="-0.8425800000000001">
    <ele>57.82</ele>
   </trkpt>
   <trkpt lat="51.41237" lon="-0.8426">
    <ele>57.660000000000004</ele>
   </trkpt>
   <trkpt lat="51.412530000000004" lon="-0.8425800000000001">
    <ele>57.720000000000006</ele>
   </trkpt>
   <trkpt lat="51.41282" lon="-0.8424900000000001">
    <ele>58.160000000000004</ele>
   </trkpt>
   <trkpt lat="51.4132" lon="-0.84223">
    <ele>59.04</ele>
   </trkpt>
   <trkpt lat="51.413430000000005" lon="-0.8419800000000001">
    <ele>59.800000000000004</ele>
   </trkpt>
   <trkpt lat="51.413590000000006" lon="-0.84186">
    <ele>60.07000000000001</ele>
   </trkpt>
   <trkpt lat="51.41371" lon="-0.8418200000000001">
    <ele>60.18</ele>
   </trkpt>
   <trkpt lat="51.41384000000001" lon="-0.8418500000000001">
    <ele>60.35000000000001</ele>
   </trkpt>
   <trkpt lat="51.41395000000001" lon="-0.84196">
    <ele>60.67</ele>
   </trkpt>
   <trkpt lat="51.41424000000001" lon="-0.84252">
    <ele>61.63</ele>
   </trkpt>
   <trkpt lat="51.41452000148706" lon="-0.8430999965632795">
    <ele>62.660000000000004</ele>
   </trkpt>
   <trkpt lat="51.41480000000001" lon="-0.8436800000000001">
    <ele>63.11</ele>
   </trkpt>
   <trkpt lat="51.415110000000006" lon="-0.8443900000000001">
    <ele>63.06</ele>
   </trkpt>
   <trkpt lat="51.41539" lon="-0.8441500000000001">
    <ele>63.18</ele>
   </trkpt>
   <trkpt lat="51.41564" lon="-0.8438500000000001">
    <ele>64.49000000000001</ele>
   </trkpt>
   <trkpt lat="51.41608" lon="-0.84338">
    <ele>66.78</ele>
   </trkpt>
   <trkpt lat="51.416360000000005" lon="-0.8432000000000001">
    <ele>67.8</ele>
   </trkpt>
   <trkpt lat="51.41659000000001" lon="-0.84291">
    <ele>68.65</ele>
   </trkpt>
   <trkpt lat="51.416700000000006" lon="-0.8427000000000001">
    <ele>68.65</ele>
   </trkpt>
   <trkpt lat="51.41677000000001" lon="-0.8425">
    <ele>68.76</ele>
   </trkpt>
   <trkpt lat="51.41691" lon="-0.8417800000000001">
    <ele>68.71000000000001</ele>
   </trkpt>
   <trkpt lat="51.417" lon="-0.84123">
    <ele>68.63000000000001</ele>
   </trkpt>
   <trkpt lat="51.41707" lon="-0.84013">
    <ele>67.84</ele>
   </trkpt>
   <trkpt lat="51.41715000000001" lon="-0.83991">
    <ele>67.03</ele>
   </trkpt>
   <trkpt lat="51.41738" lon="-0.83962">
    <ele>66.06</ele>
   </trkpt>
   <trkpt lat="51.41731000000001" lon="-0.8393">
    <ele>66.22</ele>
   </trkpt>
   <trkpt lat="51.417320000000004" lon="-0.8390500000000001">
    <ele>66.18</ele>
   </trkpt>
   <trkpt lat="51.41743" lon="-0.83906">
    <ele>66.18</ele>
   </trkpt>
   <trkpt lat="51.41756" lon="-0.8391000000000001">
    <ele>65.17</ele>
   </trkpt>
   <trkpt lat="51.41785" lon="-0.83925">
    <ele>63.83000000000001</ele>
   </trkpt>
   <trkpt lat="51.418380000000006" lon="-0.83962">
    <ele>62.65000000000001</ele>
   </trkpt>
   <trkpt lat="51.41856000000001" lon="-0.8398100000000001">
    <ele>61.980000000000004</ele>
   </trkpt>
   <trkpt lat="51.418780000000005" lon="-0.8401000000000001">
    <ele>61.33</ele>
   </trkpt>
   <trkpt lat="51.419230000000006" lon="-0.8407100000000001">
    <ele>60.33</ele>
   </trkpt>
   <trkpt lat="51.4194" lon="-0.8409200000000001">
    <ele>59.77</ele>
   </trkpt>
   <trkpt lat="51.41962" lon="-0.8411000000000001">
    <ele>59.57</ele>
   </trkpt>
   <trkpt lat="51.41989" lon="-0.84113">
    <ele>58.480000000000004</ele>
   </trkpt>
   <trkpt lat="51.420030000000004" lon="-0.84113">
    <ele>58.480000000000004</ele>
   </trkpt>
   <trkpt lat="51.42069000015501" lon="-0.8409800021526012">
    <ele>56.03</ele>
   </trkpt>
   <trkpt lat="51.421350000000004" lon="-0.8408300000000001">
    <ele>54.82000000000001</ele>
   </trkpt>
   <trkpt lat="51.421150000000004" lon="-0.8398000000000001">
    <ele>55.38</ele>
   </trkpt>
   <trkpt lat="51.42103" lon="-0.8389800000000001">
    <ele>55.7</ele>
   </trkpt>
  </trkseg>
 </trk>
</gpx>
