<?xml version="1.0" encoding="UTF-8"?>
<gpx creator="StravaGPX" version="1.1" xmlns="http://www.topografix.com/GPX/1/1" xmlns:xsi="http://www.w3.org/2001/XMLSchema-instance" xsi:schemaLocation="http://www.topografix.com/GPX/1/1 http://www.topografix.com/GPX/1/1/gpx.xsd">
 <metadata>
  <name>Evening gravel v5.1</name>
  <desc>Tweaks because for road closures
</desc>
  <author>
   <name>Andy Gundry</name>
   <link href="https://www.strava.com/athletes/25556211"/>
  </author>
  <copyright author="OpenStreetMap contributors">
   <year>2020</year>
   <license>https://www.openstreetmap.org/copyright</license>
  </copyright>
  <link href="https://www.strava.com/routes/3509158198488216178"/>
 </metadata>
 <trk>
  <name>Evening gravel v5.1</name>
  <desc>Tweaks because for road closures
</desc>
  <link href="https://www.strava.com/routes/3509158198488216178"/>
  <type>gravel_biking</type>
  <trkseg>
   <trkpt lat="51.420730000000006" lon="-0.8368700000000001">
    <ele>55.510000000000005</ele>
   </trkpt>
   <trkpt lat="51.420820000000006" lon="-0.8380700000000001">
    <ele>56.14</ele>
   </trkpt>
   <trkpt lat="51.42087" lon="-0.83813">
    <ele>56.18000000000001</ele>
   </trkpt>
   <trkpt lat="51.420770000000005" lon="-0.83825">
    <ele>56.39</ele>
   </trkpt>
   <trkpt lat="51.42072" lon="-0.83845">
    <ele>56.56</ele>
   </trkpt>
   <trkpt lat="51.42029" lon="-0.8389800000000001">
    <ele>57.63000000000001</ele>
   </trkpt>
   <trkpt lat="51.42004000000001" lon="-0.83903">
    <ele>58.300000000000004</ele>
   </trkpt>
   <trkpt lat="51.41977000000001" lon="-0.8391200000000001">
    <ele>59.02</ele>
   </trkpt>
   <trkpt lat="51.419760000000004" lon="-0.8391200000000001">
    <ele>59.04</ele>
   </trkpt>
   <trkpt lat="51.41967" lon="-0.8391500000000001">
    <ele>59.53000000000001</ele>
   </trkpt>
   <trkpt lat="51.419360000000005" lon="-0.8393700000000001">
    <ele>60.82000000000001</ele>
   </trkpt>
   <trkpt lat="51.41917" lon="-0.8395800000000001">
    <ele>61.02</ele>
   </trkpt>
   <trkpt lat="51.418780000000005" lon="-0.8401000000000001">
    <ele>61.33</ele>
   </trkpt>
   <trkpt lat="51.418510000000005" lon="-0.8397600000000001">
    <ele>62.080000000000005</ele>
   </trkpt>
   <trkpt lat="51.4185" lon="-0.8397600000000001">
    <ele>62.080000000000005</ele>
   </trkpt>
   <trkpt lat="51.418380000000006" lon="-0.83962">
    <ele>62.65000000000001</ele>
   </trkpt>
   <trkpt lat="51.41785" lon="-0.83925">
    <ele>63.83000000000001</ele>
   </trkpt>
   <trkpt lat="51.41756" lon="-0.8391000000000001">
    <ele>65.17</ele>
   </trkpt>
   <trkpt lat="51.41743" lon="-0.83906">
    <ele>66.18</ele>
   </trkpt>
   <trkpt lat="51.417320000000004" lon="-0.8390500000000001">
    <ele>66.25</ele>
   </trkpt>
   <trkpt lat="51.41731000000001" lon="-0.8393">
    <ele>66.22</ele>
   </trkpt>
   <trkpt lat="51.41738" lon="-0.83962">
    <ele>66.06</ele>
   </trkpt>
   <trkpt lat="51.41715000000001" lon="-0.83991">
    <ele>67.03</ele>
   </trkpt>
   <trkpt lat="51.41707" lon="-0.84013">
    <ele>67.84</ele>
   </trkpt>
   <trkpt lat="51.417" lon="-0.84123">
    <ele>68.63000000000001</ele>
   </trkpt>
   <trkpt lat="51.41691" lon="-0.8417800000000001">
    <ele>68.71000000000001</ele>
   </trkpt>
   <trkpt lat="51.41677000000001" lon="-0.8425">
    <ele>68.76</ele>
   </trkpt>
   <trkpt lat="51.416700000000006" lon="-0.8427000000000001">
    <ele>68.65</ele>
   </trkpt>
   <trkpt lat="51.41659000000001" lon="-0.84291">
    <ele>68.65</ele>
   </trkpt>
   <trkpt lat="51.416360000000005" lon="-0.8432000000000001">
    <ele>67.8</ele>
   </trkpt>
   <trkpt lat="51.41608" lon="-0.84338">
    <ele>66.78</ele>
   </trkpt>
   <trkpt lat="51.41564" lon="-0.8438500000000001">
    <ele>64.49000000000001</ele>
   </trkpt>
   <trkpt lat="51.41539" lon="-0.8441500000000001">
    <ele>63.18</ele>
   </trkpt>
   <trkpt lat="51.415110000000006" lon="-0.8443900000000001">
    <ele>63.06</ele>
   </trkpt>
   <trkpt lat="51.41480000000001" lon="-0.8436800000000001">
    <ele>63.11</ele>
   </trkpt>
   <trkpt lat="51.41452000137531" lon="-0.8430999963318091">
    <ele>62.660000000000004</ele>
   </trkpt>
   <trkpt lat="51.41424000000001" lon="-0.84252">
    <ele>61.63</ele>
   </trkpt>
   <trkpt lat="51.413940000000004" lon="-0.8419500000000001">
    <ele>60.56</ele>
   </trkpt>
   <trkpt lat="51.4138" lon="-0.84164">
    <ele>60.17000000000001</ele>
   </trkpt>
   <trkpt lat="51.41371" lon="-0.8414900000000001">
    <ele>60.18</ele>
   </trkpt>
   <trkpt lat="51.41357000000001" lon="-0.84128">
    <ele>60.02</ele>
   </trkpt>
   <trkpt lat="51.413470000000004" lon="-0.84118">
    <ele>60.010000000000005</ele>
   </trkpt>
   <trkpt lat="51.413270000000004" lon="-0.8408800000000001">
    <ele>60.28000000000001</ele>
   </trkpt>
   <trkpt lat="51.41292000000001" lon="-0.8402600000000001">
    <ele>61.970000000000006</ele>
   </trkpt>
   <trkpt lat="51.41239" lon="-0.8392200000000001">
    <ele>65.71000000000001</ele>
   </trkpt>
   <trkpt lat="51.41234000000001" lon="-0.8390400000000001">
    <ele>66.04</ele>
   </trkpt>
   <trkpt lat="51.41226" lon="-0.83901">
    <ele>66.25</ele>
   </trkpt>
   <trkpt lat="51.41223" lon="-0.83901">
    <ele>66.25</ele>
   </trkpt>
   <trkpt lat="51.41208" lon="-0.8391500000000001">
    <ele>66.11</ele>
   </trkpt>
   <trkpt lat="51.41192" lon="-0.83933">
    <ele>65.53</ele>
   </trkpt>
   <trkpt lat="51.411730000000006" lon="-0.8398800000000001">
    <ele>64.09</ele>
   </trkpt>
   <trkpt lat="51.41146500275429" lon="-0.8406900048082978">
    <ele>61.85</ele>
   </trkpt>
   <trkpt lat="51.4112" lon="-0.8415">
    <ele>60.07000000000001</ele>
   </trkpt>
   <trkpt lat="51.411030000000004" lon="-0.84191">
    <ele>59.09</ele>
   </trkpt>
   <trkpt lat="51.41087" lon="-0.84228">
    <ele>58.080000000000005</ele>
   </trkpt>
   <trkpt lat="51.410720000000005" lon="-0.8425800000000001">
    <ele>57.78</ele>
   </trkpt>
   <trkpt lat="51.41037000000001" lon="-0.8431700000000001">
    <ele>56.61000000000001</ele>
   </trkpt>
   <trkpt lat="51.41037000000001" lon="-0.84316">
    <ele>56.620000000000005</ele>
   </trkpt>
   <trkpt lat="51.41004000114662" lon="-0.8436950039766814">
    <ele>55.35</ele>
   </trkpt>
   <trkpt lat="51.409710000000004" lon="-0.84423">
    <ele>54.13</ele>
   </trkpt>
   <trkpt lat="51.40937" lon="-0.84469">
    <ele>53.33</ele>
   </trkpt>
   <trkpt lat="51.40927000000001" lon="-0.84486">
    <ele>53.33</ele>
   </trkpt>
   <trkpt lat="51.409060000000004" lon="-0.84523">
    <ele>52.65</ele>
   </trkpt>
   <trkpt lat="51.4089" lon="-0.8455900000000001">
    <ele>52.230000000000004</ele>
   </trkpt>
   <trkpt lat="51.408750000000005" lon="-0.8460200000000001">
    <ele>51.39</ele>
   </trkpt>
   <trkpt lat="51.40854500180223" lon="-0.8466850032385475">
    <ele>49.03</ele>
   </trkpt>
   <trkpt lat="51.40834" lon="-0.84735">
    <ele>48.32</ele>
   </trkpt>
   <trkpt lat="51.408120000000004" lon="-0.8484400000000001">
    <ele>49.150000000000006</ele>
   </trkpt>
   <trkpt lat="51.40742" lon="-0.8481000000000001">
    <ele>49.54</ele>
   </trkpt>
   <trkpt lat="51.40701000000001" lon="-0.8479300000000001">
    <ele>49.79</ele>
   </trkpt>
   <trkpt lat="51.406690000000005" lon="-0.8477500000000001">
    <ele>49.45</ele>
   </trkpt>
   <trkpt lat="51.406710000000004" lon="-0.8477600000000001">
    <ele>49.46</ele>
   </trkpt>
   <trkpt lat="51.40636000000001" lon="-0.8475400000000001">
    <ele>49.27</ele>
   </trkpt>
   <trkpt lat="51.406110000000005" lon="-0.8473100000000001">
    <ele>49.220000000000006</ele>
   </trkpt>
   <trkpt lat="51.40572" lon="-0.8468100000000001">
    <ele>49.2</ele>
   </trkpt>
   <trkpt lat="51.40531000000001" lon="-0.84604">
    <ele>49.28</ele>
   </trkpt>
   <trkpt lat="51.40514" lon="-0.8457600000000001">
    <ele>49.38000000000001</ele>
   </trkpt>
   <trkpt lat="51.40466000000001" lon="-0.8446400000000001">
    <ele>49.77</ele>
   </trkpt>
   <trkpt lat="51.404540000000004" lon="-0.84428">
    <ele>50.09</ele>
   </trkpt>
   <trkpt lat="51.40438000334706" lon="-0.8433899967575421">
    <ele>50.78</ele>
   </trkpt>
   <trkpt lat="51.40422" lon="-0.8425">
    <ele>51.79</ele>
   </trkpt>
   <trkpt lat="51.40401000000001" lon="-0.8416100000000001">
    <ele>52.0</ele>
   </trkpt>
   <trkpt lat="51.40381000248075" lon="-0.840844996619082">
    <ele>52.58</ele>
   </trkpt>
   <trkpt lat="51.40361000000001" lon="-0.84008">
    <ele>53.4</ele>
   </trkpt>
   <trkpt lat="51.40341" lon="-0.83947">
    <ele>53.56</ele>
   </trkpt>
   <trkpt lat="51.403310000000005" lon="-0.83952">
    <ele>53.95</ele>
   </trkpt>
   <trkpt lat="51.40303" lon="-0.8397800000000001">
    <ele>54.85</ele>
   </trkpt>
   <trkpt lat="51.402530000000006" lon="-0.8401700000000001">
    <ele>55.89</ele>
   </trkpt>
   <trkpt lat="51.40231000000001" lon="-0.83955">
    <ele>55.510000000000005</ele>
   </trkpt>
   <trkpt lat="51.402240000000006" lon="-0.83942">
    <ele>55.46</ele>
   </trkpt>
   <trkpt lat="51.40214" lon="-0.8393">
    <ele>55.46</ele>
   </trkpt>
   <trkpt lat="51.401970000000006" lon="-0.83918">
    <ele>55.43000000000001</ele>
   </trkpt>
   <trkpt lat="51.40176" lon="-0.83913">
    <ele>55.46</ele>
   </trkpt>
   <trkpt lat="51.401390000000006" lon="-0.83911">
    <ele>55.77</ele>
   </trkpt>
   <trkpt lat="51.4012" lon="-0.83913">
    <ele>55.77</ele>
   </trkpt>
   <trkpt lat="51.401030000000006" lon="-0.83918">
    <ele>56.36000000000001</ele>
   </trkpt>
   <trkpt lat="51.40066" lon="-0.83935">
    <ele>56.36000000000001</ele>
   </trkpt>
   <trkpt lat="51.400670000000005" lon="-0.8393700000000001">
    <ele>56.46</ele>
   </trkpt>
   <trkpt lat="51.40066" lon="-0.83935">
    <ele>56.45</ele>
   </trkpt>
   <trkpt lat="51.40039" lon="-0.8395">
    <ele>56.470000000000006</ele>
   </trkpt>
   <trkpt lat="51.40023000000001" lon="-0.83957">
    <ele>56.39</ele>
   </trkpt>
   <trkpt lat="51.39976000000001" lon="-0.8396300000000001">
    <ele>56.18000000000001</ele>
   </trkpt>
   <trkpt lat="51.399530000000006" lon="-0.83964">
    <ele>56.18000000000001</ele>
   </trkpt>
   <trkpt lat="51.39884000000001" lon="-0.83947">
    <ele>55.93000000000001</ele>
   </trkpt>
   <trkpt lat="51.39888000713494" lon="-0.8381750011545868">
    <ele>54.720000000000006</ele>
   </trkpt>
   <trkpt lat="51.398920000000004" lon="-0.8368800000000001">
    <ele>53.730000000000004</ele>
   </trkpt>
   <trkpt lat="51.399060000000006" lon="-0.83584">
    <ele>54.46</ele>
   </trkpt>
   <trkpt lat="51.39871" lon="-0.83567">
    <ele>54.830000000000005</ele>
   </trkpt>
   <trkpt lat="51.39786500085036" lon="-0.8354124857308226">
    <ele>55.77</ele>
   </trkpt>
   <trkpt lat="51.39702000113641" lon="-0.8351549809756518">
    <ele>56.6</ele>
   </trkpt>
   <trkpt lat="51.39617500085818" lon="-0.8348974857338545">
    <ele>57.92</ele>
   </trkpt>
   <trkpt lat="51.39533" lon="-0.83464">
    <ele>58.42000000000001</ele>
   </trkpt>
   <trkpt lat="51.39455200234381" lon="-0.8342699748373298">
    <ele>58.870000000000005</ele>
   </trkpt>
   <trkpt lat="51.39377400352244" lon="-0.8338999622599932">
    <ele>59.10000000000001</ele>
   </trkpt>
   <trkpt lat="51.39299600353599" lon="-0.8335299622672305">
    <ele>59.39</ele>
   </trkpt>
   <trkpt lat="51.39221800238453" lon="-0.8331599748582824">
    <ele>59.9</ele>
   </trkpt>
   <trkpt lat="51.39144" lon="-0.83279">
    <ele>59.64000000000001</ele>
   </trkpt>
   <trkpt lat="51.39086" lon="-0.8324400000000001">
    <ele>58.5</ele>
   </trkpt>
   <trkpt lat="51.39038000000001" lon="-0.83142">
    <ele>56.42</ele>
   </trkpt>
   <trkpt lat="51.390260000000005" lon="-0.83069">
    <ele>56.410000000000004</ele>
   </trkpt>
   <trkpt lat="51.39017500655967" lon="-0.8294499979421394">
    <ele>58.92000000000001</ele>
   </trkpt>
   <trkpt lat="51.39009" lon="-0.8282100000000001">
    <ele>58.56000000000001</ele>
   </trkpt>
   <trkpt lat="51.390060000000005" lon="-0.8280500000000001">
    <ele>58.52</ele>
   </trkpt>
   <trkpt lat="51.38960001181489" lon="-0.8270874709469286">
    <ele>58.39</ele>
   </trkpt>
   <trkpt lat="51.389140015745305" lon="-0.826124961246717">
    <ele>58.84</ele>
   </trkpt>
   <trkpt lat="51.38868001179151" lon="-0.8251624708989889">
    <ele>59.88</ele>
   </trkpt>
   <trkpt lat="51.388220000000004" lon="-0.8242">
    <ele>60.660000000000004</ele>
   </trkpt>
   <trkpt lat="51.387890001785095" lon="-0.8235549953772826">
    <ele>61.970000000000006</ele>
   </trkpt>
   <trkpt lat="51.38756000000001" lon="-0.82291">
    <ele>63.03</ele>
   </trkpt>
   <trkpt lat="51.38729000136015" lon="-0.8223249963399644">
    <ele>62.99</ele>
   </trkpt>
   <trkpt lat="51.38702000000001" lon="-0.82174">
    <ele>63.14</ele>
   </trkpt>
   <trkpt lat="51.38671334544865" lon="-0.8205466506555037">
    <ele>63.92</ele>
   </trkpt>
   <trkpt lat="51.386406678777554" lon="-0.819353317305228">
    <ele>64.78</ele>
   </trkpt>
   <trkpt lat="51.386100000000006" lon="-0.8181600000000001">
    <ele>65.9</ele>
   </trkpt>
   <trkpt lat="51.38586667439016" lon="-0.8172066568980154">
    <ele>66.67</ele>
   </trkpt>
   <trkpt lat="51.385633341045306" lon="-0.8162533235177676">
    <ele>67.69</ele>
   </trkpt>
   <trkpt lat="51.385400000000004" lon="-0.8153">
    <ele>68.62</ele>
   </trkpt>
   <trkpt lat="51.38507004007669" lon="-0.8140470886476744">
    <ele>69.19</ele>
   </trkpt>
   <trkpt lat="51.38474006679343" lon="-0.8127941953630148">
    <ele>70.43</ele>
   </trkpt>
   <trkpt lat="51.384410080150595" lon="-0.8115413201462784">
    <ele>70.85000000000001</ele>
   </trkpt>
   <trkpt lat="51.38408008014854" lon="-0.8102884629977232">
    <ele>71.16</ele>
   </trkpt>
   <trkpt lat="51.38375006678759" lon="-0.8090356239176062">
    <ele>71.26</ele>
   </trkpt>
   <trkpt lat="51.38342004006812" lon="-0.8077828029061851">
    <ele>70.67000000000002</ele>
   </trkpt>
   <trkpt lat="51.38309" lon="-0.8065300000000001">
    <ele>70.89</ele>
   </trkpt>
   <trkpt lat="51.383120000000005" lon="-0.8063400000000001">
    <ele>70.83</ele>
   </trkpt>
   <trkpt lat="51.383070000000004" lon="-0.80632">
    <ele>70.83</ele>
   </trkpt>
   <trkpt lat="51.38311" lon="-0.8061400000000001">
    <ele>70.74000000000001</ele>
   </trkpt>
   <trkpt lat="51.383050000000004" lon="-0.8061200000000001">
    <ele>70.76</ele>
   </trkpt>
   <trkpt lat="51.38302" lon="-0.8061400000000001">
    <ele>70.76</ele>
   </trkpt>
   <trkpt lat="51.38269879506941" lon="-0.8049099395715881">
    <ele>71.59</ele>
   </trkpt>
   <trkpt lat="51.3823775772615" lon="-0.8036798964091987">
    <ele>72.2</ele>
   </trkpt>
   <trkpt lat="51.38205634657665" lon="-0.802449870513083">
    <ele>72.95</ele>
   </trkpt>
   <trkpt lat="51.38173510301513" lon="-0.801219861883492">
    <ele>73.19</ele>
   </trkpt>
   <trkpt lat="51.38141384657732" lon="-0.7999898705206775">
    <ele>72.29</ele>
   </trkpt>
   <trkpt lat="51.3810925772635" lon="-0.7987598964248901">
    <ele>71.51</ele>
   </trkpt>
   <trkpt lat="51.38077129507404" lon="-0.7975299395963812">
    <ele>72.86000000000001</ele>
   </trkpt>
   <trkpt lat="51.38045" lon="-0.7963000000000001">
    <ele>75.00000000000001</ele>
   </trkpt>
   <trkpt lat="51.380370000000006" lon="-0.79637">
    <ele>74.59</ele>
   </trkpt>
   <trkpt lat="51.38033" lon="-0.7964500000000001">
    <ele>74.59</ele>
   </trkpt>
   <trkpt lat="51.38002" lon="-0.7973000000000001">
    <ele>72.59</ele>
   </trkpt>
   <trkpt lat="51.37967251283184" lon="-0.7983025228296649">
    <ele>72.7</ele>
   </trkpt>
   <trkpt lat="51.37932501710964" lon="-0.7993050304375285">
    <ele>73.00000000000001</ele>
   </trkpt>
   <trkpt lat="51.37897751283367" lon="-0.8003075228236368">
    <ele>72.0</ele>
   </trkpt>
   <trkpt lat="51.37863" lon="-0.8013100000000001">
    <ele>70.24000000000001</ele>
   </trkpt>
   <trkpt lat="51.37838000000001" lon="-0.8019700000000001">
    <ele>69.76</ele>
   </trkpt>
   <trkpt lat="51.378056674464446" lon="-0.8029266801575564">
    <ele>69.26</ele>
   </trkpt>
   <trkpt lat="51.377733341139184" lon="-0.8038833468001527">
    <ele>68.71000000000001</ele>
   </trkpt>
   <trkpt lat="51.377410000000005" lon="-0.8048400000000001">
    <ele>70.19</ele>
   </trkpt>
   <trkpt lat="51.377031691642834" lon="-0.8059233780913971">
    <ele>71.5</ele>
   </trkpt>
   <trkpt lat="51.37665337329602" lon="-0.8070067382759921">
    <ele>71.36</ele>
   </trkpt>
   <trkpt lat="51.376275044959876" lon="-0.8080900805538506">
    <ele>72.54</ele>
   </trkpt>
   <trkpt lat="51.375896706634656" lon="-0.8091734049250381">
    <ele>73.83</ele>
   </trkpt>
   <trkpt lat="51.37551835832068" lon="-0.8102567113896206">
    <ele>74.73</ele>
   </trkpt>
   <trkpt lat="51.37514" lon="-0.8113400000000001">
    <ele>76.08000000000001</ele>
   </trkpt>
   <trkpt lat="51.37501" lon="-0.8121400000000001">
    <ele>73.71000000000001</ele>
   </trkpt>
   <trkpt lat="51.374856677466006" lon="-0.8132666742503788">
    <ele>71.14</ele>
   </trkpt>
   <trkpt lat="51.37470334412765" lon="-0.8143933409537585">
    <ele>68.23</ele>
   </trkpt>
   <trkpt lat="51.374550000000006" lon="-0.81552">
    <ele>66.34</ele>
   </trkpt>
   <trkpt lat="51.37444000000001" lon="-0.8166100000000001">
    <ele>65.65</ele>
   </trkpt>
   <trkpt lat="51.3744" lon="-0.8167800000000001">
    <ele>65.65</ele>
   </trkpt>
   <trkpt lat="51.37435000000001" lon="-0.81686">
    <ele>65.65</ele>
   </trkpt>
   <trkpt lat="51.37362" lon="-0.8173900000000001">
    <ele>67.26</ele>
   </trkpt>
   <trkpt lat="51.37333" lon="-0.8177300000000001">
    <ele>68.09</ele>
   </trkpt>
   <trkpt lat="51.373200000000004" lon="-0.8177800000000001">
    <ele>68.35000000000001</ele>
   </trkpt>
   <trkpt lat="51.37275" lon="-0.81776">
    <ele>70.25</ele>
   </trkpt>
   <trkpt lat="51.37209499999662" lon="-0.8177549999284424">
    <ele>71.68</ele>
   </trkpt>
   <trkpt lat="51.37144000000001" lon="-0.8177500000000001">
    <ele>72.3</ele>
   </trkpt>
   <trkpt lat="51.37086000000001" lon="-0.8177700000000001">
    <ele>72.41</ele>
   </trkpt>
   <trkpt lat="51.37016500004889" lon="-0.8177599995453234">
    <ele>73.34</ele>
   </trkpt>
   <trkpt lat="51.36947000009693" lon="-0.8177499993942324">
    <ele>75.94000000000001</ele>
   </trkpt>
   <trkpt lat="51.36877500014412" lon="-0.8177399995467101">
    <ele>77.85</ele>
   </trkpt>
   <trkpt lat="51.368080000000006" lon="-0.8177300000000001">
    <ele>78.2</ele>
   </trkpt>
   <trkpt lat="51.36733" lon="-0.81771">
    <ele>77.12</ele>
   </trkpt>
   <trkpt lat="51.36728" lon="-0.8177000000000001">
    <ele>76.96</ele>
   </trkpt>
   <trkpt lat="51.36708" lon="-0.81886">
    <ele>78.42</ele>
   </trkpt>
   <trkpt lat="51.367050000000006" lon="-0.8187300000000001">
    <ele>77.73</ele>
   </trkpt>
   <trkpt lat="51.36638000000001" lon="-0.8186000000000001">
    <ele>76.51</ele>
   </trkpt>
   <trkpt lat="51.36592" lon="-0.8182100000000001">
    <ele>77.53</ele>
   </trkpt>
   <trkpt lat="51.36582000000001" lon="-0.8186000000000001">
    <ele>77.30000000000001</ele>
   </trkpt>
   <trkpt lat="51.36503429178272" lon="-0.8181128070017759">
    <ele>78.52000000000001</ele>
   </trkpt>
   <trkpt lat="51.364248581545105" lon="-0.817625630720572">
    <ele>80.17</ele>
   </trkpt>
   <trkpt lat="51.363462869287254" lon="-0.8171384711553884">
    <ele>80.88000000000001</ele>
   </trkpt>
   <trkpt lat="51.36267715500932" lon="-0.8166513283052239">
    <ele>81.37</ele>
   </trkpt>
   <trkpt lat="51.36189143871141" lon="-0.8161642021690784">
    <ele>80.46000000000001</ele>
   </trkpt>
   <trkpt lat="51.36110572039367" lon="-0.8156770927459513">
    <ele>79.10000000000001</ele>
   </trkpt>
   <trkpt lat="51.36032" lon="-0.8151900000000001">
    <ele>79.60000000000001</ele>
   </trkpt>
   <trkpt lat="51.36032" lon="-0.8142100000000001">
    <ele>77.14</ele>
   </trkpt>
   <trkpt lat="51.35975499992218" lon="-0.8142500004993927">
    <ele>76.69000000000001</ele>
   </trkpt>
   <trkpt lat="51.359190000000005" lon="-0.8142900000000001">
    <ele>77.14</ele>
   </trkpt>
   <trkpt lat="51.35833500041002" lon="-0.8139749941158847">
    <ele>75.67</ele>
   </trkpt>
   <trkpt lat="51.35748" lon="-0.81366">
    <ele>72.59</ele>
   </trkpt>
   <trkpt lat="51.356765001310116" lon="-0.8130899910453515">
    <ele>66.89</ele>
   </trkpt>
   <trkpt lat="51.35605" lon="-0.81252">
    <ele>65.82000000000001</ele>
   </trkpt>
   <trkpt lat="51.35606000000001" lon="-0.8123900000000001">
    <ele>66.97</ele>
   </trkpt>
   <trkpt lat="51.356120000000004" lon="-0.8121700000000001">
    <ele>67.27000000000001</ele>
   </trkpt>
   <trkpt lat="51.35652" lon="-0.81142">
    <ele>68.94</ele>
   </trkpt>
   <trkpt lat="51.35663" lon="-0.81115">
    <ele>68.45</ele>
   </trkpt>
   <trkpt lat="51.356790000000004" lon="-0.8109000000000001">
    <ele>68.33</ele>
   </trkpt>
   <trkpt lat="51.35687" lon="-0.81074">
    <ele>68.41000000000001</ele>
   </trkpt>
   <trkpt lat="51.35696" lon="-0.81049">
    <ele>68.75</ele>
   </trkpt>
   <trkpt lat="51.35712" lon="-0.8102">
    <ele>69.63000000000001</ele>
   </trkpt>
   <trkpt lat="51.35718000000001" lon="-0.81005">
    <ele>69.63000000000001</ele>
   </trkpt>
   <trkpt lat="51.35723" lon="-0.8097300000000001">
    <ele>70.06000000000002</ele>
   </trkpt>
   <trkpt lat="51.357330000000005" lon="-0.80927">
    <ele>70.39</ele>
   </trkpt>
   <trkpt lat="51.357490000000006" lon="-0.80883">
    <ele>70.78</ele>
   </trkpt>
   <trkpt lat="51.35774000000001" lon="-0.8083">
    <ele>73.01</ele>
   </trkpt>
   <trkpt lat="51.3579" lon="-0.80803">
    <ele>76.57000000000001</ele>
   </trkpt>
   <trkpt lat="51.358160000000005" lon="-0.80788">
    <ele>79.96000000000001</ele>
   </trkpt>
   <trkpt lat="51.35835" lon="-0.80744">
    <ele>82.60000000000001</ele>
   </trkpt>
   <trkpt lat="51.35872500210943" lon="-0.8067300058809903">
    <ele>84.18</ele>
   </trkpt>
   <trkpt lat="51.359100000000005" lon="-0.8060200000000001">
    <ele>87.75</ele>
   </trkpt>
   <trkpt lat="51.35924000000001" lon="-0.8058000000000001">
    <ele>88.13000000000001</ele>
   </trkpt>
   <trkpt lat="51.359480000000005" lon="-0.80532">
    <ele>87.73</ele>
   </trkpt>
   <trkpt lat="51.359700000000004" lon="-0.80495">
    <ele>84.54</ele>
   </trkpt>
   <trkpt lat="51.360240000000005" lon="-0.80417">
    <ele>82.08</ele>
   </trkpt>
   <trkpt lat="51.360440000000004" lon="-0.8038000000000001">
    <ele>82.39</ele>
   </trkpt>
   <trkpt lat="51.3605" lon="-0.80361">
    <ele>82.71000000000001</ele>
   </trkpt>
   <trkpt lat="51.36052" lon="-0.80349">
    <ele>83.01</ele>
   </trkpt>
   <trkpt lat="51.36044500418363" lon="-0.802499998538583">
    <ele>84.89</ele>
   </trkpt>
   <trkpt lat="51.36037" lon="-0.8015100000000001">
    <ele>86.21000000000001</ele>
   </trkpt>
   <trkpt lat="51.36036000000001" lon="-0.80076">
    <ele>87.73</ele>
   </trkpt>
   <trkpt lat="51.360330000000005" lon="-0.80047">
    <ele>88.34</ele>
   </trkpt>
   <trkpt lat="51.36046" lon="-0.80022">
    <ele>88.3</ele>
   </trkpt>
   <trkpt lat="51.360995002781046" lon="-0.799415009368376">
    <ele>90.16</ele>
   </trkpt>
   <trkpt lat="51.36153" lon="-0.79861">
    <ele>93.39</ele>
   </trkpt>
   <trkpt lat="51.3616" lon="-0.79842">
    <ele>93.50000000000001</ele>
   </trkpt>
   <trkpt lat="51.36150500347761" lon="-0.7975149980436972">
    <ele>91.98</ele>
   </trkpt>
   <trkpt lat="51.36141000000001" lon="-0.79661">
    <ele>91.41</ele>
   </trkpt>
   <trkpt lat="51.36123751516572" lon="-0.7955199876549439">
    <ele>91.81</ele>
   </trkpt>
   <trkpt lat="51.36106502021772" lon="-0.7944299835197878">
    <ele>91.52</ele>
   </trkpt>
   <trkpt lat="51.36089251515614" lon="-0.7933399875949002">
    <ele>92.1</ele>
   </trkpt>
   <trkpt lat="51.36072000000001" lon="-0.79225">
    <ele>91.99</ele>
   </trkpt>
   <trkpt lat="51.360640000000004" lon="-0.7915200000000001">
    <ele>90.12</ele>
   </trkpt>
   <trkpt lat="51.360620000000004" lon="-0.79146">
    <ele>89.8</ele>
   </trkpt>
   <trkpt lat="51.36046000585597" lon="-0.7902849957466047">
    <ele>85.09000000000002</ele>
   </trkpt>
   <trkpt lat="51.3603" lon="-0.7891100000000001">
    <ele>82.11</ele>
   </trkpt>
   <trkpt lat="51.360203342893776" lon="-0.788049995480252">
    <ele>83.05000000000001</ele>
   </trkpt>
   <trkpt lat="51.36010667622293" lon="-0.7869899954344468">
    <ele>79.60000000000001</ele>
   </trkpt>
   <trkpt lat="51.36001" lon="-0.78593">
    <ele>78.98</ele>
   </trkpt>
   <trkpt lat="51.35992" lon="-0.78546">
    <ele>78.54</ele>
   </trkpt>
   <trkpt lat="51.35976" lon="-0.785">
    <ele>77.77000000000001</ele>
   </trkpt>
   <trkpt lat="51.359410000000004" lon="-0.78427">
    <ele>76.74</ele>
   </trkpt>
   <trkpt lat="51.35918" lon="-0.7837000000000001">
    <ele>76.22000000000001</ele>
   </trkpt>
   <trkpt lat="51.35905" lon="-0.7835300000000001">
    <ele>76.05000000000001</ele>
   </trkpt>
   <trkpt lat="51.358900000000006" lon="-0.78302">
    <ele>76.32000000000001</ele>
   </trkpt>
   <trkpt lat="51.358900000000006" lon="-0.7821">
    <ele>82.16000000000001</ele>
   </trkpt>
   <trkpt lat="51.359010000000005" lon="-0.78178">
    <ele>83.60000000000001</ele>
   </trkpt>
   <trkpt lat="51.358940000000004" lon="-0.78149">
    <ele>83.44</ele>
   </trkpt>
   <trkpt lat="51.358990000000006" lon="-0.78027">
    <ele>82.53</ele>
   </trkpt>
   <trkpt lat="51.359030000000004" lon="-0.78007">
    <ele>82.48</ele>
   </trkpt>
   <trkpt lat="51.359080000000006" lon="-0.7801400000000001">
    <ele>82.72</ele>
   </trkpt>
   <trkpt lat="51.35913000000001" lon="-0.78017">
    <ele>82.81</ele>
   </trkpt>
   <trkpt lat="51.359190000000005" lon="-0.78017">
    <ele>82.9</ele>
   </trkpt>
   <trkpt lat="51.359990000189306" lon="-0.780025002514431">
    <ele>78.87</ele>
   </trkpt>
   <trkpt lat="51.36079" lon="-0.77988">
    <ele>78.80000000000001</ele>
   </trkpt>
   <trkpt lat="51.36129500013954" lon="-0.7797750011384428">
    <ele>79.78</ele>
   </trkpt>
   <trkpt lat="51.3618" lon="-0.7796700000000001">
    <ele>81.37</ele>
   </trkpt>
   <trkpt lat="51.361830000000005" lon="-0.77951">
    <ele>81.63000000000001</ele>
   </trkpt>
   <trkpt lat="51.36184" lon="-0.77963">
    <ele>81.85000000000001</ele>
   </trkpt>
   <trkpt lat="51.36186000000001" lon="-0.7796700000000001">
    <ele>81.85000000000001</ele>
   </trkpt>
   <trkpt lat="51.362210000000005" lon="-0.7795900000000001">
    <ele>83.23</ele>
   </trkpt>
   <trkpt lat="51.362280000000005" lon="-0.77954">
    <ele>83.4</ele>
   </trkpt>
   <trkpt lat="51.36299" lon="-0.77885">
    <ele>85.37</ele>
   </trkpt>
   <trkpt lat="51.36312" lon="-0.77875">
    <ele>85.37</ele>
   </trkpt>
   <trkpt lat="51.36328" lon="-0.77878">
    <ele>85.83</ele>
   </trkpt>
   <trkpt lat="51.36354000000001" lon="-0.7789200000000001">
    <ele>86.38000000000001</ele>
   </trkpt>
   <trkpt lat="51.36397" lon="-0.7792000000000001">
    <ele>88.43</ele>
   </trkpt>
   <trkpt lat="51.36413" lon="-0.7793500000000001">
    <ele>89.17000000000002</ele>
   </trkpt>
   <trkpt lat="51.364430000000006" lon="-0.7793800000000001">
    <ele>90.92</ele>
   </trkpt>
   <trkpt lat="51.36511" lon="-0.7793100000000001">
    <ele>93.07000000000001</ele>
   </trkpt>
   <trkpt lat="51.365170000000006" lon="-0.77871">
    <ele>91.93</ele>
   </trkpt>
   <trkpt lat="51.36527" lon="-0.77819">
    <ele>91.06</ele>
   </trkpt>
   <trkpt lat="51.36535000000001" lon="-0.77734">
    <ele>89.48</ele>
   </trkpt>
   <trkpt lat="51.36535000000001" lon="-0.77717">
    <ele>88.19</ele>
   </trkpt>
   <trkpt lat="51.36527" lon="-0.77653">
    <ele>87.16</ele>
   </trkpt>
   <trkpt lat="51.365280000000006" lon="-0.7762600000000001">
    <ele>86.84</ele>
   </trkpt>
   <trkpt lat="51.36538" lon="-0.7758200000000001">
    <ele>86.51</ele>
   </trkpt>
   <trkpt lat="51.365390000000005" lon="-0.77566">
    <ele>86.62</ele>
   </trkpt>
   <trkpt lat="51.36535000000001" lon="-0.77488">
    <ele>87.78000000000002</ele>
   </trkpt>
   <trkpt lat="51.36536" lon="-0.7747700000000001">
    <ele>87.78000000000002</ele>
   </trkpt>
   <trkpt lat="51.36551000000001" lon="-0.7742600000000001">
    <ele>89.96000000000001</ele>
   </trkpt>
   <trkpt lat="51.365520000000004" lon="-0.774">
    <ele>91.97000000000001</ele>
   </trkpt>
   <trkpt lat="51.365480000000005" lon="-0.77373">
    <ele>92.64000000000001</ele>
   </trkpt>
   <trkpt lat="51.36531" lon="-0.77322">
    <ele>94.31</ele>
   </trkpt>
   <trkpt lat="51.365170000000006" lon="-0.7729900000000001">
    <ele>95.27000000000001</ele>
   </trkpt>
   <trkpt lat="51.365170000000006" lon="-0.7729">
    <ele>95.27000000000001</ele>
   </trkpt>
   <trkpt lat="51.365790002943214" lon="-0.7720750111076198">
    <ele>98.26</ele>
   </trkpt>
   <trkpt lat="51.36641" lon="-0.7712500000000001">
    <ele>96.59</ele>
   </trkpt>
   <trkpt lat="51.36677" lon="-0.77073">
    <ele>99.69000000000001</ele>
   </trkpt>
   <trkpt lat="51.367200000000004" lon="-0.7702000000000001">
    <ele>102.56000000000002</ele>
   </trkpt>
   <trkpt lat="51.367290000000004" lon="-0.7701300000000001">
    <ele>102.48</ele>
   </trkpt>
   <trkpt lat="51.36762" lon="-0.7698100000000001">
    <ele>99.39</ele>
   </trkpt>
   <trkpt lat="51.36766" lon="-0.76975">
    <ele>99.39</ele>
   </trkpt>
   <trkpt lat="51.36768000000001" lon="-0.7698">
    <ele>98.96000000000001</ele>
   </trkpt>
   <trkpt lat="51.367720000000006" lon="-0.76975">
    <ele>98.96000000000001</ele>
   </trkpt>
   <trkpt lat="51.36782" lon="-0.7697100000000001">
    <ele>98.77000000000001</ele>
   </trkpt>
   <trkpt lat="51.36809" lon="-0.76963">
    <ele>97.12</ele>
   </trkpt>
   <trkpt lat="51.368190000000006" lon="-0.7696500000000001">
    <ele>96.78</ele>
   </trkpt>
   <trkpt lat="51.36831" lon="-0.7697200000000001">
    <ele>96.47000000000001</ele>
   </trkpt>
   <trkpt lat="51.36845" lon="-0.7697700000000001">
    <ele>96.49000000000001</ele>
   </trkpt>
   <trkpt lat="51.369110000000006" lon="-0.7698">
    <ele>101.24000000000001</ele>
   </trkpt>
   <trkpt lat="51.369530000000005" lon="-0.7697100000000001">
    <ele>104.17000000000002</ele>
   </trkpt>
   <trkpt lat="51.3699" lon="-0.76968">
    <ele>109.36000000000001</ele>
   </trkpt>
   <trkpt lat="51.370290000000004" lon="-0.76958">
    <ele>111.48</ele>
   </trkpt>
   <trkpt lat="51.37077000000001" lon="-0.7692300000000001">
    <ele>108.46000000000001</ele>
   </trkpt>
   <trkpt lat="51.3712700005038" lon="-0.7689150033885829">
    <ele>109.04</ele>
   </trkpt>
   <trkpt lat="51.371770000000005" lon="-0.7686000000000001">
    <ele>110.28</ele>
   </trkpt>
   <trkpt lat="51.37223" lon="-0.76824">
    <ele>112.64</ele>
   </trkpt>
   <trkpt lat="51.37257" lon="-0.7680400000000001">
    <ele>115.06</ele>
   </trkpt>
   <trkpt lat="51.372510000000005" lon="-0.76727">
    <ele>116.91000000000001</ele>
   </trkpt>
   <trkpt lat="51.37239" lon="-0.76624">
    <ele>112.03</ele>
   </trkpt>
   <trkpt lat="51.37241" lon="-0.76597">
    <ele>111.03</ele>
   </trkpt>
   <trkpt lat="51.37254" lon="-0.7652300000000001">
    <ele>111.82000000000001</ele>
   </trkpt>
   <trkpt lat="51.372620000000005" lon="-0.7646200000000001">
    <ele>116.77000000000001</ele>
   </trkpt>
   <trkpt lat="51.3727" lon="-0.76422">
    <ele>120.03000000000002</ele>
   </trkpt>
   <trkpt lat="51.37274000000001" lon="-0.76387">
    <ele>121.13000000000001</ele>
   </trkpt>
   <trkpt lat="51.37275500430081" lon="-0.7628650001726156">
    <ele>114.81</ele>
   </trkpt>
   <trkpt lat="51.37277" lon="-0.7618600000000001">
    <ele>110.81</ele>
   </trkpt>
   <trkpt lat="51.37277" lon="-0.76187">
    <ele>110.80000000000001</ele>
   </trkpt>
   <trkpt lat="51.37281" lon="-0.7606400000000001">
    <ele>116.86</ele>
   </trkpt>
   <trkpt lat="51.37279" lon="-0.76019">
    <ele>122.61000000000001</ele>
   </trkpt>
   <trkpt lat="51.372820003876846" lon="-0.7592350007712827">
    <ele>127.47</ele>
   </trkpt>
   <trkpt lat="51.37285000000001" lon="-0.7582800000000001">
    <ele>127.8</ele>
   </trkpt>
   <trkpt lat="51.37292000000001" lon="-0.7571000000000001">
    <ele>128.32000000000002</ele>
   </trkpt>
   <trkpt lat="51.37361666679387" lon="-0.7572199963486821">
    <ele>128.20000000000002</ele>
   </trkpt>
   <trkpt lat="51.37431333346516" lon="-0.7573399963494124">
    <ele>127.66000000000003</ele>
   </trkpt>
   <trkpt lat="51.37501" lon="-0.75746">
    <ele>127.52000000000002</ele>
   </trkpt>
   <trkpt lat="51.375220000000006" lon="-0.7574900000000001">
    <ele>127.31</ele>
   </trkpt>
   <trkpt lat="51.37577" lon="-0.7575500000000001">
    <ele>125.13000000000001</ele>
   </trkpt>
   <trkpt lat="51.37637666676105" lon="-0.757666663570266">
    <ele>128.07999999999998</ele>
   </trkpt>
   <trkpt lat="51.37698333340626" lon="-0.7577833302327558">
    <ele>128.99</ele>
   </trkpt>
   <trkpt lat="51.377590000000005" lon="-0.7579">
    <ele>129.29999999999998</ele>
   </trkpt>
   <trkpt lat="51.377590000000005" lon="-0.7578900000000001">
    <ele>129.29999999999998</ele>
   </trkpt>
   <trkpt lat="51.377860000000005" lon="-0.75795">
    <ele>129.34</ele>
   </trkpt>
   <trkpt lat="51.378339999790654" lon="-0.7579949995076826">
    <ele>129.37</ele>
   </trkpt>
   <trkpt lat="51.378820000000005" lon="-0.75804">
    <ele>129.23000000000002</ele>
   </trkpt>
   <trkpt lat="51.379523333523785" lon="-0.7581633295537399">
    <ele>128.84</ele>
   </trkpt>
   <trkpt lat="51.38022666691808" lon="-0.758286662897694">
    <ele>128.45000000000002</ele>
   </trkpt>
   <trkpt lat="51.380930000000006" lon="-0.75841">
    <ele>128.22</ele>
   </trkpt>
   <trkpt lat="51.38092" lon="-0.75841">
    <ele>128.22</ele>
   </trkpt>
   <trkpt lat="51.38158000000001" lon="-0.7585500000000001">
    <ele>128.0</ele>
   </trkpt>
   <trkpt lat="51.38185000000001" lon="-0.7585200000000001">
    <ele>127.94</ele>
   </trkpt>
   <trkpt lat="51.38154667590714" lon="-0.7595633472459296">
    <ele>127.78</ele>
   </trkpt>
   <trkpt lat="51.38124334254952" lon="-0.7606066806625775">
    <ele>127.14</ele>
   </trkpt>
   <trkpt lat="51.38094" lon="-0.76165">
    <ele>123.12</ele>
   </trkpt>
   <trkpt lat="51.380860000000006" lon="-0.7618900000000001">
    <ele>121.33</ele>
   </trkpt>
   <trkpt lat="51.38147000000001" lon="-0.7627600000000001">
    <ele>118.43</ele>
   </trkpt>
   <trkpt lat="51.3815" lon="-0.76358">
    <ele>121.75000000000001</ele>
   </trkpt>
   <trkpt lat="51.38158000000001" lon="-0.76429">
    <ele>124.33000000000001</ele>
   </trkpt>
   <trkpt lat="51.381600000000006" lon="-0.76463">
    <ele>124.24000000000001</ele>
   </trkpt>
   <trkpt lat="51.38168500435098" lon="-0.7656399982422281">
    <ele>124.35000000000001</ele>
   </trkpt>
   <trkpt lat="51.38177" lon="-0.76665">
    <ele>124.57000000000001</ele>
   </trkpt>
   <trkpt lat="51.381870000000006" lon="-0.7667400000000001">
    <ele>124.2</ele>
   </trkpt>
   <trkpt lat="51.38204" lon="-0.76685">
    <ele>123.71000000000001</ele>
   </trkpt>
   <trkpt lat="51.3825300008743" lon="-0.7673349946820048">
    <ele>123.21000000000001</ele>
   </trkpt>
   <trkpt lat="51.38302" lon="-0.7678200000000001">
    <ele>122.78000000000002</ele>
   </trkpt>
   <trkpt lat="51.38315000000001" lon="-0.7678800000000001">
    <ele>122.62</ele>
   </trkpt>
   <trkpt lat="51.383190000000006" lon="-0.7679900000000001">
    <ele>122.48</ele>
   </trkpt>
   <trkpt lat="51.38331" lon="-0.76822">
    <ele>121.93</ele>
   </trkpt>
   <trkpt lat="51.38346000000001" lon="-0.7683300000000001">
    <ele>120.36</ele>
   </trkpt>
   <trkpt lat="51.383770000000005" lon="-0.76834">
    <ele>115.32000000000001</ele>
   </trkpt>
   <trkpt lat="51.384190000000004" lon="-0.76826">
    <ele>110.68</ele>
   </trkpt>
   <trkpt lat="51.384280000000004" lon="-0.76819">
    <ele>109.41000000000001</ele>
   </trkpt>
   <trkpt lat="51.38436" lon="-0.7680300000000001">
    <ele>109.00000000000001</ele>
   </trkpt>
   <trkpt lat="51.384710000000005" lon="-0.76758">
    <ele>105.28000000000002</ele>
   </trkpt>
   <trkpt lat="51.384820000000005" lon="-0.76746">
    <ele>104.52</ele>
   </trkpt>
   <trkpt lat="51.38494000000001" lon="-0.7673800000000001">
    <ele>104.52</ele>
   </trkpt>
   <trkpt lat="51.38505000000001" lon="-0.76736">
    <ele>103.18</ele>
   </trkpt>
   <trkpt lat="51.385310000000004" lon="-0.76736">
    <ele>102.71000000000001</ele>
   </trkpt>
   <trkpt lat="51.38599500006926" lon="-0.7674349988822956">
    <ele>98.27000000000001</ele>
   </trkpt>
   <trkpt lat="51.386680000000005" lon="-0.76751">
    <ele>96.78</ele>
   </trkpt>
   <trkpt lat="51.38711000000001" lon="-0.76763">
    <ele>95.34</ele>
   </trkpt>
   <trkpt lat="51.38720000000001" lon="-0.7677200000000001">
    <ele>94.62</ele>
   </trkpt>
   <trkpt lat="51.38736" lon="-0.7679400000000001">
    <ele>92.67</ele>
   </trkpt>
   <trkpt lat="51.38731000000001" lon="-0.76834">
    <ele>92.44000000000001</ele>
   </trkpt>
   <trkpt lat="51.38732" lon="-0.7685000000000001">
    <ele>92.42</ele>
   </trkpt>
   <trkpt lat="51.38729000000001" lon="-0.76868">
    <ele>92.66000000000001</ele>
   </trkpt>
   <trkpt lat="51.38725" lon="-0.76919">
    <ele>93.6</ele>
   </trkpt>
   <trkpt lat="51.38716" lon="-0.7697400000000001">
    <ele>94.01</ele>
   </trkpt>
   <trkpt lat="51.38729000000001" lon="-0.7697400000000001">
    <ele>93.84</ele>
   </trkpt>
   <trkpt lat="51.387190000000004" lon="-0.7706700000000001">
    <ele>93.24</ele>
   </trkpt>
   <trkpt lat="51.38720000000001" lon="-0.77109">
    <ele>92.59</ele>
   </trkpt>
   <trkpt lat="51.38718" lon="-0.7716700000000001">
    <ele>92.59</ele>
   </trkpt>
   <trkpt lat="51.387190000000004" lon="-0.7719400000000001">
    <ele>91.99</ele>
   </trkpt>
   <trkpt lat="51.38736" lon="-0.7718400000000001">
    <ele>91.86000000000001</ele>
   </trkpt>
   <trkpt lat="51.387370000000004" lon="-0.7719100000000001">
    <ele>91.76</ele>
   </trkpt>
   <trkpt lat="51.38745" lon="-0.7720100000000001">
    <ele>91.52</ele>
   </trkpt>
   <trkpt lat="51.38740000000001" lon="-0.77214">
    <ele>91.28000000000002</ele>
   </trkpt>
   <trkpt lat="51.387370000000004" lon="-0.7723200000000001">
    <ele>91.08000000000001</ele>
   </trkpt>
   <trkpt lat="51.38749000000001" lon="-0.7725900000000001">
    <ele>90.53000000000002</ele>
   </trkpt>
   <trkpt lat="51.387330000000006" lon="-0.7727400000000001">
    <ele>90.7</ele>
   </trkpt>
   <trkpt lat="51.38732" lon="-0.7728700000000001">
    <ele>90.7</ele>
   </trkpt>
   <trkpt lat="51.387240000000006" lon="-0.77312">
    <ele>90.17000000000002</ele>
   </trkpt>
   <trkpt lat="51.38703" lon="-0.7736000000000001">
    <ele>89.69</ele>
   </trkpt>
   <trkpt lat="51.38692" lon="-0.7739300000000001">
    <ele>89.24000000000001</ele>
   </trkpt>
   <trkpt lat="51.38703" lon="-0.7736000000000001">
    <ele>89.69</ele>
   </trkpt>
   <trkpt lat="51.387240000000006" lon="-0.77312">
    <ele>90.17000000000002</ele>
   </trkpt>
   <trkpt lat="51.38732" lon="-0.7728700000000001">
    <ele>90.7</ele>
   </trkpt>
   <trkpt lat="51.387330000000006" lon="-0.7727400000000001">
    <ele>90.7</ele>
   </trkpt>
   <trkpt lat="51.38749000000001" lon="-0.7725900000000001">
    <ele>90.53000000000002</ele>
   </trkpt>
   <trkpt lat="51.388070000000006" lon="-0.7731500000000001">
    <ele>88.85000000000001</ele>
   </trkpt>
   <trkpt lat="51.38749000000001" lon="-0.7725900000000001">
    <ele>90.53000000000002</ele>
   </trkpt>
   <trkpt lat="51.387330000000006" lon="-0.7727400000000001">
    <ele>90.7</ele>
   </trkpt>
   <trkpt lat="51.38732" lon="-0.7728700000000001">
    <ele>90.7</ele>
   </trkpt>
   <trkpt lat="51.387240000000006" lon="-0.77312">
    <ele>89.98</ele>
   </trkpt>
   <trkpt lat="51.38703" lon="-0.7736000000000001">
    <ele>89.69</ele>
   </trkpt>
   <trkpt lat="51.38692" lon="-0.7739300000000001">
    <ele>89.24000000000001</ele>
   </trkpt>
   <trkpt lat="51.387040000000006" lon="-0.7740400000000001">
    <ele>89.00000000000001</ele>
   </trkpt>
   <trkpt lat="51.38725" lon="-0.77434">
    <ele>88.53000000000002</ele>
   </trkpt>
   <trkpt lat="51.387600000000006" lon="-0.77546">
    <ele>88.28000000000002</ele>
   </trkpt>
   <trkpt lat="51.38768" lon="-0.77514">
    <ele>87.98</ele>
   </trkpt>
   <trkpt lat="51.387840000000004" lon="-0.77514">
    <ele>87.83</ele>
   </trkpt>
   <trkpt lat="51.38794000000001" lon="-0.77517">
    <ele>87.65</ele>
   </trkpt>
   <trkpt lat="51.388200000000005" lon="-0.77541">
    <ele>86.96000000000001</ele>
   </trkpt>
   <trkpt lat="51.38841000000001" lon="-0.77553">
    <ele>86.02000000000001</ele>
   </trkpt>
   <trkpt lat="51.38848" lon="-0.7755500000000001">
    <ele>85.92</ele>
   </trkpt>
   <trkpt lat="51.388560000000005" lon="-0.7754800000000001">
    <ele>86.13000000000001</ele>
   </trkpt>
   <trkpt lat="51.38899000000001" lon="-0.7748200000000001">
    <ele>88.24000000000001</ele>
   </trkpt>
   <trkpt lat="51.38924" lon="-0.77429">
    <ele>88.91</ele>
   </trkpt>
   <trkpt lat="51.389340000000004" lon="-0.7742100000000001">
    <ele>88.9</ele>
   </trkpt>
   <trkpt lat="51.38965" lon="-0.77436">
    <ele>87.94</ele>
   </trkpt>
   <trkpt lat="51.38987" lon="-0.7745900000000001">
    <ele>87.22</ele>
   </trkpt>
   <trkpt lat="51.389970000000005" lon="-0.77507">
    <ele>86.52000000000001</ele>
   </trkpt>
   <trkpt lat="51.39002000000001" lon="-0.77541">
    <ele>86.21000000000001</ele>
   </trkpt>
   <trkpt lat="51.38998" lon="-0.77573">
    <ele>85.70000000000002</ele>
   </trkpt>
   <trkpt lat="51.389900000000004" lon="-0.77607">
    <ele>84.84000000000002</ele>
   </trkpt>
   <trkpt lat="51.39002000000001" lon="-0.77658">
    <ele>84.37</ele>
   </trkpt>
   <trkpt lat="51.390190000000004" lon="-0.7768200000000001">
    <ele>84.27000000000001</ele>
   </trkpt>
   <trkpt lat="51.39032" lon="-0.77688">
    <ele>84.11</ele>
   </trkpt>
   <trkpt lat="51.390710000000006" lon="-0.7770900000000001">
    <ele>83.7</ele>
   </trkpt>
   <trkpt lat="51.39125999996149" lon="-0.7772899975198801">
    <ele>83.56</ele>
   </trkpt>
   <trkpt lat="51.39181000000001" lon="-0.77749">
    <ele>83.11</ele>
   </trkpt>
   <trkpt lat="51.39228000000001" lon="-0.7775900000000001">
    <ele>82.29</ele>
   </trkpt>
   <trkpt lat="51.39233" lon="-0.77771">
    <ele>82.01</ele>
   </trkpt>
   <trkpt lat="51.39269" lon="-0.7783300000000001">
    <ele>80.02000000000001</ele>
   </trkpt>
   <trkpt lat="51.3928" lon="-0.77853">
    <ele>80.02000000000001</ele>
   </trkpt>
   <trkpt lat="51.39305" lon="-0.77873">
    <ele>79.23</ele>
   </trkpt>
   <trkpt lat="51.393100000000004" lon="-0.77883">
    <ele>78.66000000000001</ele>
   </trkpt>
   <trkpt lat="51.39329000000001" lon="-0.77941">
    <ele>76.28</ele>
   </trkpt>
   <trkpt lat="51.393390000000004" lon="-0.7796500000000001">
    <ele>75.81</ele>
   </trkpt>
   <trkpt lat="51.39343" lon="-0.7798200000000001">
    <ele>75.81</ele>
   </trkpt>
   <trkpt lat="51.393440000000005" lon="-0.78002">
    <ele>75.66</ele>
   </trkpt>
   <trkpt lat="51.39338000000001" lon="-0.78032">
    <ele>76.1</ele>
   </trkpt>
   <trkpt lat="51.393330000000006" lon="-0.78034">
    <ele>76.1</ele>
   </trkpt>
   <trkpt lat="51.39341" lon="-0.78058">
    <ele>75.34</ele>
   </trkpt>
   <trkpt lat="51.39387000000001" lon="-0.78095">
    <ele>73.49</ele>
   </trkpt>
   <trkpt lat="51.39396000000001" lon="-0.7806700000000001">
    <ele>73.16</ele>
   </trkpt>
   <trkpt lat="51.39405000000001" lon="-0.78058">
    <ele>72.69</ele>
   </trkpt>
   <trkpt lat="51.39461000000001" lon="-0.78036">
    <ele>71.02</ele>
   </trkpt>
   <trkpt lat="51.39522666752099" lon="-0.7800433418702756">
    <ele>69.4</ele>
   </trkpt>
   <trkpt lat="51.395843334188605" lon="-0.7797266752032617">
    <ele>68.82000000000001</ele>
   </trkpt>
   <trkpt lat="51.396460000000005" lon="-0.77941">
    <ele>69.03</ele>
   </trkpt>
   <trkpt lat="51.396480000000004" lon="-0.7794200000000001">
    <ele>69.03</ele>
   </trkpt>
   <trkpt lat="51.39649000000001" lon="-0.7794200000000001">
    <ele>69.03</ele>
   </trkpt>
   <trkpt lat="51.39697" lon="-0.78017">
    <ele>68.57000000000001</ele>
   </trkpt>
   <trkpt lat="51.397470000000006" lon="-0.7808200000000001">
    <ele>67.59</ele>
   </trkpt>
   <trkpt lat="51.398010000000006" lon="-0.7814000000000001">
    <ele>67.25</ele>
   </trkpt>
   <trkpt lat="51.39815" lon="-0.7815200000000001">
    <ele>67.26</ele>
   </trkpt>
   <trkpt lat="51.39828000000001" lon="-0.7814300000000001">
    <ele>67.29</ele>
   </trkpt>
   <trkpt lat="51.39833" lon="-0.7814200000000001">
    <ele>67.29</ele>
   </trkpt>
   <trkpt lat="51.398340000000005" lon="-0.7814800000000001">
    <ele>67.29</ele>
   </trkpt>
   <trkpt lat="51.398390000000006" lon="-0.78156">
    <ele>67.37</ele>
   </trkpt>
   <trkpt lat="51.398450000000004" lon="-0.78158">
    <ele>67.37</ele>
   </trkpt>
   <trkpt lat="51.39847" lon="-0.7815700000000001">
    <ele>67.37</ele>
   </trkpt>
   <trkpt lat="51.39856" lon="-0.7819200000000001">
    <ele>67.5</ele>
   </trkpt>
   <trkpt lat="51.398680000000006" lon="-0.78219">
    <ele>67.5</ele>
   </trkpt>
   <trkpt lat="51.39906000069949" lon="-0.7826149963919329">
    <ele>68.02000000000001</ele>
   </trkpt>
   <trkpt lat="51.399440000000006" lon="-0.7830400000000001">
    <ele>68.48</ele>
   </trkpt>
   <trkpt lat="51.39952" lon="-0.7831400000000001">
    <ele>68.64</ele>
   </trkpt>
   <trkpt lat="51.399570000000004" lon="-0.78327">
    <ele>68.64</ele>
   </trkpt>
   <trkpt lat="51.39978000000001" lon="-0.7842000000000001">
    <ele>69.23</ele>
   </trkpt>
   <trkpt lat="51.3999350046215" lon="-0.7852399966058204">
    <ele>70.04</ele>
   </trkpt>
   <trkpt lat="51.400090000000006" lon="-0.7862800000000001">
    <ele>70.61</ele>
   </trkpt>
   <trkpt lat="51.40008" lon="-0.7864200000000001">
    <ele>70.61</ele>
   </trkpt>
   <trkpt lat="51.400395001947984" lon="-0.7870949953712604">
    <ele>69.86</ele>
   </trkpt>
   <trkpt lat="51.400710000000004" lon="-0.7877700000000001">
    <ele>69.77000000000001</ele>
   </trkpt>
   <trkpt lat="51.40081000237489" lon="-0.7885149984704607">
    <ele>70.01</ele>
   </trkpt>
   <trkpt lat="51.40091" lon="-0.7892600000000001">
    <ele>69.43</ele>
   </trkpt>
   <trkpt lat="51.40131000360467" lon="-0.7901799919616712">
    <ele>69.01</ele>
   </trkpt>
   <trkpt lat="51.40171" lon="-0.7911">
    <ele>68.84000000000002</ele>
   </trkpt>
   <trkpt lat="51.40144" lon="-0.79227">
    <ele>68.88000000000001</ele>
   </trkpt>
   <trkpt lat="51.402026010183164" lon="-0.7930439603145413">
    <ele>70.76</ele>
   </trkpt>
   <trkpt lat="51.40261201526879" lon="-0.7938179404628842">
    <ele>72.62</ele>
   </trkpt>
   <trkpt lat="51.40319801525665" lon="-0.7945919404457807">
    <ele>73.48</ele>
   </trkpt>
   <trkpt lat="51.4037840101465" lon="-0.7953659602639827">
    <ele>73.9</ele>
   </trkpt>
   <trkpt lat="51.40437000000001" lon="-0.7961400000000001">
    <ele>74.2</ele>
   </trkpt>
   <trkpt lat="51.404230000000005" lon="-0.79693">
    <ele>72.25000000000001</ele>
   </trkpt>
   <trkpt lat="51.40415" lon="-0.7972400000000001">
    <ele>71.63</ele>
   </trkpt>
   <trkpt lat="51.404180000000004" lon="-0.79759">
    <ele>71.23</ele>
   </trkpt>
   <trkpt lat="51.40417000000001" lon="-0.79851">
    <ele>70.39</ele>
   </trkpt>
   <trkpt lat="51.404140000000005" lon="-0.79888">
    <ele>69.44</ele>
   </trkpt>
   <trkpt lat="51.40399000000001" lon="-0.7998500000000001">
    <ele>68.69</ele>
   </trkpt>
   <trkpt lat="51.403760000000005" lon="-0.80093">
    <ele>67.8</ele>
   </trkpt>
   <trkpt lat="51.40321" lon="-0.802">
    <ele>66.7</ele>
   </trkpt>
   <trkpt lat="51.40281" lon="-0.8030200000000001">
    <ele>66.25</ele>
   </trkpt>
   <trkpt lat="51.40267000000001" lon="-0.8037200000000001">
    <ele>66.02000000000001</ele>
   </trkpt>
   <trkpt lat="51.402640000000005" lon="-0.8040600000000001">
    <ele>65.92</ele>
   </trkpt>
   <trkpt lat="51.402680000000004" lon="-0.80432">
    <ele>65.92</ele>
   </trkpt>
   <trkpt lat="51.402730000000005" lon="-0.8044100000000001">
    <ele>65.92</ele>
   </trkpt>
   <trkpt lat="51.40301" lon="-0.80466">
    <ele>65.89</ele>
   </trkpt>
   <trkpt lat="51.40314000000001" lon="-0.8048500000000001">
    <ele>65.65</ele>
   </trkpt>
   <trkpt lat="51.40332" lon="-0.8051900000000001">
    <ele>65.45</ele>
   </trkpt>
   <trkpt lat="51.40348" lon="-0.80559">
    <ele>64.7</ele>
   </trkpt>
   <trkpt lat="51.403560000000006" lon="-0.80586">
    <ele>64.43</ele>
   </trkpt>
   <trkpt lat="51.403650000000006" lon="-0.8063400000000001">
    <ele>64.02000000000001</ele>
   </trkpt>
   <trkpt lat="51.40375" lon="-0.8066800000000001">
    <ele>63.34</ele>
   </trkpt>
   <trkpt lat="51.40406" lon="-0.80722">
    <ele>63.07</ele>
   </trkpt>
   <trkpt lat="51.40415" lon="-0.80744">
    <ele>63.02</ele>
   </trkpt>
   <trkpt lat="51.404160000000005" lon="-0.8077000000000001">
    <ele>63.02</ele>
   </trkpt>
   <trkpt lat="51.4042" lon="-0.8078500000000001">
    <ele>62.7</ele>
   </trkpt>
   <trkpt lat="51.40429" lon="-0.80791">
    <ele>62.7</ele>
   </trkpt>
   <trkpt lat="51.404360000000004" lon="-0.8079000000000001">
    <ele>62.7</ele>
   </trkpt>
   <trkpt lat="51.404410000000006" lon="-0.80786">
    <ele>62.7</ele>
   </trkpt>
   <trkpt lat="51.40447" lon="-0.8077300000000001">
    <ele>62.7</ele>
   </trkpt>
   <trkpt lat="51.40447" lon="-0.8076200000000001">
    <ele>62.7</ele>
   </trkpt>
   <trkpt lat="51.404650000000004" lon="-0.80732">
    <ele>63.0</ele>
   </trkpt>
   <trkpt lat="51.40518" lon="-0.80681">
    <ele>66.15</ele>
   </trkpt>
   <trkpt lat="51.40561" lon="-0.80652">
    <ele>69.73</ele>
   </trkpt>
   <trkpt lat="51.40581" lon="-0.80644">
    <ele>69.73</ele>
   </trkpt>
   <trkpt lat="51.406150000000004" lon="-0.8064100000000001">
    <ele>71.27</ele>
   </trkpt>
   <trkpt lat="51.40639" lon="-0.8064500000000001">
    <ele>72.12</ele>
   </trkpt>
   <trkpt lat="51.40719000000001" lon="-0.80676">
    <ele>69.91</ele>
   </trkpt>
   <trkpt lat="51.4072" lon="-0.8067700000000001">
    <ele>69.94</ele>
   </trkpt>
   <trkpt lat="51.407340000000005" lon="-0.8068500000000001">
    <ele>68.25</ele>
   </trkpt>
   <trkpt lat="51.40747" lon="-0.807">
    <ele>68.25</ele>
   </trkpt>
   <trkpt lat="51.40758" lon="-0.8072900000000001">
    <ele>66.79</ele>
   </trkpt>
   <trkpt lat="51.40771" lon="-0.808">
    <ele>65.46000000000001</ele>
   </trkpt>
   <trkpt lat="51.40753" lon="-0.8080700000000001">
    <ele>65.37</ele>
   </trkpt>
   <trkpt lat="51.407560000000004" lon="-0.8083">
    <ele>65.16000000000001</ele>
   </trkpt>
   <trkpt lat="51.40753" lon="-0.8085100000000001">
    <ele>64.81</ele>
   </trkpt>
   <trkpt lat="51.407250000000005" lon="-0.8091700000000001">
    <ele>64.03</ele>
   </trkpt>
   <trkpt lat="51.407180000000004" lon="-0.8092400000000001">
    <ele>63.910000000000004</ele>
   </trkpt>
   <trkpt lat="51.407090000000004" lon="-0.80925">
    <ele>63.86</ele>
   </trkpt>
   <trkpt lat="51.40695" lon="-0.8092">
    <ele>63.97</ele>
   </trkpt>
   <trkpt lat="51.40677" lon="-0.8092">
    <ele>64.11</ele>
   </trkpt>
   <trkpt lat="51.406780000000005" lon="-0.8092800000000001">
    <ele>63.96</ele>
   </trkpt>
   <trkpt lat="51.40673" lon="-0.8093400000000001">
    <ele>63.910000000000004</ele>
   </trkpt>
   <trkpt lat="51.40661000000001" lon="-0.80942">
    <ele>63.80000000000001</ele>
   </trkpt>
   <trkpt lat="51.40654000000001" lon="-0.8095600000000001">
    <ele>63.6</ele>
   </trkpt>
   <trkpt lat="51.40652000000001" lon="-0.80976">
    <ele>63.08000000000001</ele>
   </trkpt>
   <trkpt lat="51.406530000000004" lon="-0.81032">
    <ele>62.330000000000005</ele>
   </trkpt>
   <trkpt lat="51.406490000000005" lon="-0.8105100000000001">
    <ele>62.07000000000001</ele>
   </trkpt>
   <trkpt lat="51.40648" lon="-0.8107500000000001">
    <ele>61.94</ele>
   </trkpt>
   <trkpt lat="51.40668" lon="-0.81066">
    <ele>61.85</ele>
   </trkpt>
   <trkpt lat="51.40692000000001" lon="-0.81059">
    <ele>61.870000000000005</ele>
   </trkpt>
   <trkpt lat="51.407160000000005" lon="-0.8107000000000001">
    <ele>61.730000000000004</ele>
   </trkpt>
   <trkpt lat="51.407970000000006" lon="-0.81125">
    <ele>62.550000000000004</ele>
   </trkpt>
   <trkpt lat="51.408590000972424" lon="-0.8117249935688166">
    <ele>63.300000000000004</ele>
   </trkpt>
   <trkpt lat="51.40921" lon="-0.8122">
    <ele>63.51000000000001</ele>
   </trkpt>
   <trkpt lat="51.40968" lon="-0.81261">
    <ele>63.74</ele>
   </trkpt>
   <trkpt lat="51.410430000000005" lon="-0.8131100000000001">
    <ele>63.86</ele>
   </trkpt>
   <trkpt lat="51.41029" lon="-0.8139000000000001">
    <ele>63.03</ele>
   </trkpt>
   <trkpt lat="51.41026" lon="-0.81432">
    <ele>62.550000000000004</ele>
   </trkpt>
   <trkpt lat="51.41026" lon="-0.8148200000000001">
    <ele>61.900000000000006</ele>
   </trkpt>
   <trkpt lat="51.41030000000001" lon="-0.8154">
    <ele>61.51</ele>
   </trkpt>
   <trkpt lat="51.41044" lon="-0.8163100000000001">
    <ele>60.800000000000004</ele>
   </trkpt>
   <trkpt lat="51.410646675414746" lon="-0.8173233242245302">
    <ele>60.33</ele>
   </trkpt>
   <trkpt lat="51.410853342092096" lon="-0.8183366576100523">
    <ele>60.04</ele>
   </trkpt>
   <trkpt lat="51.411060000000006" lon="-0.81935">
    <ele>59.68</ele>
   </trkpt>
   <trkpt lat="51.41114" lon="-0.8195600000000001">
    <ele>59.68</ele>
   </trkpt>
   <trkpt lat="51.411280000000005" lon="-0.82018">
    <ele>59.550000000000004</ele>
   </trkpt>
   <trkpt lat="51.412036668626214" lon="-0.8197066823011819">
    <ele>59.02</ele>
   </trkpt>
   <trkpt lat="51.412793335346095" lon="-0.8192333489348825">
    <ele>58.59</ele>
   </trkpt>
   <trkpt lat="51.41355" lon="-0.81876">
    <ele>59.010000000000005</ele>
   </trkpt>
   <trkpt lat="51.41376" lon="-0.8187000000000001">
    <ele>59.06</ele>
   </trkpt>
   <trkpt lat="51.41382" lon="-0.81876">
    <ele>59.07</ele>
   </trkpt>
   <trkpt lat="51.41411" lon="-0.81888">
    <ele>58.93</ele>
   </trkpt>
   <trkpt lat="51.41469000000001" lon="-0.8190200000000001">
    <ele>59.04</ele>
   </trkpt>
   <trkpt lat="51.415144999879836" lon="-0.8191599985439172">
    <ele>59.21000000000001</ele>
   </trkpt>
   <trkpt lat="51.415600000000005" lon="-0.8193">
    <ele>59.71000000000001</ele>
   </trkpt>
   <trkpt lat="51.415980000000005" lon="-0.81945">
    <ele>59.690000000000005</ele>
   </trkpt>
   <trkpt lat="51.41651" lon="-0.81969">
    <ele>59.74</ele>
   </trkpt>
   <trkpt lat="51.416720000000005" lon="-0.8198500000000001">
    <ele>59.620000000000005</ele>
   </trkpt>
   <trkpt lat="51.41678" lon="-0.8199500000000001">
    <ele>59.63</ele>
   </trkpt>
   <trkpt lat="51.416830000000004" lon="-0.81993">
    <ele>59.7</ele>
   </trkpt>
   <trkpt lat="51.41698" lon="-0.8199000000000001">
    <ele>59.830000000000005</ele>
   </trkpt>
   <trkpt lat="51.41747" lon="-0.8201">
    <ele>59.830000000000005</ele>
   </trkpt>
   <trkpt lat="51.417840000000005" lon="-0.82015">
    <ele>59.77</ele>
   </trkpt>
   <trkpt lat="51.41861" lon="-0.8202200000000001">
    <ele>59.46000000000001</ele>
   </trkpt>
   <trkpt lat="51.41881000000001" lon="-0.82025">
    <ele>59.29</ele>
   </trkpt>
   <trkpt lat="51.41915" lon="-0.8203400000000001">
    <ele>59.150000000000006</ele>
   </trkpt>
   <trkpt lat="51.419630000000005" lon="-0.8205500000000001">
    <ele>58.67000000000001</ele>
   </trkpt>
   <trkpt lat="51.419900000000005" lon="-0.8206800000000001">
    <ele>58.67000000000001</ele>
   </trkpt>
   <trkpt lat="51.420730000000006" lon="-0.82115">
    <ele>58.160000000000004</ele>
   </trkpt>
   <trkpt lat="51.42087" lon="-0.8212">
    <ele>58.13000000000001</ele>
   </trkpt>
   <trkpt lat="51.42105" lon="-0.82118">
    <ele>58.2</ele>
   </trkpt>
   <trkpt lat="51.42118000000001" lon="-0.8212400000000001">
    <ele>58.220000000000006</ele>
   </trkpt>
   <trkpt lat="51.421220000000005" lon="-0.8214100000000001">
    <ele>58.160000000000004</ele>
   </trkpt>
   <trkpt lat="51.421290000000006" lon="-0.8216100000000001">
    <ele>57.99000000000001</ele>
   </trkpt>
   <trkpt lat="51.42140500311818" lon="-0.8224649979101715">
    <ele>57.650000000000006</ele>
   </trkpt>
   <trkpt lat="51.42152" lon="-0.82332">
    <ele>56.95</ele>
   </trkpt>
   <trkpt lat="51.42155" lon="-0.8233800000000001">
    <ele>56.95</ele>
   </trkpt>
   <trkpt lat="51.421510000000005" lon="-0.82357">
    <ele>56.84</ele>
   </trkpt>
   <trkpt lat="51.42145000338382" lon="-0.8244600009593761">
    <ele>55.730000000000004</ele>
   </trkpt>
   <trkpt lat="51.42139" lon="-0.82535">
    <ele>54.44</ele>
   </trkpt>
   <trkpt lat="51.42148" lon="-0.82664">
    <ele>51.510000000000005</ele>
   </trkpt>
   <trkpt lat="51.42137" lon="-0.82793">
    <ele>50.89</ele>
   </trkpt>
   <trkpt lat="51.42127000000001" lon="-0.82852">
    <ele>51.13</ele>
   </trkpt>
   <trkpt lat="51.420935005437556" lon="-0.8296550084642448">
    <ele>52.92</ele>
   </trkpt>
   <trkpt lat="51.42060000000001" lon="-0.83079">
    <ele>54.46</ele>
   </trkpt>
   <trkpt lat="51.420460000000006" lon="-0.83101">
    <ele>54.86000000000001</ele>
   </trkpt>
   <trkpt lat="51.420390000000005" lon="-0.83106">
    <ele>55.220000000000006</ele>
   </trkpt>
   <trkpt lat="51.420350000000006" lon="-0.83108">
    <ele>55.220000000000006</ele>
   </trkpt>
   <trkpt lat="51.420210000000004" lon="-0.8310700000000001">
    <ele>55.620000000000005</ele>
   </trkpt>
   <trkpt lat="51.420100000000005" lon="-0.83103">
    <ele>55.74</ele>
   </trkpt>
   <trkpt lat="51.420100000000005" lon="-0.8312">
    <ele>55.82</ele>
   </trkpt>
   <trkpt lat="51.42016" lon="-0.8315">
    <ele>55.940000000000005</ele>
   </trkpt>
   <trkpt lat="51.42024000000001" lon="-0.8322">
    <ele>56.050000000000004</ele>
   </trkpt>
   <trkpt lat="51.42027" lon="-0.83291">
    <ele>56.2</ele>
   </trkpt>
   <trkpt lat="51.420280000000005" lon="-0.8333200000000001">
    <ele>56.28</ele>
   </trkpt>
   <trkpt lat="51.420230000000004" lon="-0.8339500000000001">
    <ele>56.63</ele>
   </trkpt>
  </trkseg>
 </trk>
</gpx>
